{
"type": "FeatureCollection",
"name": "cultural-relic",
"crs": { "type": "name", "properties": { "name": "urn:ogc:def:crs:OGC:1.3:CRS84" } },
"features": [
{ "type": "Feature", "properties": { "OBJECTID": 1 }, "geometry": { "type": "Polygon", "coordinates": [ [ [ 110.156809188017121, 25.218259939305451, 0.0 ], [ 110.156905042884432, 25.218065272921969, 0.0 ], [ 110.157000897438877, 25.217870606463372, 0.0 ], [ 110.157094896337043, 25.217675199854583, 0.0 ], [ 110.15718938224397, 25.217480003756773, 0.0 ], [ 110.157287290014864, 25.217286191244845, 0.0 ], [ 110.157383038102424, 25.21709148193203, 0.0 ], [ 110.157479937757202, 25.216897244390157, 0.0 ], [ 110.157574137001248, 25.216701926809993, 0.0 ], [ 110.157666559572675, 25.216505893791549, 0.0 ], [ 110.157760154943986, 25.216310320127469, 0.0 ], [ 110.157566007336584, 25.216190715287158, 0.0 ], [ 110.157371891211042, 25.216071068012685, 0.0 ], [ 110.157177529526976, 25.21595175230161, 0.0 ], [ 110.156982824806647, 25.215832899661766, 0.0 ], [ 110.156788120667969, 25.215714046503763, 0.0 ], [ 110.15659341697534, 25.215595193011382, 0.0 ], [ 110.15639871340332, 25.215476339625802, 0.0 ], [ 110.156201992366931, 25.215360361111863, 0.0 ], [ 110.156001536971161, 25.215249703754736, 0.0 ], [ 110.155798643909691, 25.215142837795852, 0.0 ], [ 110.15559436496622, 25.21503812746284, 0.0 ], [ 110.155452918460284, 25.215159916097733, 0.0 ], [ 110.155327716534487, 25.215340265595884, 0.0 ], [ 110.155241633676525, 25.2155078422679, 0.0 ], [ 110.155459785440925, 25.215582376236927, 0.0 ], [ 110.155644702161396, 25.215713494523428, 0.0 ], [ 110.155803131249982, 25.215867898202603, 0.0 ], [ 110.155689665047063, 25.216204273134093, 0.0 ], [ 110.155600429219845, 25.216397666770835, 0.0 ], [ 110.155575735780118, 25.21660912437974, 0.0 ], [ 110.155632735553112, 25.216814028377232, 0.0 ], [ 110.155586155996147, 25.216966155691434, 0.0 ], [ 110.155359593556952, 25.21702092847687, 0.0 ], [ 110.155174805679337, 25.217151485990872, 0.0 ], [ 110.155112323815686, 25.217349705703558, 0.0 ], [ 110.155170572049684, 25.217550218879353, 0.0 ], [ 110.155288952007737, 25.21773250354671, 0.0 ], [ 110.155501275430638, 25.21781126588597, 0.0 ], [ 110.15573565935928, 25.217810696146483, 0.0 ], [ 110.155961734786544, 25.217862910832903, 0.0 ], [ 110.15617650118773, 25.217946739515412, 0.0 ], [ 110.156367530735594, 25.218069759921644, 0.0 ], [ 110.156492608616389, 25.218247731383691, 0.0 ], [ 110.156530880155628, 25.218444577294374, 0.0 ], [ 110.156420651199355, 25.218632365258678, 0.0 ], [ 110.15647548319302, 25.21877643192401, 0.0 ], [ 110.156603202668038, 25.218643181905126, 0.0 ], [ 110.15670644309391, 25.218451666277755, 0.0 ], [ 110.156809188017121, 25.218259939305451, 0.0 ] ], [ [ 110.156300014255336, 25.217894458520973, 0.0 ], [ 110.156314289900152, 25.217786078614314, 0.0 ], [ 110.156338983493598, 25.217678940284042, 0.0 ], [ 110.15635334093075, 25.21757125375159, 0.0 ], [ 110.15634658650211, 25.217258527461514, 0.0 ], [ 110.15646587813643, 25.217247323969836, 0.0 ], [ 110.156583574658967, 25.217224524245704, 0.0 ], [ 110.156695020449106, 25.217183231308205, 0.0 ], [ 110.156798821979137, 25.217129407576234, 0.0 ], [ 110.156888936285355, 25.21705819319072, 0.0 ], [ 110.156964092081765, 25.21697270066176, 0.0 ], [ 110.15701510168158, 25.216874661241054, 0.0 ], [ 110.157057875223074, 25.216772342205765, 0.0 ], [ 110.157083004107847, 25.216667125772044, 0.0 ], [ 110.157082254635796, 25.216557659936971, 0.0 ], [ 110.157081504986891, 25.216448194101321, 0.0 ], [ 110.157049819526506, 25.216343638995717, 0.0 ], [ 110.157009770553941, 25.216240411508572, 0.0 ], [ 110.15697853918725, 25.216136128304441, 0.0 ], [ 110.157061633467549, 25.216093911643107, 0.0 ], [ 110.15717256070505, 25.216136288107165, 0.0 ], [ 110.157281319630982, 25.216183072134299, 0.0 ], [ 110.157371953997597, 25.21625265449752, 0.0 ], [ 110.157425784309552, 25.216350439848757, 0.0 ], [ 110.15744533691047, 25.216458209698104, 0.0 ], [ 110.157463168260136, 25.216566469166185, 0.0 ], [ 110.157465547432906, 25.216675731618015, 0.0 ], [ 110.157430245333799, 25.216780116234897, 0.0 ], [ 110.157385491494779, 25.216881380832575, 0.0 ], [ 110.157331002201005, 25.216978983098304, 0.0 ], [ 110.157265196601813, 25.217069644561349, 0.0 ], [ 110.157186163115895, 25.217152192720594, 0.0 ], [ 110.157108876899343, 25.217236040964558, 0.0 ], [ 110.157035611489377, 25.21732288091513, 0.0 ], [ 110.156979161960052, 25.217419463759953, 0.0 ], [ 110.156936443870407, 25.217520842238223, 0.0 ], [ 110.156909992274478, 25.217627632771482, 0.0 ], [ 110.156884403703245, 25.217734590038717, 0.0 ], [ 110.156860861437011, 25.217841942643737, 0.0 ], [ 110.156829612640109, 25.217947271927397, 0.0 ], [ 110.156786561125401, 25.218049494461233, 0.0 ], [ 110.156743270748137, 25.218151633595117, 0.0 ], [ 110.156693097723675, 25.218251128933915, 0.0 ], [ 110.156562345736162, 25.218240108160213, 0.0 ], [ 110.156523831600779, 25.218136398318567, 0.0 ], [ 110.156465298799063, 25.218045615312572, 0.0 ], [ 110.156370379748765, 25.217978328290084, 0.0 ], [ 110.156300014255336, 25.217894458520973, 0.0 ] ] ] } }
]
}
