{
"type": "FeatureCollection",
"name": "freight-station",
"crs": { "type": "name", "properties": { "name": "urn:ogc:def:crs:OGC:1.3:CRS84" } },
"features": [
{ "type": "Feature", "properties": { "名称": "桂林福达农产品冷链物流园" }, "geometry": { "type": "Polygon", "coordinates": [ [ [ 110.20417, 25.29061 ], [ 110.204198, 25.290576 ], [ 110.204325, 25.29042 ], [ 110.20422, 25.290357 ], [ 110.204161, 25.290188 ], [ 110.204019, 25.290126 ], [ 110.203919, 25.290268 ], [ 110.20345, 25.290085 ], [ 110.203362, 25.29005 ], [ 110.202996, 25.289908 ], [ 110.20298, 25.289901 ], [ 110.203107, 25.289683 ], [ 110.203211, 25.289503 ], [ 110.202849, 25.289384 ], [ 110.202606, 25.289296 ], [ 110.202363, 25.289209 ], [ 110.202265, 25.289177 ], [ 110.202228, 25.289165 ], [ 110.201984, 25.289086 ], [ 110.201739, 25.289006 ], [ 110.201461, 25.288933 ], [ 110.201182, 25.288859 ], [ 110.200874, 25.28879 ], [ 110.200566, 25.288721 ], [ 110.200469, 25.288699 ], [ 110.200085, 25.28863 ], [ 110.199906, 25.288597 ], [ 110.199702, 25.288561 ], [ 110.19969, 25.288559 ], [ 110.199324, 25.288516 ], [ 110.199274, 25.28851 ], [ 110.199254, 25.288507 ], [ 110.199215, 25.28868 ], [ 110.199205, 25.288721 ], [ 110.199229, 25.288734 ], [ 110.199296, 25.28879 ], [ 110.199494, 25.289028 ], [ 110.199719, 25.289141 ], [ 110.19986, 25.289225 ], [ 110.200035, 25.289319 ], [ 110.200205, 25.28942 ], [ 110.200245, 25.289442 ], [ 110.20027, 25.289458 ], [ 110.200273, 25.28946 ], [ 110.200262, 25.289472 ], [ 110.200256, 25.28949 ], [ 110.200221, 25.289623 ], [ 110.20022, 25.289636 ], [ 110.200207, 25.289713 ], [ 110.200205, 25.28972 ], [ 110.200187, 25.289824 ], [ 110.200188, 25.28986 ], [ 110.20019, 25.289898 ], [ 110.200185, 25.289906 ], [ 110.200189, 25.289932 ], [ 110.200217, 25.289973 ], [ 110.200279, 25.29002 ], [ 110.200448, 25.290129 ], [ 110.20048, 25.290152 ], [ 110.200555, 25.290238 ], [ 110.200589, 25.290264 ], [ 110.200626, 25.290281 ], [ 110.200652, 25.290293 ], [ 110.200664, 25.290295 ], [ 110.200745, 25.290254 ], [ 110.200773, 25.290233 ], [ 110.200806, 25.290195 ], [ 110.200817, 25.290191 ], [ 110.200826, 25.290194 ], [ 110.200849, 25.290213 ], [ 110.200879, 25.290237 ], [ 110.200918, 25.290268 ], [ 110.200942, 25.290294 ], [ 110.20096, 25.290324 ], [ 110.200994, 25.290356 ], [ 110.200995, 25.290357 ], [ 110.201037, 25.290394 ], [ 110.201074, 25.290422 ], [ 110.201169, 25.290459 ], [ 110.201271, 25.290508 ], [ 110.201403, 25.290581 ], [ 110.201404, 25.290581 ], [ 110.201446, 25.2906 ], [ 110.201448, 25.2906 ], [ 110.201456, 25.290607 ], [ 110.20147, 25.290619 ], [ 110.201488, 25.290629 ], [ 110.201487, 25.290631 ], [ 110.201301, 25.290974 ], [ 110.201215, 25.291132 ], [ 110.201196, 25.291166 ], [ 110.201775, 25.291301 ], [ 110.202354, 25.291436 ], [ 110.202932, 25.29157 ], [ 110.203511, 25.291705 ], [ 110.203685, 25.291745 ], [ 110.203779, 25.291767 ], [ 110.203824, 25.291719 ], [ 110.203843, 25.2917 ], [ 110.203916, 25.291587 ], [ 110.204011, 25.291159 ], [ 110.204107, 25.29073 ], [ 110.204142, 25.290663 ], [ 110.20417, 25.29061 ] ] ] } },
{ "type": "Feature", "properties": { "名称": "桂林福达农产品冷链物流园" }, "geometry": { "type": "Polygon", "coordinates": [ [ [ 110.199205, 25.288721 ], [ 110.199085, 25.289106 ], [ 110.198965, 25.289491 ], [ 110.199169, 25.289681 ], [ 110.199313, 25.289768 ], [ 110.199395, 25.289758 ], [ 110.199534, 25.289708 ], [ 110.199676, 25.28963 ], [ 110.200164, 25.289848 ], [ 110.200182, 25.289859 ], [ 110.200188, 25.28986 ], [ 110.200187, 25.289824 ], [ 110.200205, 25.28972 ], [ 110.200207, 25.289713 ], [ 110.20022, 25.289636 ], [ 110.200221, 25.289623 ], [ 110.200256, 25.28949 ], [ 110.200262, 25.289472 ], [ 110.200273, 25.28946 ], [ 110.20027, 25.289458 ], [ 110.200245, 25.289442 ], [ 110.200205, 25.28942 ], [ 110.200035, 25.289319 ], [ 110.19986, 25.289225 ], [ 110.199719, 25.289141 ], [ 110.199494, 25.289028 ], [ 110.199296, 25.28879 ], [ 110.199229, 25.288734 ], [ 110.199205, 25.288721 ] ] ] } },
{ "type": "Feature", "properties": { "名称": "中通快递桂林转运中心" }, "geometry": { "type": "Polygon", "coordinates": [ [ [ 110.190664, 25.287046 ], [ 110.19067, 25.287 ], [ 110.190717, 25.286623 ], [ 110.190566, 25.286608 ], [ 110.190546, 25.286606 ], [ 110.190189, 25.286572 ], [ 110.189832, 25.286537 ], [ 110.189825, 25.286563 ], [ 110.189803, 25.286769 ], [ 110.189801, 25.286785 ], [ 110.1898, 25.286801 ], [ 110.189779, 25.287 ], [ 110.189753, 25.287236 ], [ 110.189749, 25.287269 ], [ 110.189763, 25.28727 ], [ 110.190054, 25.287299 ], [ 110.190345, 25.287327 ], [ 110.190612, 25.287341 ], [ 110.190633, 25.287342 ], [ 110.190636, 25.287314 ], [ 110.190643, 25.287218 ], [ 110.190645, 25.287196 ], [ 110.190664, 25.287046 ] ] ] } },
{ "type": "Feature", "properties": { "名称": "通达综合物流园" }, "geometry": { "type": "Polygon", "coordinates": [ [ [ 110.184605, 25.286616 ], [ 110.184669, 25.286614 ], [ 110.184676, 25.286613 ], [ 110.184679, 25.28661 ], [ 110.184678, 25.286591 ], [ 110.184672, 25.286551 ], [ 110.184669, 25.286498 ], [ 110.184685, 25.286485 ], [ 110.18478, 25.28647 ], [ 110.18489, 25.28645 ], [ 110.18494, 25.286441 ], [ 110.184996, 25.286446 ], [ 110.185107, 25.286464 ], [ 110.185139, 25.286464 ], [ 110.185146, 25.286464 ], [ 110.185213, 25.286459 ], [ 110.185241, 25.286454 ], [ 110.185263, 25.286454 ], [ 110.185392, 25.286513 ], [ 110.185479, 25.286536 ], [ 110.185664, 25.286583 ], [ 110.185782, 25.286625 ], [ 110.185893, 25.286634 ], [ 110.185901, 25.286638 ], [ 110.185978, 25.28668 ], [ 110.186164, 25.286716 ], [ 110.186286, 25.286696 ], [ 110.186325, 25.286671 ], [ 110.186389, 25.286649 ], [ 110.186406, 25.286643 ], [ 110.186472, 25.28662 ], [ 110.186479, 25.286616 ], [ 110.186593, 25.28656 ], [ 110.186612, 25.286545 ], [ 110.186617, 25.286541 ], [ 110.186704, 25.286471 ], [ 110.186755, 25.286439 ], [ 110.186832, 25.286313 ], [ 110.186884, 25.286229 ], [ 110.186884, 25.286229 ], [ 110.187043, 25.285933 ], [ 110.187203, 25.285638 ], [ 110.187253, 25.285548 ], [ 110.187312, 25.285428 ], [ 110.187345, 25.285383 ], [ 110.187391, 25.285279 ], [ 110.187412, 25.285279 ], [ 110.187453, 25.285302 ], [ 110.187557, 25.285131 ], [ 110.187558, 25.285129 ], [ 110.187582, 25.285092 ], [ 110.187648, 25.284983 ], [ 110.187711, 25.284881 ], [ 110.187712, 25.284878 ], [ 110.187714, 25.284875 ], [ 110.187716, 25.284872 ], [ 110.187856, 25.284644 ], [ 110.188077, 25.284283 ], [ 110.187831, 25.284181 ], [ 110.187813, 25.284173 ], [ 110.187689, 25.284122 ], [ 110.1873, 25.28396 ], [ 110.186911, 25.283798 ], [ 110.186874, 25.28379 ], [ 110.186843, 25.283782 ], [ 110.186647, 25.283737 ], [ 110.186431, 25.283687 ], [ 110.18626, 25.283647 ], [ 110.186074, 25.283604 ], [ 110.185879, 25.283914 ], [ 110.185639, 25.284341 ], [ 110.185605, 25.284503 ], [ 110.185437, 25.284696 ], [ 110.185229, 25.284744 ], [ 110.185071, 25.284602 ], [ 110.184976, 25.284615 ], [ 110.184848, 25.284638 ], [ 110.18478, 25.284674 ], [ 110.184755, 25.284742 ], [ 110.184794, 25.284811 ], [ 110.184825, 25.284855 ], [ 110.184932, 25.284861 ], [ 110.185241, 25.284819 ], [ 110.185293, 25.284854 ], [ 110.185337, 25.284965 ], [ 110.185307, 25.285012 ], [ 110.18495, 25.285024 ], [ 110.184593, 25.285036 ], [ 110.184594, 25.285296 ], [ 110.18455, 25.285364 ], [ 110.184501, 25.285439 ], [ 110.184224, 25.285554 ], [ 110.184007, 25.285638 ], [ 110.18395, 25.28607 ], [ 110.183893, 25.286503 ], [ 110.183865, 25.286675 ], [ 110.183865, 25.286675 ], [ 110.183857, 25.286738 ], [ 110.183855, 25.286761 ], [ 110.183853, 25.286798 ], [ 110.183851, 25.286821 ], [ 110.183851, 25.286822 ], [ 110.183844, 25.286911 ], [ 110.183844, 25.286917 ], [ 110.184159, 25.286941 ], [ 110.184211, 25.286595 ], [ 110.184214, 25.286558 ], [ 110.184606, 25.286541 ], [ 110.184605, 25.286616 ] ] ] } },
{ "type": "Feature", "properties": { "名称": "通达综合物流园" }, "geometry": { "type": "Polygon", "coordinates": [ [ [ 110.186406, 25.286643 ], [ 110.186389, 25.286649 ], [ 110.186325, 25.286671 ], [ 110.186286, 25.286696 ], [ 110.186164, 25.286716 ], [ 110.185978, 25.28668 ], [ 110.185901, 25.286638 ], [ 110.185893, 25.286634 ], [ 110.185782, 25.286625 ], [ 110.185664, 25.286583 ], [ 110.185479, 25.286536 ], [ 110.185392, 25.286513 ], [ 110.185263, 25.286454 ], [ 110.185241, 25.286454 ], [ 110.185213, 25.286459 ], [ 110.185146, 25.286464 ], [ 110.185139, 25.286464 ], [ 110.185107, 25.286464 ], [ 110.184996, 25.286446 ], [ 110.18494, 25.286441 ], [ 110.18489, 25.28645 ], [ 110.18478, 25.28647 ], [ 110.184685, 25.286485 ], [ 110.184669, 25.286498 ], [ 110.184672, 25.286551 ], [ 110.184678, 25.286591 ], [ 110.184679, 25.28661 ], [ 110.184676, 25.286613 ], [ 110.184669, 25.286614 ], [ 110.184605, 25.286616 ], [ 110.184605, 25.286618 ], [ 110.184602, 25.286785 ], [ 110.184596, 25.28688 ], [ 110.184595, 25.28692 ], [ 110.184594, 25.286962 ], [ 110.184769, 25.286967 ], [ 110.18513, 25.286957 ], [ 110.185317, 25.286958 ], [ 110.185516, 25.286964 ], [ 110.185694, 25.286972 ], [ 110.185714, 25.286973 ], [ 110.185913, 25.286982 ], [ 110.185949, 25.286985 ], [ 110.186117, 25.287004 ], [ 110.186212, 25.287009 ], [ 110.186256, 25.287011 ], [ 110.186448, 25.287022 ], [ 110.186744, 25.287039 ], [ 110.187039, 25.287055 ], [ 110.187052, 25.287056 ], [ 110.187209, 25.287065 ], [ 110.187073, 25.287018 ], [ 110.187017, 25.286987 ], [ 110.186994, 25.286926 ], [ 110.187008, 25.286867 ], [ 110.187099, 25.28675 ], [ 110.187068, 25.286693 ], [ 110.186996, 25.286691 ], [ 110.186834, 25.286693 ], [ 110.186744, 25.286762 ], [ 110.186677, 25.286829 ], [ 110.186595, 25.286886 ], [ 110.186495, 25.286916 ], [ 110.186448, 25.28691 ], [ 110.186352, 25.286852 ], [ 110.186408, 25.286757 ], [ 110.186406, 25.286643 ] ] ] } },
{ "type": "Feature", "properties": { "名称": "城南综合物流园" }, "geometry": { "type": "Polygon", "coordinates": [ [ [ 110.14126, 25.202741 ], [ 110.14134, 25.202637 ], [ 110.141426, 25.202524 ], [ 110.141299, 25.202461 ], [ 110.141597, 25.202008 ], [ 110.141464, 25.202059 ], [ 110.141395, 25.202072 ], [ 110.141285, 25.202094 ], [ 110.14126, 25.20209 ], [ 110.141137, 25.202076 ], [ 110.141112, 25.202073 ], [ 110.141084, 25.202059 ], [ 110.141058, 25.202045 ], [ 110.140957, 25.201992 ], [ 110.14089, 25.201911 ], [ 110.140868, 25.201596 ], [ 110.140858, 25.20151 ], [ 110.140766, 25.201495 ], [ 110.140681, 25.201534 ], [ 110.14001, 25.201535 ], [ 110.139982, 25.201528 ], [ 110.139911, 25.201506 ], [ 110.139847, 25.201465 ], [ 110.13978, 25.201423 ], [ 110.139737, 25.201404 ], [ 110.139698, 25.201388 ], [ 110.139559, 25.201399 ], [ 110.139558, 25.201398 ], [ 110.139526, 25.201319 ], [ 110.139486, 25.201219 ], [ 110.139481, 25.201015 ], [ 110.13948, 25.201012 ], [ 110.139438, 25.200826 ], [ 110.139438, 25.200763 ], [ 110.139451, 25.20074 ], [ 110.139439, 25.200726 ], [ 110.139417, 25.200705 ], [ 110.139218, 25.200515 ], [ 110.139176, 25.200479 ], [ 110.139008, 25.200538 ], [ 110.138844, 25.200623 ], [ 110.138783, 25.200743 ], [ 110.1388, 25.200846 ], [ 110.1388, 25.200899 ], [ 110.138833, 25.200944 ], [ 110.139114, 25.201308 ], [ 110.139132, 25.201371 ], [ 110.139079, 25.201413 ], [ 110.139029, 25.201405 ], [ 110.138996, 25.201365 ], [ 110.138855, 25.201293 ], [ 110.138614, 25.201271 ], [ 110.138471, 25.201236 ], [ 110.138428, 25.201212 ], [ 110.138395, 25.20122 ], [ 110.13836, 25.201219 ], [ 110.138328, 25.201208 ], [ 110.138289, 25.201211 ], [ 110.138242, 25.201245 ], [ 110.138162, 25.201314 ], [ 110.138142, 25.201334 ], [ 110.138083, 25.201391 ], [ 110.137973, 25.201502 ], [ 110.138318, 25.201845 ], [ 110.138376, 25.201902 ], [ 110.138462, 25.201988 ], [ 110.137948, 25.202318 ], [ 110.137732, 25.202441 ], [ 110.137595, 25.202519 ], [ 110.137464, 25.202432 ], [ 110.137418, 25.202406 ], [ 110.137157, 25.202263 ], [ 110.136958, 25.202052 ], [ 110.136923, 25.202053 ], [ 110.136838, 25.202058 ], [ 110.13675, 25.202081 ], [ 110.136682, 25.202124 ], [ 110.136611, 25.202174 ], [ 110.136511, 25.202251 ], [ 110.13651, 25.202252 ], [ 110.136419, 25.202309 ], [ 110.136185, 25.202546 ], [ 110.136156, 25.202583 ], [ 110.136132, 25.202608 ], [ 110.136114, 25.202628 ], [ 110.136108, 25.202633 ], [ 110.136061, 25.202671 ], [ 110.136059, 25.202672 ], [ 110.136058, 25.202673 ], [ 110.135958, 25.203067 ], [ 110.1359, 25.203266 ], [ 110.13588, 25.203346 ], [ 110.135788, 25.203703 ], [ 110.135676, 25.204139 ], [ 110.135593, 25.20446 ], [ 110.13551, 25.204781 ], [ 110.135399, 25.205203 ], [ 110.135666, 25.205364 ], [ 110.135933, 25.205526 ], [ 110.136105, 25.205636 ], [ 110.136333, 25.205782 ], [ 110.13641, 25.205832 ], [ 110.136693, 25.206016 ], [ 110.136977, 25.2062 ], [ 110.137182, 25.206334 ], [ 110.13748, 25.206521 ], [ 110.137777, 25.206707 ], [ 110.137932, 25.206823 ], [ 110.13797, 25.206852 ], [ 110.138023, 25.206893 ], [ 110.13808, 25.206931 ], [ 110.138216, 25.206755 ], [ 110.138249, 25.206712 ], [ 110.138501, 25.206379 ], [ 110.138754, 25.206047 ], [ 110.138932, 25.20581 ], [ 110.138987, 25.205738 ], [ 110.139249, 25.205394 ], [ 110.139512, 25.20505 ], [ 110.139774, 25.204706 ], [ 110.140035, 25.204364 ], [ 110.140296, 25.204023 ], [ 110.140386, 25.203896 ], [ 110.140505, 25.203726 ], [ 110.1407, 25.203472 ], [ 110.140894, 25.203218 ], [ 110.141089, 25.202965 ], [ 110.141089, 25.202964 ], [ 110.14126, 25.202741 ] ] ] } },
{ "type": "Feature", "properties": { "名称": "临苏路物流园" }, "geometry": { "type": "Polygon", "coordinates": [ [ [ 110.130605, 25.212375 ], [ 110.130671, 25.212077 ], [ 110.130704, 25.211917 ], [ 110.130617, 25.211754 ], [ 110.130584, 25.211504 ], [ 110.130607, 25.211333 ], [ 110.130595, 25.211256 ], [ 110.130595, 25.211255 ], [ 110.130537, 25.21115 ], [ 110.130519, 25.210941 ], [ 110.13052, 25.210886 ], [ 110.130511, 25.210735 ], [ 110.130515, 25.210657 ], [ 110.130543, 25.210605 ], [ 110.130543, 25.210604 ], [ 110.130624, 25.210595 ], [ 110.130577, 25.210394 ], [ 110.130544, 25.210257 ], [ 110.130419, 25.210142 ], [ 110.130248, 25.210119 ], [ 110.130163, 25.210051 ], [ 110.130132, 25.210026 ], [ 110.130127, 25.210022 ], [ 110.130114, 25.21001 ], [ 110.130045, 25.209945 ], [ 110.129974, 25.209852 ], [ 110.129939, 25.209681 ], [ 110.12996, 25.209602 ], [ 110.129846, 25.209602 ], [ 110.129711, 25.209714 ], [ 110.129658, 25.209742 ], [ 110.12964, 25.209792 ], [ 110.129571, 25.210205 ], [ 110.129459, 25.210693 ], [ 110.129399, 25.210928 ], [ 110.129399, 25.210928 ], [ 110.129304, 25.211401 ], [ 110.12923, 25.211663 ], [ 110.129229, 25.211664 ], [ 110.12918, 25.211927 ], [ 110.129086, 25.212433 ], [ 110.129134, 25.212682 ], [ 110.12914, 25.212683 ], [ 110.129155, 25.212724 ], [ 110.129189, 25.212784 ], [ 110.129233, 25.212792 ], [ 110.129708, 25.212883 ], [ 110.130184, 25.212975 ], [ 110.130207, 25.212977 ], [ 110.130382, 25.212995 ], [ 110.130467, 25.213003 ], [ 110.130467, 25.213003 ], [ 110.130467, 25.213002 ], [ 110.130467, 25.213002 ], [ 110.130459, 25.212919 ], [ 110.130435, 25.212801 ], [ 110.130432, 25.212786 ], [ 110.130433, 25.212703 ], [ 110.130433, 25.212648 ], [ 110.130434, 25.212576 ], [ 110.130434, 25.212562 ], [ 110.130434, 25.212556 ], [ 110.13044, 25.212448 ], [ 110.130482, 25.212399 ], [ 110.130546, 25.21238 ], [ 110.130605, 25.212375 ] ] ] } },
{ "type": "Feature", "properties": { "名称": "临苏路物流园" }, "geometry": { "type": "Polygon", "coordinates": [ [ [ 110.131143, 25.209763 ], [ 110.130805, 25.209709 ], [ 110.130383, 25.209656 ], [ 110.12996, 25.209602 ], [ 110.129939, 25.209681 ], [ 110.129974, 25.209852 ], [ 110.130045, 25.209945 ], [ 110.130114, 25.21001 ], [ 110.130127, 25.210022 ], [ 110.130132, 25.210026 ], [ 110.130163, 25.210051 ], [ 110.130248, 25.210119 ], [ 110.130419, 25.210142 ], [ 110.130544, 25.210257 ], [ 110.130577, 25.210394 ], [ 110.130624, 25.210595 ], [ 110.130543, 25.210604 ], [ 110.130543, 25.210605 ], [ 110.130515, 25.210657 ], [ 110.130511, 25.210735 ], [ 110.13052, 25.210886 ], [ 110.130519, 25.210941 ], [ 110.130537, 25.21115 ], [ 110.130595, 25.211255 ], [ 110.130595, 25.211256 ], [ 110.130607, 25.211333 ], [ 110.130584, 25.211504 ], [ 110.130617, 25.211754 ], [ 110.130704, 25.211917 ], [ 110.130763, 25.211606 ], [ 110.130803, 25.211193 ], [ 110.130897, 25.210789 ], [ 110.131032, 25.210298 ], [ 110.131091, 25.210016 ], [ 110.131143, 25.209763 ] ] ] } },
{ "type": "Feature", "properties": { "名称": "临苏路物流园" }, "geometry": { "type": "Polygon", "coordinates": [ [ [ 110.130605, 25.212375 ], [ 110.130546, 25.21238 ], [ 110.130482, 25.212399 ], [ 110.13044, 25.212448 ], [ 110.130434, 25.212556 ], [ 110.130434, 25.212562 ], [ 110.130434, 25.212576 ], [ 110.130433, 25.212648 ], [ 110.130433, 25.212703 ], [ 110.130432, 25.212786 ], [ 110.130435, 25.212801 ], [ 110.130459, 25.212919 ], [ 110.130467, 25.213002 ], [ 110.130467, 25.213002 ], [ 110.130467, 25.213003 ], [ 110.130467, 25.213003 ], [ 110.130468, 25.213003 ], [ 110.130529, 25.21301 ], [ 110.130574, 25.213016 ], [ 110.130613, 25.213021 ], [ 110.130587, 25.212876 ], [ 110.130584, 25.212856 ], [ 110.130587, 25.212784 ], [ 110.130589, 25.21274 ], [ 110.130591, 25.212704 ], [ 110.130588, 25.21258 ], [ 110.130605, 25.212375 ] ] ] } },
{ "type": "Feature", "properties": { "名称": "临政路物流园" }, "geometry": { "type": "Polygon", "coordinates": [ [ [ 110.205194, 25.247401 ], [ 110.205387, 25.247233 ], [ 110.205362, 25.247211 ], [ 110.205359, 25.247208 ], [ 110.205351, 25.247201 ], [ 110.205347, 25.247197 ], [ 110.205282, 25.247136 ], [ 110.20528, 25.247134 ], [ 110.205253, 25.247109 ], [ 110.205309, 25.247061 ], [ 110.205339, 25.247039 ], [ 110.205316, 25.247018 ], [ 110.205318, 25.247016 ], [ 110.205318, 25.247015 ], [ 110.205255, 25.246958 ], [ 110.205256, 25.246957 ], [ 110.205242, 25.246944 ], [ 110.205213, 25.246917 ], [ 110.2052, 25.246907 ], [ 110.205135, 25.24685 ], [ 110.205138, 25.246848 ], [ 110.205094, 25.246808 ], [ 110.205001, 25.246724 ], [ 110.205132, 25.246588 ], [ 110.205142, 25.246578 ], [ 110.204974, 25.246428 ], [ 110.204851, 25.24632 ], [ 110.204675, 25.246163 ], [ 110.204666, 25.246172 ], [ 110.204648, 25.24619 ], [ 110.20464, 25.246198 ], [ 110.204598, 25.246239 ], [ 110.20457, 25.246266 ], [ 110.204552, 25.246283 ], [ 110.204544, 25.246291 ], [ 110.204453, 25.246379 ], [ 110.204406, 25.246337 ], [ 110.204349, 25.246283 ], [ 110.204226, 25.246171 ], [ 110.204132, 25.246085 ], [ 110.204111, 25.246065 ], [ 110.204058, 25.246017 ], [ 110.203929, 25.245899 ], [ 110.203747, 25.245733 ], [ 110.203624, 25.245621 ], [ 110.203559, 25.245561 ], [ 110.203452, 25.245464 ], [ 110.203315, 25.245338 ], [ 110.203031, 25.245079 ], [ 110.202971, 25.245024 ], [ 110.202897, 25.244956 ], [ 110.202876, 25.244937 ], [ 110.202683, 25.244759 ], [ 110.202669, 25.244746 ], [ 110.202513, 25.244602 ], [ 110.202438, 25.244534 ], [ 110.202414, 25.244512 ], [ 110.202246, 25.244357 ], [ 110.202217, 25.24433 ], [ 110.201922, 25.244451 ], [ 110.201893, 25.244442 ], [ 110.201893, 25.244443 ], [ 110.201887, 25.244447 ], [ 110.201887, 25.244446 ], [ 110.201862, 25.244463 ], [ 110.20184, 25.244478 ], [ 110.201833, 25.244471 ], [ 110.201764, 25.244515 ], [ 110.201723, 25.244537 ], [ 110.20175, 25.244577 ], [ 110.201686, 25.244612 ], [ 110.201598, 25.24466 ], [ 110.201432, 25.244804 ], [ 110.201405, 25.244827 ], [ 110.201218, 25.244989 ], [ 110.201204, 25.245001 ], [ 110.20118, 25.245021 ], [ 110.201182, 25.245022 ], [ 110.201107, 25.245089 ], [ 110.201079, 25.245115 ], [ 110.201059, 25.245133 ], [ 110.201053, 25.245138 ], [ 110.200983, 25.245201 ], [ 110.200971, 25.245212 ], [ 110.200959, 25.245222 ], [ 110.200771, 25.24539 ], [ 110.200735, 25.245424 ], [ 110.200968, 25.245596 ], [ 110.201076, 25.245675 ], [ 110.201094, 25.245688 ], [ 110.201221, 25.245782 ], [ 110.201244, 25.245799 ], [ 110.20129, 25.245833 ], [ 110.201273, 25.245852 ], [ 110.201364, 25.245919 ], [ 110.201393, 25.245941 ], [ 110.201497, 25.246017 ], [ 110.201562, 25.246066 ], [ 110.201563, 25.246066 ], [ 110.201862, 25.246291 ], [ 110.201916, 25.246331 ], [ 110.201936, 25.24631 ], [ 110.201949, 25.24632 ], [ 110.20203, 25.246379 ], [ 110.202054, 25.246397 ], [ 110.202259, 25.246553 ], [ 110.202274, 25.246564 ], [ 110.202303, 25.246586 ], [ 110.202332, 25.246608 ], [ 110.202335, 25.246606 ], [ 110.202664, 25.246854 ], [ 110.202712, 25.24689 ], [ 110.202792, 25.246949 ], [ 110.202825, 25.246974 ], [ 110.202991, 25.247097 ], [ 110.203039, 25.247132 ], [ 110.203287, 25.247315 ], [ 110.203513, 25.247481 ], [ 110.203533, 25.247496 ], [ 110.203564, 25.247519 ], [ 110.203668, 25.247397 ], [ 110.203979, 25.247641 ], [ 110.204047, 25.247695 ], [ 110.204289, 25.247884 ], [ 110.204623, 25.247624 ], [ 110.204839, 25.247448 ], [ 110.205056, 25.247271 ], [ 110.205165, 25.247373 ], [ 110.205168, 25.247376 ], [ 110.205194, 25.247401 ] ] ] } },
{ "type": "Feature", "properties": { "名称": "龙门路物流园" }, "geometry": { "type": "Polygon", "coordinates": [ [ [ 110.194915, 25.235031 ], [ 110.194853, 25.234927 ], [ 110.194657, 25.234609 ], [ 110.194629, 25.234585 ], [ 110.194587, 25.234574 ], [ 110.194539, 25.234576 ], [ 110.194516, 25.234531 ], [ 110.194505, 25.23451 ], [ 110.194502, 25.234504 ], [ 110.194696, 25.234435 ], [ 110.194661, 25.234362 ], [ 110.194511, 25.234017 ], [ 110.194418, 25.234052 ], [ 110.194316, 25.233844 ], [ 110.194212, 25.233661 ], [ 110.194074, 25.233399 ], [ 110.193957, 25.233176 ], [ 110.194067, 25.233128 ], [ 110.194046, 25.233092 ], [ 110.194029, 25.233061 ], [ 110.194008, 25.232987 ], [ 110.19372, 25.233101 ], [ 110.193309, 25.233278 ], [ 110.192833, 25.233487 ], [ 110.192931, 25.23366 ], [ 110.193028, 25.233834 ], [ 110.193109, 25.23398 ], [ 110.193234, 25.234199 ], [ 110.193311, 25.234346 ], [ 110.193436, 25.234571 ], [ 110.193507, 25.234696 ], [ 110.193539, 25.234788 ], [ 110.193546, 25.234857 ], [ 110.193538, 25.234903 ], [ 110.193538, 25.234932 ], [ 110.193541, 25.234944 ], [ 110.193625, 25.234906 ], [ 110.193736, 25.234857 ], [ 110.193944, 25.234765 ], [ 110.194154, 25.235046 ], [ 110.194365, 25.235328 ], [ 110.19458, 25.235212 ], [ 110.194915, 25.235031 ] ] ] } },
{ "type": "Feature", "properties": { "名称": "龙门路物流园" }, "geometry": { "type": "Polygon", "coordinates": [ [ [ 110.197691, 25.23985 ], [ 110.197675, 25.239631 ], [ 110.197731, 25.239594 ], [ 110.19767, 25.239244 ], [ 110.19763, 25.239129 ], [ 110.197519, 25.238773 ], [ 110.197447, 25.238554 ], [ 110.197431, 25.238505 ], [ 110.197328, 25.238322 ], [ 110.197188, 25.238105 ], [ 110.196995, 25.237902 ], [ 110.196942, 25.23783 ], [ 110.196874, 25.237677 ], [ 110.196777, 25.237819 ], [ 110.196691, 25.237944 ], [ 110.196693, 25.237981 ], [ 110.196697, 25.238117 ], [ 110.196716, 25.238242 ], [ 110.196742, 25.238424 ], [ 110.196785, 25.238547 ], [ 110.196896, 25.238794 ], [ 110.196986, 25.238964 ], [ 110.197044, 25.239073 ], [ 110.197377, 25.238903 ], [ 110.197504, 25.23912 ], [ 110.197527, 25.239172 ], [ 110.197548, 25.239253 ], [ 110.19757, 25.239423 ], [ 110.197581, 25.239539 ], [ 110.197626, 25.239633 ], [ 110.197506, 25.239715 ], [ 110.197505, 25.239716 ], [ 110.197503, 25.239715 ], [ 110.197472, 25.239747 ], [ 110.197435, 25.239783 ], [ 110.197394, 25.239819 ], [ 110.197361, 25.239825 ], [ 110.197373, 25.239892 ], [ 110.197691, 25.23985 ] ] ] } },
{ "type": "Feature", "properties": { "名称": "人民南路物流园" }, "geometry": { "type": "Polygon", "coordinates": [ [ [ 110.151084, 25.191102 ], [ 110.15107, 25.191087 ], [ 110.151057, 25.19104 ], [ 110.151039, 25.190986 ], [ 110.151029, 25.190973 ], [ 110.151028, 25.190968 ], [ 110.151023, 25.190908 ], [ 110.151023, 25.190907 ], [ 110.150998, 25.190866 ], [ 110.150989, 25.190855 ], [ 110.150888, 25.190734 ], [ 110.150669, 25.19052 ], [ 110.15056, 25.190413 ], [ 110.150391, 25.190246 ], [ 110.150262, 25.190116 ], [ 110.150139, 25.190214 ], [ 110.149867, 25.190429 ], [ 110.149595, 25.190645 ], [ 110.149823, 25.190931 ], [ 110.150012, 25.191168 ], [ 110.150428, 25.191576 ], [ 110.150542, 25.191688 ], [ 110.150814, 25.191446 ], [ 110.150864, 25.191395 ], [ 110.150941, 25.19133 ], [ 110.151026, 25.191237 ], [ 110.151053, 25.191199 ], [ 110.151074, 25.191145 ], [ 110.151084, 25.191102 ] ] ] } },
{ "type": "Feature", "properties": { "名称": "人民南路物流园" }, "geometry": { "type": "Polygon", "coordinates": [ [ [ 110.153112, 25.193136 ], [ 110.153052, 25.193079 ], [ 110.153051, 25.193078 ], [ 110.152938, 25.19297 ], [ 110.152912, 25.192943 ], [ 110.152895, 25.192922 ], [ 110.152828, 25.192834 ], [ 110.152826, 25.192832 ], [ 110.15276, 25.192746 ], [ 110.152491, 25.192475 ], [ 110.152298, 25.192305 ], [ 110.152106, 25.192135 ], [ 110.151768, 25.191809 ], [ 110.151431, 25.191483 ], [ 110.151381, 25.191428 ], [ 110.151371, 25.191429 ], [ 110.151345, 25.191423 ], [ 110.151285, 25.191422 ], [ 110.151242, 25.191441 ], [ 110.151114, 25.191538 ], [ 110.150947, 25.191723 ], [ 110.15078, 25.191908 ], [ 110.150618, 25.192098 ], [ 110.150772, 25.192223 ], [ 110.150872, 25.192303 ], [ 110.150906, 25.192331 ], [ 110.151073, 25.192445 ], [ 110.151239, 25.192541 ], [ 110.151392, 25.192597 ], [ 110.151442, 25.192615 ], [ 110.151609, 25.192656 ], [ 110.151701, 25.192673 ], [ 110.151794, 25.192691 ], [ 110.152039, 25.192765 ], [ 110.152096, 25.192782 ], [ 110.152386, 25.192894 ], [ 110.152397, 25.19287 ], [ 110.152235, 25.192728 ], [ 110.152259, 25.192692 ], [ 110.152334, 25.192639 ], [ 110.152396, 25.192675 ], [ 110.152507, 25.192771 ], [ 110.152565, 25.192836 ], [ 110.152565, 25.192857 ], [ 110.152514, 25.192928 ], [ 110.152496, 25.192951 ], [ 110.152663, 25.19305 ], [ 110.152694, 25.19308 ], [ 110.152695, 25.193081 ], [ 110.152709, 25.193095 ], [ 110.152731, 25.193116 ], [ 110.15274, 25.193125 ], [ 110.152773, 25.193157 ], [ 110.152836, 25.193234 ], [ 110.15288, 25.193289 ], [ 110.152902, 25.193315 ], [ 110.153112, 25.193136 ] ] ] } },
{ "type": "Feature", "properties": { "名称": "人民南路物流园" }, "geometry": { "type": "Polygon", "coordinates": [ [ [ 110.154784, 25.194871 ], [ 110.154537, 25.194664 ], [ 110.154356, 25.194488 ], [ 110.154272, 25.194366 ], [ 110.154218, 25.194319 ], [ 110.154138, 25.194347 ], [ 110.153947, 25.19441 ], [ 110.15389, 25.194429 ], [ 110.15389, 25.194429 ], [ 110.153878, 25.194433 ], [ 110.153862, 25.194438 ], [ 110.153734, 25.194476 ], [ 110.153616, 25.194439 ], [ 110.153616, 25.194439 ], [ 110.15361, 25.194447 ], [ 110.153585, 25.194487 ], [ 110.153581, 25.194501 ], [ 110.15356, 25.194574 ], [ 110.153552, 25.194603 ], [ 110.153591, 25.194778 ], [ 110.153623, 25.194953 ], [ 110.15351, 25.195007 ], [ 110.153511, 25.195021 ], [ 110.153511, 25.195021 ], [ 110.153512, 25.195035 ], [ 110.153565, 25.195102 ], [ 110.153557, 25.195167 ], [ 110.153579, 25.195219 ], [ 110.153592, 25.195252 ], [ 110.153641, 25.195346 ], [ 110.153577, 25.195393 ], [ 110.153517, 25.19546 ], [ 110.15351, 25.19548 ], [ 110.153553, 25.195548 ], [ 110.153513, 25.195607 ], [ 110.153522, 25.195624 ], [ 110.153583, 25.195682 ], [ 110.153625, 25.195669 ], [ 110.153783, 25.195793 ], [ 110.153821, 25.19577 ], [ 110.153963, 25.195683 ], [ 110.154001, 25.19566 ], [ 110.154134, 25.195517 ], [ 110.154224, 25.195422 ], [ 110.154232, 25.195413 ], [ 110.154274, 25.195368 ], [ 110.154274, 25.195368 ], [ 110.154274, 25.195368 ], [ 110.154466, 25.195163 ], [ 110.154509, 25.195114 ], [ 110.154509, 25.195114 ], [ 110.154624, 25.194984 ], [ 110.154636, 25.194971 ], [ 110.154698, 25.194928 ], [ 110.154784, 25.194871 ] ] ] } },
{ "type": "Feature", "properties": { "名称": "人民南路物流园" }, "geometry": { "type": "Polygon", "coordinates": [ [ [ 110.154622, 25.195787 ], [ 110.154616, 25.195773 ], [ 110.154611, 25.195752 ], [ 110.154613, 25.195735 ], [ 110.154614, 25.195729 ], [ 110.154743, 25.195545 ], [ 110.154852, 25.195426 ], [ 110.155139, 25.195224 ], [ 110.155065, 25.195156 ], [ 110.155025, 25.195115 ], [ 110.154807, 25.194889 ], [ 110.154785, 25.194871 ], [ 110.154784, 25.194871 ], [ 110.154698, 25.194928 ], [ 110.154636, 25.194971 ], [ 110.154624, 25.194984 ], [ 110.154509, 25.195114 ], [ 110.154509, 25.195114 ], [ 110.154466, 25.195163 ], [ 110.154274, 25.195368 ], [ 110.154274, 25.195368 ], [ 110.154274, 25.195368 ], [ 110.154232, 25.195413 ], [ 110.154224, 25.195422 ], [ 110.154134, 25.195517 ], [ 110.154001, 25.19566 ], [ 110.153963, 25.195683 ], [ 110.153821, 25.19577 ], [ 110.153783, 25.195793 ], [ 110.153809, 25.195815 ], [ 110.153818, 25.19582 ], [ 110.153875, 25.195872 ], [ 110.153885, 25.195885 ], [ 110.153893, 25.195886 ], [ 110.153903, 25.195882 ], [ 110.153922, 25.195859 ], [ 110.153938, 25.195844 ], [ 110.15399, 25.195801 ], [ 110.154026, 25.195813 ], [ 110.154113, 25.19587 ], [ 110.154166, 25.195853 ], [ 110.154188, 25.195858 ], [ 110.154278, 25.195939 ], [ 110.154467, 25.1958 ], [ 110.154518, 25.195842 ], [ 110.154534, 25.195831 ], [ 110.154622, 25.195787 ] ] ] } },
{ "type": "Feature", "properties": { "名称": "万福路物流园" }, "geometry": { "type": "Polygon", "coordinates": [ [ [ 110.187498, 25.223604 ], [ 110.187639, 25.223486 ], [ 110.187642, 25.223483 ], [ 110.187624, 25.22347 ], [ 110.187435, 25.223268 ], [ 110.18738, 25.22321 ], [ 110.18712, 25.222932 ], [ 110.186951, 25.222769 ], [ 110.186882, 25.222697 ], [ 110.186812, 25.222625 ], [ 110.186762, 25.222577 ], [ 110.186545, 25.222365 ], [ 110.186232, 25.222039 ], [ 110.185918, 25.221713 ], [ 110.185621, 25.221412 ], [ 110.185502, 25.221287 ], [ 110.185324, 25.221427 ], [ 110.184993, 25.221695 ], [ 110.184908, 25.221761 ], [ 110.184737, 25.221885 ], [ 110.184672, 25.221941 ], [ 110.184659, 25.221956 ], [ 110.18466, 25.221963 ], [ 110.184663, 25.221967 ], [ 110.184667, 25.221972 ], [ 110.18479, 25.222096 ], [ 110.184952, 25.222267 ], [ 110.185043, 25.222362 ], [ 110.18508, 25.2224 ], [ 110.185214, 25.222539 ], [ 110.185313, 25.222641 ], [ 110.185386, 25.222717 ], [ 110.185407, 25.222739 ], [ 110.185475, 25.222809 ], [ 110.185514, 25.222849 ], [ 110.185632, 25.222972 ], [ 110.185639, 25.22298 ], [ 110.18574, 25.223086 ], [ 110.185771, 25.223117 ], [ 110.185778, 25.223124 ], [ 110.185796, 25.223142 ], [ 110.185803, 25.22315 ], [ 110.186055, 25.223406 ], [ 110.186307, 25.223663 ], [ 110.186559, 25.22392 ], [ 110.186811, 25.224177 ], [ 110.186873, 25.224125 ], [ 110.187015, 25.224006 ], [ 110.187227, 25.223829 ], [ 110.18744, 25.223652 ], [ 110.187479, 25.22362 ], [ 110.187498, 25.223604 ] ] ] } }
]
}
