{
"type": "FeatureCollection",
"name": "industrial-park",
"crs": { "type": "name", "properties": { "name": "urn:ogc:def:crs:OGC:1.3:CRS84" } },
"features": [
{ "type": "Feature", "properties": { "OBJECTID": 1, "名称": "苏桥工业生产片区", "主导产": "汽车制造产业、化学原料及化学制品", "介绍": "两大支柱是汽车制造+化学原料及化学制品制造，二者合计占片区核心产业用地近六成，是园区中以资本密集型重工业为核心的组团。产业片区是桂林新能源商用车、化工新材料的重要生产基地" }, "geometry": { "type": "Polygon", "coordinates": [ [ [ 110.004185, 25.100155 ], [ 110.003102, 25.100112 ], [ 110.002018, 25.100069 ], [ 110.001759, 25.100817 ], [ 110.00175, 25.101805 ], [ 110.001741, 25.102792 ], [ 110.001732, 25.103779 ], [ 110.001743, 25.104766 ], [ 110.001771, 25.105753 ], [ 110.001778, 25.106741 ], [ 110.001785, 25.107728 ], [ 110.001792, 25.108716 ], [ 110.001799, 25.109703 ], [ 110.001806, 25.110691 ], [ 110.001814, 25.111678 ], [ 110.001821, 25.112666 ], [ 110.001828, 25.113653 ], [ 110.001835, 25.11464 ], [ 110.001842, 25.115628 ], [ 110.001849, 25.116615 ], [ 110.001857, 25.117603 ], [ 110.001864, 25.11859 ], [ 110.001871, 25.119578 ], [ 110.001878, 25.120565 ], [ 110.001885, 25.121553 ], [ 110.001972, 25.122534 ], [ 110.002051, 25.123517 ], [ 110.002055, 25.124504 ], [ 110.002059, 25.125492 ], [ 110.002063, 25.126479 ], [ 110.002067, 25.127467 ], [ 110.002071, 25.128454 ], [ 110.002076, 25.129442 ], [ 110.00208, 25.130429 ], [ 110.002084, 25.131416 ], [ 110.002088, 25.132404 ], [ 110.002092, 25.133391 ], [ 110.002096, 25.134379 ], [ 110.0021, 25.135366 ], [ 110.002104, 25.136354 ], [ 110.002108, 25.137341 ], [ 110.002112, 25.138329 ], [ 110.002116, 25.139316 ], [ 110.00212, 25.140304 ], [ 110.002112, 25.141291 ], [ 110.003019, 25.141533 ], [ 110.004098, 25.141639 ], [ 110.005176, 25.141749 ], [ 110.006259, 25.141805 ], [ 110.007343, 25.14181 ], [ 110.008428, 25.141791 ], [ 110.009513, 25.141772 ], [ 110.010597, 25.141754 ], [ 110.011682, 25.141746 ], [ 110.012766, 25.141785 ], [ 110.013846, 25.141875 ], [ 110.014923, 25.141994 ], [ 110.016, 25.142115 ], [ 110.017076, 25.142236 ], [ 110.018153, 25.142357 ], [ 110.01923, 25.142478 ], [ 110.020305, 25.142607 ], [ 110.021348, 25.142864 ], [ 110.022433, 25.14288 ], [ 110.023518, 25.142896 ], [ 110.024602, 25.142911 ], [ 110.025501, 25.14252 ], [ 110.026251, 25.141807 ], [ 110.027002, 25.141094 ], [ 110.027753, 25.140382 ], [ 110.028503, 25.139669 ], [ 110.029254, 25.138956 ], [ 110.030005, 25.138243 ], [ 110.030755, 25.13753 ], [ 110.031419, 25.136753 ], [ 110.032036, 25.13594 ], [ 110.032652, 25.135127 ], [ 110.033268, 25.134315 ], [ 110.033884, 25.133502 ], [ 110.0345, 25.132689 ], [ 110.035126, 25.131882 ], [ 110.035835, 25.13114 ], [ 110.036676, 25.130522 ], [ 110.037579, 25.129975 ], [ 110.038489, 25.129437 ], [ 110.039398, 25.128899 ], [ 110.040308, 25.128361 ], [ 110.041217, 25.127823 ], [ 110.04217, 25.127351 ], [ 110.043123, 25.12688 ], [ 110.044077, 25.126409 ], [ 110.045002, 25.125894 ], [ 110.045853, 25.125282 ], [ 110.046696, 25.12466 ], [ 110.047538, 25.124039 ], [ 110.048393, 25.12343 ], [ 110.048997, 25.122626 ], [ 110.0482, 25.121956 ], [ 110.047404, 25.121285 ], [ 110.046609, 25.120614 ], [ 110.045863, 25.119897 ], [ 110.045207, 25.119111 ], [ 110.044647, 25.118265 ], [ 110.044191, 25.117369 ], [ 110.043832, 25.116437 ], [ 110.043492, 25.1155 ], [ 110.043151, 25.114562 ], [ 110.042695, 25.113666 ], [ 110.042215, 25.112781 ], [ 110.041734, 25.111896 ], [ 110.041253, 25.111011 ], [ 110.040363, 25.110462 ], [ 110.039496, 25.109869 ], [ 110.038688, 25.109211 ], [ 110.037945, 25.108491 ], [ 110.037274, 25.107716 ], [ 110.036679, 25.106891 ], [ 110.03617, 25.106019 ], [ 110.035764, 25.105104 ], [ 110.03542, 25.104168 ], [ 110.035131, 25.103216 ], [ 110.034879, 25.102256 ], [ 110.034653, 25.10129 ], [ 110.034441, 25.100321 ], [ 110.034237, 25.099352 ], [ 110.034033, 25.098382 ], [ 110.033814, 25.097415 ], [ 110.033591, 25.096448 ], [ 110.033376, 25.09548 ], [ 110.033188, 25.094508 ], [ 110.033, 25.093535 ], [ 110.032774, 25.09257 ], [ 110.032541, 25.091605 ], [ 110.032307, 25.090641 ], [ 110.032032, 25.089686 ], [ 110.031701, 25.088746 ], [ 110.031314, 25.087824 ], [ 110.030874, 25.086921 ], [ 110.030382, 25.086042 ], [ 110.029839, 25.085187 ], [ 110.029246, 25.084361 ], [ 110.028592, 25.083574 ], [ 110.027915, 25.082802 ], [ 110.027229, 25.082038 ], [ 110.026525, 25.081287 ], [ 110.025816, 25.08054 ], [ 110.025106, 25.079793 ], [ 110.024397, 25.079046 ], [ 110.023688, 25.078299 ], [ 110.022979, 25.077552 ], [ 110.022271, 25.076804 ], [ 110.021609, 25.076023 ], [ 110.020963, 25.075229 ], [ 110.020318, 25.074435 ], [ 110.019673, 25.073642 ], [ 110.019028, 25.072848 ], [ 110.018428, 25.072026 ], [ 110.017765, 25.071248 ], [ 110.016927, 25.070634 ], [ 110.015938, 25.07025 ], [ 110.014871, 25.070126 ], [ 110.013808, 25.070271 ], [ 110.012828, 25.070674 ], [ 110.01199, 25.07129 ], [ 110.011261, 25.07202 ], [ 110.011213, 25.072926 ], [ 110.011352, 25.073905 ], [ 110.011311, 25.074888 ], [ 110.011182, 25.075868 ], [ 110.011041, 25.076847 ], [ 110.010901, 25.077826 ], [ 110.010765, 25.078806 ], [ 110.010758, 25.07979 ], [ 110.010998, 25.080746 ], [ 110.011426, 25.081651 ], [ 110.011904, 25.082537 ], [ 110.012326, 25.083446 ], [ 110.012525, 25.084408 ], [ 110.012424, 25.085382 ], [ 110.012148, 25.086336 ], [ 110.011834, 25.087281 ], [ 110.011525, 25.088228 ], [ 110.011297, 25.089191 ], [ 110.011207, 25.090173 ], [ 110.011195, 25.09116 ], [ 110.011195, 25.092148 ], [ 110.011195, 25.093135 ], [ 110.011195, 25.094123 ], [ 110.011216, 25.09511 ], [ 110.0113, 25.096094 ], [ 110.011428, 25.097074 ], [ 110.011563, 25.098054 ], [ 110.011609, 25.099038 ], [ 110.011593, 25.100026 ], [ 110.010691, 25.100198 ], [ 110.009607, 25.100201 ], [ 110.008522, 25.100204 ], [ 110.007438, 25.100207 ], [ 110.006353, 25.10021 ], [ 110.005269, 25.100186 ], [ 110.004185, 25.100155 ] ] ] } },
{ "type": "Feature", "properties": { "OBJECTID": 2, "名称": "两江工业生产片区", "主导产": "电子信息配套产业、医药材料及医疗", "介绍": "双主导产业是电子信息配套+医药材料及医疗器械。产业定位偏向产业链配套与成长型，电子信息侧重为秧塘核心区做零部件、配套产品生产；医药产业聚焦上游医药材料、医用耗材，与秧塘的" }, "geometry": { "type": "Polygon", "coordinates": [ [ [ 110.014093, 25.172766 ], [ 110.014039, 25.173577 ], [ 110.014018, 25.174392 ], [ 110.013925, 25.175204 ], [ 110.013833, 25.176015 ], [ 110.01374, 25.176826 ], [ 110.013647, 25.177638 ], [ 110.013554, 25.178449 ], [ 110.013461, 25.179261 ], [ 110.013353, 25.18007 ], [ 110.013242, 25.18088 ], [ 110.013791, 25.18146 ], [ 110.014468, 25.181994 ], [ 110.015169, 25.182452 ], [ 110.016054, 25.182321 ], [ 110.016939, 25.18219 ], [ 110.017824, 25.182059 ], [ 110.018709, 25.181929 ], [ 110.019594, 25.181798 ], [ 110.020478, 25.181667 ], [ 110.021363, 25.181595 ], [ 110.02225, 25.181634 ], [ 110.023136, 25.181652 ], [ 110.024032, 25.18167 ], [ 110.024928, 25.181687 ], [ 110.025825, 25.181705 ], [ 110.026721, 25.181723 ], [ 110.027617, 25.181741 ], [ 110.028514, 25.181758 ], [ 110.02941, 25.181776 ], [ 110.030306, 25.181794 ], [ 110.031203, 25.181811 ], [ 110.032099, 25.181829 ], [ 110.032995, 25.181847 ], [ 110.034571, 25.181673 ], [ 110.034462, 25.180875 ], [ 110.034257, 25.180081 ], [ 110.034033, 25.178477 ], [ 110.034054, 25.177661 ], [ 110.034074, 25.176846 ], [ 110.034095, 25.17603 ], [ 110.034116, 25.175214 ], [ 110.034136, 25.174399 ], [ 110.034163, 25.173583 ], [ 110.034206, 25.172769 ], [ 110.034248, 25.171954 ], [ 110.034291, 25.171139 ], [ 110.034334, 25.170324 ], [ 110.034376, 25.169509 ], [ 110.034419, 25.168694 ], [ 110.034462, 25.167879 ], [ 110.034536, 25.167067 ], [ 110.034724, 25.166269 ], [ 110.034886, 25.165468 ], [ 110.034428, 25.164935 ], [ 110.033724, 25.16443 ], [ 110.033057, 25.163888 ], [ 110.032426, 25.163308 ], [ 110.031836, 25.162695 ], [ 110.031289, 25.162049 ], [ 110.030778, 25.161379 ], [ 110.029911, 25.159965 ], [ 110.029447, 25.159271 ], [ 110.028559, 25.159343 ], [ 110.027708, 25.159087 ], [ 110.026847, 25.15886 ], [ 110.025978, 25.158661 ], [ 110.025102, 25.15849 ], [ 110.024219, 25.158348 ], [ 110.023331, 25.158235 ], [ 110.02244, 25.158151 ], [ 110.021546, 25.158097 ], [ 110.02065, 25.158071 ], [ 110.019763, 25.157958 ], [ 110.018879, 25.157826 ], [ 110.018173, 25.158028 ], [ 110.017748, 25.15874 ], [ 110.0176, 25.159544 ], [ 110.017608, 25.160359 ], [ 110.017646, 25.161174 ], [ 110.017684, 25.161989 ], [ 110.017706, 25.162804 ], [ 110.017676, 25.16362 ], [ 110.017218, 25.16402 ], [ 110.016569, 25.164231 ], [ 110.016491, 25.165043 ], [ 110.016413, 25.165856 ], [ 110.016951, 25.166263 ], [ 110.017486, 25.166682 ], [ 110.017492, 25.167497 ], [ 110.017512, 25.1683 ], [ 110.016754, 25.168657 ], [ 110.016175, 25.169275 ], [ 110.015648, 25.169935 ], [ 110.01512, 25.170594 ], [ 110.014596, 25.171256 ], [ 110.01423, 25.171963 ], [ 110.014093, 25.172766 ] ] ] } },
{ "type": "Feature", "properties": { "OBJECTID": 3, "名称": "秧塘工业生产片区", "主导产": "电子信息产业、生物医药产业、精密", "介绍": "核心主导为电子信息产业，是桂林智能终端产业的核心承载区，现实中集聚深科技、华为信息生态等龙头项目，覆盖智能终端整机制造、云计算、大数据、物联网等赛道，也是广西智能终端特" }, "geometry": { "type": "Polygon", "coordinates": [ [ [ 110.179755, 25.212987 ], [ 110.180246, 25.213568 ], [ 110.180737, 25.214148 ], [ 110.181151, 25.214762 ], [ 110.181347, 25.215473 ], [ 110.181543, 25.216183 ], [ 110.181578, 25.2169 ], [ 110.181456, 25.217624 ], [ 110.181333, 25.218348 ], [ 110.181211, 25.219071 ], [ 110.181089, 25.219795 ], [ 110.181199, 25.220508 ], [ 110.181403, 25.221217 ], [ 110.181607, 25.221925 ], [ 110.181811, 25.222633 ], [ 110.182207, 25.22327 ], [ 110.182612, 25.223903 ], [ 110.183017, 25.224536 ], [ 110.183422, 25.225168 ], [ 110.183827, 25.225801 ], [ 110.184232, 25.226434 ], [ 110.184713, 25.226842 ], [ 110.18544, 25.226528 ], [ 110.186168, 25.226214 ], [ 110.186895, 25.2259 ], [ 110.187622, 25.225586 ], [ 110.187943, 25.224973 ], [ 110.188128, 25.224261 ], [ 110.188313, 25.223548 ], [ 110.18823, 25.222863 ], [ 110.187874, 25.222205 ], [ 110.187519, 25.221548 ], [ 110.187164, 25.220891 ], [ 110.186808, 25.220234 ], [ 110.186453, 25.219577 ], [ 110.186098, 25.21892 ], [ 110.185743, 25.218262 ], [ 110.185387, 25.217605 ], [ 110.185032, 25.216948 ], [ 110.184677, 25.216291 ], [ 110.184322, 25.215634 ], [ 110.183966, 25.214977 ], [ 110.183611, 25.21432 ], [ 110.183256, 25.213662 ], [ 110.182901, 25.213005 ], [ 110.182546, 25.212348 ], [ 110.182187, 25.211692 ], [ 110.181819, 25.211041 ], [ 110.181452, 25.210389 ], [ 110.181085, 25.209738 ], [ 110.180717, 25.209086 ], [ 110.18035, 25.208435 ], [ 110.179982, 25.207783 ], [ 110.179615, 25.207131 ], [ 110.179247, 25.20648 ], [ 110.17888, 25.205828 ], [ 110.178512, 25.205177 ], [ 110.178145, 25.204525 ], [ 110.177778, 25.203874 ], [ 110.177408, 25.203223 ], [ 110.177026, 25.202578 ], [ 110.176636, 25.201938 ], [ 110.176197, 25.201326 ], [ 110.175704, 25.200748 ], [ 110.175165, 25.200204 ], [ 110.174551, 25.199731 ], [ 110.173905, 25.199294 ], [ 110.173243, 25.198878 ], [ 110.17257, 25.198477 ], [ 110.171887, 25.19809 ], [ 110.171196, 25.197714 ], [ 110.170499, 25.197348 ], [ 110.169796, 25.19699 ], [ 110.169091, 25.196637 ], [ 110.168379, 25.196296 ], [ 110.167667, 25.195954 ], [ 110.166955, 25.195613 ], [ 110.166243, 25.195272 ], [ 110.16553, 25.194931 ], [ 110.164818, 25.19459 ], [ 110.164106, 25.194249 ], [ 110.163394, 25.193908 ], [ 110.162681, 25.193567 ], [ 110.161969, 25.193226 ], [ 110.161257, 25.192885 ], [ 110.160544, 25.192544 ], [ 110.159832, 25.192203 ], [ 110.15912, 25.191862 ], [ 110.158408, 25.191521 ], [ 110.157695, 25.19118 ], [ 110.156983, 25.190839 ], [ 110.156271, 25.190498 ], [ 110.155559, 25.190157 ], [ 110.154847, 25.189815 ], [ 110.154144, 25.189458 ], [ 110.153457, 25.189078 ], [ 110.152775, 25.188688 ], [ 110.152067, 25.18834 ], [ 110.151353, 25.188003 ], [ 110.150638, 25.187667 ], [ 110.149922, 25.187332 ], [ 110.149206, 25.186997 ], [ 110.148491, 25.186662 ], [ 110.147775, 25.186327 ], [ 110.14706, 25.185992 ], [ 110.146345, 25.185655 ], [ 110.145631, 25.185317 ], [ 110.144922, 25.184971 ], [ 110.144218, 25.184616 ], [ 110.143518, 25.184254 ], [ 110.142822, 25.183887 ], [ 110.142127, 25.183518 ], [ 110.141432, 25.183148 ], [ 110.140738, 25.182777 ], [ 110.140044, 25.182407 ], [ 110.139266, 25.182254 ], [ 110.138567, 25.182524 ], [ 110.137981, 25.183013 ], [ 110.137501, 25.183601 ], [ 110.137049, 25.184206 ], [ 110.136591, 25.184809 ], [ 110.136133, 25.18541 ], [ 110.135651, 25.185996 ], [ 110.135113, 25.18654 ], [ 110.13455, 25.187063 ], [ 110.133871, 25.18744 ], [ 110.133124, 25.187706 ], [ 110.132375, 25.187799 ], [ 110.131736, 25.187353 ], [ 110.131109, 25.186895 ], [ 110.130515, 25.186402 ], [ 110.129944, 25.185885 ], [ 110.129378, 25.185365 ], [ 110.128835, 25.184824 ], [ 110.128296, 25.18428 ], [ 110.127761, 25.183734 ], [ 110.127227, 25.183185 ], [ 110.126695, 25.182636 ], [ 110.125952, 25.182762 ], [ 110.125341, 25.183231 ], [ 110.124749, 25.183727 ], [ 110.124162, 25.184228 ], [ 110.123579, 25.184732 ], [ 110.122995, 25.185237 ], [ 110.122412, 25.185742 ], [ 110.121829, 25.186246 ], [ 110.121246, 25.186751 ], [ 110.120663, 25.187256 ], [ 110.120082, 25.187762 ], [ 110.119503, 25.188271 ], [ 110.118878, 25.18872 ], [ 110.118146, 25.188944 ], [ 110.117371, 25.188744 ], [ 110.116575, 25.188804 ], [ 110.115914, 25.189159 ], [ 110.115473, 25.189751 ], [ 110.115188, 25.190436 ], [ 110.114949, 25.191135 ], [ 110.114773, 25.191849 ], [ 110.114643, 25.192571 ], [ 110.114574, 25.1933 ], [ 110.114575, 25.194032 ], [ 110.114626, 25.194763 ], [ 110.114769, 25.195482 ], [ 110.114955, 25.196194 ], [ 110.115185, 25.196895 ], [ 110.115504, 25.197567 ], [ 110.11583, 25.198237 ], [ 110.116173, 25.198898 ], [ 110.116527, 25.199556 ], [ 110.116881, 25.200214 ], [ 110.117236, 25.200871 ], [ 110.11759, 25.201529 ], [ 110.117944, 25.202187 ], [ 110.118298, 25.202844 ], [ 110.118652, 25.203502 ], [ 110.119006, 25.20416 ], [ 110.11936, 25.204817 ], [ 110.119714, 25.205475 ], [ 110.120066, 25.206133 ], [ 110.120419, 25.206792 ], [ 110.120676, 25.207484 ], [ 110.120891, 25.208189 ], [ 110.121059, 25.208902 ], [ 110.121077, 25.209635 ], [ 110.121047, 25.210366 ], [ 110.121002, 25.211097 ], [ 110.120948, 25.211828 ], [ 110.120893, 25.212559 ], [ 110.120857, 25.21329 ], [ 110.120824, 25.214022 ], [ 110.120806, 25.214754 ], [ 110.120805, 25.215486 ], [ 110.120804, 25.216218 ], [ 110.1207, 25.216944 ], [ 110.120584, 25.217669 ], [ 110.120425, 25.218384 ], [ 110.120174, 25.21908 ], [ 110.119913, 25.219773 ], [ 110.120436, 25.220061 ], [ 110.121233, 25.220153 ], [ 110.122036, 25.220193 ], [ 110.122841, 25.220198 ], [ 110.123646, 25.220201 ], [ 110.124451, 25.220203 ], [ 110.125256, 25.220206 ], [ 110.126061, 25.220208 ], [ 110.126866, 25.220211 ], [ 110.127671, 25.220213 ], [ 110.128476, 25.220216 ], [ 110.129281, 25.220219 ], [ 110.130086, 25.22022 ], [ 110.130891, 25.220197 ], [ 110.131695, 25.220163 ], [ 110.132499, 25.220118 ], [ 110.133301, 25.22006 ], [ 110.134103, 25.219991 ], [ 110.134898, 25.219878 ], [ 110.13535, 25.219509 ], [ 110.135308, 25.218778 ], [ 110.135351, 25.218048 ], [ 110.13539, 25.217317 ], [ 110.135407, 25.216584 ], [ 110.135425, 25.215852 ], [ 110.135442, 25.21512 ], [ 110.135724, 25.214458 ], [ 110.136231, 25.213902 ], [ 110.136886, 25.213516 ], [ 110.137689, 25.213458 ], [ 110.138492, 25.213406 ], [ 110.139295, 25.213407 ], [ 110.1401, 25.21344 ], [ 110.140904, 25.213474 ], [ 110.141707, 25.213516 ], [ 110.142511, 25.213558 ], [ 110.143315, 25.213579 ], [ 110.14412, 25.213578 ], [ 110.144925, 25.213574 ], [ 110.14573, 25.213554 ], [ 110.146535, 25.213531 ], [ 110.147335, 25.213473 ], [ 110.148128, 25.213344 ], [ 110.148913, 25.213185 ], [ 110.149711, 25.213199 ], [ 110.150504, 25.213313 ], [ 110.151288, 25.21348 ], [ 110.152065, 25.213671 ], [ 110.152838, 25.213876 ], [ 110.153598, 25.214117 ], [ 110.154343, 25.214393 ], [ 110.155076, 25.214696 ], [ 110.1558, 25.215015 ], [ 110.156518, 25.215347 ], [ 110.157124, 25.215802 ], [ 110.157449, 25.216438 ], [ 110.157464, 25.217167 ], [ 110.157199, 25.217858 ], [ 110.15687, 25.218526 ], [ 110.156524, 25.219187 ], [ 110.156179, 25.219849 ], [ 110.155834, 25.22051 ], [ 110.156235, 25.221123 ], [ 110.156962, 25.221437 ], [ 110.157744, 25.221559 ], [ 110.158547, 25.221558 ], [ 110.15932, 25.221597 ], [ 110.161822, 25.223365 ], [ 110.162324, 25.222401 ], [ 110.162753, 25.221781 ], [ 110.163169, 25.221155 ], [ 110.163623, 25.22055 ], [ 110.164103, 25.219962 ], [ 110.164602, 25.219388 ], [ 110.165122, 25.218829 ], [ 110.165663, 25.218287 ], [ 110.166236, 25.217773 ], [ 110.166842, 25.217292 ], [ 110.167493, 25.216865 ], [ 110.168204, 25.216532 ], [ 110.168996, 25.216397 ], [ 110.169791, 25.216284 ], [ 110.170591, 25.21621 ], [ 110.171394, 25.216196 ], [ 110.172185, 25.216286 ], [ 110.172762, 25.216796 ], [ 110.173258, 25.21737 ], [ 110.17373, 25.217964 ], [ 110.174322, 25.217844 ], [ 110.17498, 25.217422 ], [ 110.175663, 25.217035 ], [ 110.176325, 25.216617 ], [ 110.176656, 25.215985 ], [ 110.176835, 25.215272 ], [ 110.177083, 25.214611 ], [ 110.177719, 25.214162 ], [ 110.178369, 25.21373 ], [ 110.179053, 25.213346 ], [ 110.179755, 25.212987 ] ] ] } },
{ "type": "Feature", "properties": { "OBJECTID": 4, "名称": "乐和工业生产片区", "主导产": "食品制造与农副食品加工产业", "介绍": "绝对主导为食品制造与农副食品加工，占片区产业用地超半数，是四个园区中唯一以食品轻工为核心定位的组团，依托桂林特色农产品资源，布局农副食品初加工、食品精深制造全产业链，打" }, "geometry": { "type": "Polygon", "coordinates": [ [ [ 110.157558, 25.296329 ], [ 110.157721, 25.296426 ], [ 110.157898, 25.296499 ], [ 110.158077, 25.296569 ], [ 110.158257, 25.296636 ], [ 110.158438, 25.296703 ], [ 110.158617, 25.296772 ], [ 110.158792, 25.296851 ], [ 110.158964, 25.296934 ], [ 110.15913, 25.297025 ], [ 110.159232, 25.297147 ], [ 110.159135, 25.2973 ], [ 110.159038, 25.297454 ], [ 110.158941, 25.297607 ], [ 110.158844, 25.297761 ], [ 110.158747, 25.297915 ], [ 110.158649, 25.298068 ], [ 110.158552, 25.298222 ], [ 110.158455, 25.298375 ], [ 110.158358, 25.298529 ], [ 110.158261, 25.298682 ], [ 110.158164, 25.298836 ], [ 110.158066, 25.298989 ], [ 110.157969, 25.299143 ], [ 110.157872, 25.299296 ], [ 110.157775, 25.29945 ], [ 110.157678, 25.299603 ], [ 110.157581, 25.299757 ], [ 110.157483, 25.29991 ], [ 110.157386, 25.300064 ], [ 110.157289, 25.300217 ], [ 110.157192, 25.300371 ], [ 110.157095, 25.300524 ], [ 110.157002, 25.30068 ], [ 110.156932, 25.300845 ], [ 110.156922, 25.301005 ], [ 110.157072, 25.301116 ], [ 110.157239, 25.301208 ], [ 110.157406, 25.301299 ], [ 110.157573, 25.30139 ], [ 110.15774, 25.301481 ], [ 110.157907, 25.301572 ], [ 110.158074, 25.301664 ], [ 110.158241, 25.301755 ], [ 110.158408, 25.301846 ], [ 110.158575, 25.301937 ], [ 110.158742, 25.302028 ], [ 110.158909, 25.302119 ], [ 110.159076, 25.302211 ], [ 110.159244, 25.302302 ], [ 110.159411, 25.302393 ], [ 110.159578, 25.302484 ], [ 110.159745, 25.302575 ], [ 110.159912, 25.302666 ], [ 110.160079, 25.302758 ], [ 110.160246, 25.302849 ], [ 110.160413, 25.30294 ], [ 110.16058, 25.303031 ], [ 110.160747, 25.303122 ], [ 110.160914, 25.303214 ], [ 110.161081, 25.303305 ], [ 110.161248, 25.303396 ], [ 110.161415, 25.303487 ], [ 110.161582, 25.303578 ], [ 110.16175, 25.303604 ], [ 110.161891, 25.303487 ], [ 110.16199, 25.303336 ], [ 110.16207, 25.303175 ], [ 110.162151, 25.303013 ], [ 110.162231, 25.302852 ], [ 110.162312, 25.302691 ], [ 110.162393, 25.30253 ], [ 110.162473, 25.302368 ], [ 110.162554, 25.302207 ], [ 110.162635, 25.302046 ], [ 110.162715, 25.301885 ], [ 110.162796, 25.301723 ], [ 110.162878, 25.301563 ], [ 110.162978, 25.301412 ], [ 110.163121, 25.301295 ], [ 110.163285, 25.3012 ], [ 110.163452, 25.301109 ], [ 110.16362, 25.30102 ], [ 110.163789, 25.30093 ], [ 110.163957, 25.300841 ], [ 110.164124, 25.300749 ], [ 110.164258, 25.300626 ], [ 110.16435, 25.30047 ], [ 110.164384, 25.300299 ], [ 110.164396, 25.300122 ], [ 110.164411, 25.299945 ], [ 110.16452, 25.299818 ], [ 110.164698, 25.299747 ], [ 110.164888, 25.299715 ], [ 110.165082, 25.299692 ], [ 110.165275, 25.299668 ], [ 110.165468, 25.299645 ], [ 110.165661, 25.299622 ], [ 110.165854, 25.299598 ], [ 110.166047, 25.299575 ], [ 110.16624, 25.299552 ], [ 110.166434, 25.299528 ], [ 110.166628, 25.299522 ], [ 110.166823, 25.299525 ], [ 110.167015, 25.299552 ], [ 110.167207, 25.299584 ], [ 110.167398, 25.299617 ], [ 110.16759, 25.299649 ], [ 110.167781, 25.299682 ], [ 110.167973, 25.299714 ], [ 110.168164, 25.299747 ], [ 110.168356, 25.299779 ], [ 110.168547, 25.299812 ], [ 110.168739, 25.299844 ], [ 110.16893, 25.299876 ], [ 110.169122, 25.299909 ], [ 110.169314, 25.299941 ], [ 110.169505, 25.299974 ], [ 110.169697, 25.300006 ], [ 110.169888, 25.300039 ], [ 110.17008, 25.300071 ], [ 110.170271, 25.300104 ], [ 110.170463, 25.300136 ], [ 110.170654, 25.300169 ], [ 110.170846, 25.300201 ], [ 110.171037, 25.300234 ], [ 110.171229, 25.300266 ], [ 110.17142, 25.300299 ], [ 110.171612, 25.300331 ], [ 110.171804, 25.300363 ], [ 110.171995, 25.300395 ], [ 110.172174, 25.300341 ], [ 110.17233, 25.300236 ], [ 110.172441, 25.300092 ], [ 110.172545, 25.299943 ], [ 110.172649, 25.299793 ], [ 110.172752, 25.299643 ], [ 110.172856, 25.299493 ], [ 110.17296, 25.299343 ], [ 110.173064, 25.299193 ], [ 110.17318, 25.299051 ], [ 110.173301, 25.298912 ], [ 110.173436, 25.298784 ], [ 110.173572, 25.298658 ], [ 110.173709, 25.298531 ], [ 110.173845, 25.298405 ], [ 110.173982, 25.298279 ], [ 110.174118, 25.298152 ], [ 110.174255, 25.298026 ], [ 110.174391, 25.297899 ], [ 110.174528, 25.297773 ], [ 110.174664, 25.297647 ], [ 110.174801, 25.29752 ], [ 110.174937, 25.297394 ], [ 110.175074, 25.297267 ], [ 110.17521, 25.297141 ], [ 110.175185, 25.296997 ], [ 110.175085, 25.296845 ], [ 110.174985, 25.296694 ], [ 110.174884, 25.296542 ], [ 110.174769, 25.296399 ], [ 110.174649, 25.29626 ], [ 110.17453, 25.29612 ], [ 110.17441, 25.29598 ], [ 110.17429, 25.29584 ], [ 110.17417, 25.295701 ], [ 110.174051, 25.295561 ], [ 110.173931, 25.295421 ], [ 110.173811, 25.295282 ], [ 110.173691, 25.295142 ], [ 110.173571, 25.295002 ], [ 110.173452, 25.294863 ], [ 110.173332, 25.294723 ], [ 110.173332, 25.294587 ], [ 110.173468, 25.29446 ], [ 110.173612, 25.294341 ], [ 110.173761, 25.294228 ], [ 110.173913, 25.294117 ], [ 110.174066, 25.294007 ], [ 110.174219, 25.293897 ], [ 110.174371, 25.293786 ], [ 110.174524, 25.293676 ], [ 110.174676, 25.293566 ], [ 110.174829, 25.293456 ], [ 110.174981, 25.293346 ], [ 110.175134, 25.293236 ], [ 110.175287, 25.293126 ], [ 110.175439, 25.293015 ], [ 110.175592, 25.292905 ], [ 110.175745, 25.292796 ], [ 110.175901, 25.292689 ], [ 110.176059, 25.292587 ], [ 110.176222, 25.292489 ], [ 110.176387, 25.292396 ], [ 110.176556, 25.292308 ], [ 110.176729, 25.292225 ], [ 110.176903, 25.292147 ], [ 110.177081, 25.292073 ], [ 110.177258, 25.292001 ], [ 110.177436, 25.291929 ], [ 110.177614, 25.291857 ], [ 110.177792, 25.291784 ], [ 110.177967, 25.291706 ], [ 110.178138, 25.291622 ], [ 110.178304, 25.291528 ], [ 110.178462, 25.291426 ], [ 110.178614, 25.291315 ], [ 110.178757, 25.291195 ], [ 110.178892, 25.291067 ], [ 110.179018, 25.290932 ], [ 110.179134, 25.29079 ], [ 110.17924, 25.290642 ], [ 110.179338, 25.290488 ], [ 110.17943, 25.290332 ], [ 110.17952, 25.290175 ], [ 110.179609, 25.290018 ], [ 110.17974, 25.289898 ], [ 110.17992, 25.289833 ], [ 110.180112, 25.289822 ], [ 110.180306, 25.289839 ], [ 110.1805, 25.289855 ], [ 110.180693, 25.289877 ], [ 110.180884, 25.289908 ], [ 110.181076, 25.28994 ], [ 110.181269, 25.289966 ], [ 110.181463, 25.289983 ], [ 110.181657, 25.289993 ], [ 110.181852, 25.290002 ], [ 110.182046, 25.29001 ], [ 110.182241, 25.290018 ], [ 110.182435, 25.290027 ], [ 110.18263, 25.290036 ], [ 110.182824, 25.290047 ], [ 110.183019, 25.290062 ], [ 110.183213, 25.290078 ], [ 110.183407, 25.290095 ], [ 110.1836, 25.290113 ], [ 110.183794, 25.290131 ], [ 110.183988, 25.290149 ], [ 110.184182, 25.290169 ], [ 110.184375, 25.290191 ], [ 110.184568, 25.290216 ], [ 110.18476, 25.290242 ], [ 110.184953, 25.290268 ], [ 110.185146, 25.290295 ], [ 110.185338, 25.290325 ], [ 110.185529, 25.290358 ], [ 110.18572, 25.290394 ], [ 110.185909, 25.290435 ], [ 110.186098, 25.29048 ], [ 110.186285, 25.290529 ], [ 110.186471, 25.290583 ], [ 110.186655, 25.290639 ], [ 110.186839, 25.290697 ], [ 110.187022, 25.290758 ], [ 110.187205, 25.290819 ], [ 110.187386, 25.290885 ], [ 110.187565, 25.290956 ], [ 110.187734, 25.291042 ], [ 110.187897, 25.291139 ], [ 110.188058, 25.291238 ], [ 110.188228, 25.291324 ], [ 110.188411, 25.291383 ], [ 110.188598, 25.291435 ], [ 110.188782, 25.291492 ], [ 110.188956, 25.29157 ], [ 110.189124, 25.291659 ], [ 110.189291, 25.29175 ], [ 110.189458, 25.291842 ], [ 110.189623, 25.291936 ], [ 110.189786, 25.292033 ], [ 110.189946, 25.292134 ], [ 110.190104, 25.292238 ], [ 110.190261, 25.292343 ], [ 110.190415, 25.292451 ], [ 110.190568, 25.29256 ], [ 110.190721, 25.29267 ], [ 110.190874, 25.292781 ], [ 110.191025, 25.292893 ], [ 110.191175, 25.293005 ], [ 110.191325, 25.293118 ], [ 110.191477, 25.293229 ], [ 110.19163, 25.293339 ], [ 110.191786, 25.293311 ], [ 110.191932, 25.293194 ], [ 110.192012, 25.293038 ], [ 110.19209, 25.292877 ], [ 110.192202, 25.292733 ], [ 110.192323, 25.292594 ], [ 110.192442, 25.292454 ], [ 110.19256, 25.292313 ], [ 110.192679, 25.292173 ], [ 110.192799, 25.292033 ], [ 110.192923, 25.291896 ], [ 110.193058, 25.291769 ], [ 110.193196, 25.291644 ], [ 110.193328, 25.291514 ], [ 110.193505, 25.291483 ], [ 110.193685, 25.291547 ], [ 110.193863, 25.291619 ], [ 110.194041, 25.291692 ], [ 110.194219, 25.291764 ], [ 110.194397, 25.291836 ], [ 110.194575, 25.291908 ], [ 110.194753, 25.29198 ], [ 110.194931, 25.292052 ], [ 110.195109, 25.292124 ], [ 110.195286, 25.292196 ], [ 110.195464, 25.292268 ], [ 110.195642, 25.292341 ], [ 110.19582, 25.292413 ], [ 110.195998, 25.292485 ], [ 110.196176, 25.292557 ], [ 110.196354, 25.292629 ], [ 110.196532, 25.292701 ], [ 110.19671, 25.292773 ], [ 110.196888, 25.292845 ], [ 110.197066, 25.292917 ], [ 110.197244, 25.29299 ], [ 110.197422, 25.293062 ], [ 110.1976, 25.293134 ], [ 110.197778, 25.293206 ], [ 110.197956, 25.293278 ], [ 110.198134, 25.29335 ], [ 110.198308, 25.29343 ], [ 110.198449, 25.293551 ], [ 110.198587, 25.293676 ], [ 110.198725, 25.293801 ], [ 110.198863, 25.293926 ], [ 110.199001, 25.294051 ], [ 110.199138, 25.294176 ], [ 110.199276, 25.294302 ], [ 110.199414, 25.294427 ], [ 110.199552, 25.294552 ], [ 110.19969, 25.294677 ], [ 110.199828, 25.294802 ], [ 110.199966, 25.294927 ], [ 110.200104, 25.295052 ], [ 110.200242, 25.295177 ], [ 110.200412, 25.295262 ], [ 110.200607, 25.295259 ], [ 110.200801, 25.295256 ], [ 110.200996, 25.295253 ], [ 110.201191, 25.295249 ], [ 110.201386, 25.295246 ], [ 110.201581, 25.295243 ], [ 110.201775, 25.295239 ], [ 110.20197, 25.295236 ], [ 110.202164, 25.295215 ], [ 110.202353, 25.295172 ], [ 110.202542, 25.295129 ], [ 110.202731, 25.295086 ], [ 110.20292, 25.295043 ], [ 110.203109, 25.294999 ], [ 110.203297, 25.294956 ], [ 110.203486, 25.294913 ], [ 110.203675, 25.29487 ], [ 110.203864, 25.294827 ], [ 110.204053, 25.294783 ], [ 110.204242, 25.29474 ], [ 110.204428, 25.294686 ], [ 110.204601, 25.294606 ], [ 110.204775, 25.294525 ], [ 110.204949, 25.294445 ], [ 110.205123, 25.294365 ], [ 110.205296, 25.294285 ], [ 110.20547, 25.294205 ], [ 110.205644, 25.294125 ], [ 110.205818, 25.294044 ], [ 110.205991, 25.293964 ], [ 110.206165, 25.293884 ], [ 110.206339, 25.293804 ], [ 110.206512, 25.293724 ], [ 110.206647, 25.293625 ], [ 110.206534, 25.293481 ], [ 110.20642, 25.293337 ], [ 110.206307, 25.293193 ], [ 110.206229, 25.29304 ], [ 110.206315, 25.292881 ], [ 110.206401, 25.292722 ], [ 110.206487, 25.292563 ], [ 110.206573, 25.292404 ], [ 110.206659, 25.292245 ], [ 110.206745, 25.292086 ], [ 110.206831, 25.291928 ], [ 110.206917, 25.291769 ], [ 110.207003, 25.29161 ], [ 110.207085, 25.291449 ], [ 110.207116, 25.29128 ], [ 110.207031, 25.291125 ], [ 110.206875, 25.29102 ], [ 110.2067, 25.290942 ], [ 110.206525, 25.290863 ], [ 110.206351, 25.290785 ], [ 110.206176, 25.290707 ], [ 110.206001, 25.290629 ], [ 110.205826, 25.290551 ], [ 110.205651, 25.290473 ], [ 110.205476, 25.290394 ], [ 110.205302, 25.290316 ], [ 110.205127, 25.290238 ], [ 110.204952, 25.29016 ], [ 110.204777, 25.290082 ], [ 110.204602, 25.290004 ], [ 110.204427, 25.289925 ], [ 110.204253, 25.289847 ], [ 110.204078, 25.28977 ], [ 110.203902, 25.289693 ], [ 110.203726, 25.289616 ], [ 110.20355, 25.289541 ], [ 110.203373, 25.289467 ], [ 110.203195, 25.289395 ], [ 110.203016, 25.289325 ], [ 110.202836, 25.289257 ], [ 110.202655, 25.289191 ], [ 110.202473, 25.289127 ], [ 110.202291, 25.289066 ], [ 110.202107, 25.289007 ], [ 110.201923, 25.28895 ], [ 110.201737, 25.288895 ], [ 110.201551, 25.288842 ], [ 110.201365, 25.288792 ], [ 110.201177, 25.288744 ], [ 110.200989, 25.288698 ], [ 110.2008, 25.288655 ], [ 110.200611, 25.288613 ], [ 110.20042, 25.288575 ], [ 110.20023, 25.288538 ], [ 110.200039, 25.288504 ], [ 110.199909, 25.288432 ], [ 110.199943, 25.288258 ], [ 110.199977, 25.288083 ], [ 110.200011, 25.287909 ], [ 110.200045, 25.287735 ], [ 110.200079, 25.28756 ], [ 110.200113, 25.287386 ], [ 110.200147, 25.287211 ], [ 110.200181, 25.287037 ], [ 110.200215, 25.286863 ], [ 110.200249, 25.286688 ], [ 110.200283, 25.286514 ], [ 110.200317, 25.286339 ], [ 110.200351, 25.286165 ], [ 110.200385, 25.28599 ], [ 110.200419, 25.285816 ], [ 110.200453, 25.285642 ], [ 110.200487, 25.285467 ], [ 110.200521, 25.285293 ], [ 110.200555, 25.285118 ], [ 110.200589, 25.284944 ], [ 110.200623, 25.28477 ], [ 110.200657, 25.284595 ], [ 110.200691, 25.284421 ], [ 110.200725, 25.284246 ], [ 110.200759, 25.284072 ], [ 110.200793, 25.283898 ], [ 110.200779, 25.283735 ], [ 110.200635, 25.28362 ], [ 110.200455, 25.283561 ], [ 110.200262, 25.283539 ], [ 110.200068, 25.283519 ], [ 110.199874, 25.283501 ], [ 110.19968, 25.283485 ], [ 110.199486, 25.283471 ], [ 110.199292, 25.283458 ], [ 110.199098, 25.283446 ], [ 110.198903, 25.283433 ], [ 110.198709, 25.28342 ], [ 110.198515, 25.283408 ], [ 110.19832, 25.283395 ], [ 110.198126, 25.283382 ], [ 110.197932, 25.283366 ], [ 110.197762, 25.283305 ], [ 110.197641, 25.283167 ], [ 110.197582, 25.283006 ], [ 110.197583, 25.282829 ], [ 110.197584, 25.282652 ], [ 110.197585, 25.282475 ], [ 110.197586, 25.282298 ], [ 110.197588, 25.282121 ], [ 110.197589, 25.281944 ], [ 110.19759, 25.281767 ], [ 110.197591, 25.281589 ], [ 110.197592, 25.281412 ], [ 110.197593, 25.281235 ], [ 110.197595, 25.281058 ], [ 110.197596, 25.280881 ], [ 110.197597, 25.280704 ], [ 110.197598, 25.280527 ], [ 110.197599, 25.28035 ], [ 110.1976, 25.280172 ], [ 110.197602, 25.279995 ], [ 110.197603, 25.279818 ], [ 110.197604, 25.279641 ], [ 110.197605, 25.279464 ], [ 110.197606, 25.279287 ], [ 110.197607, 25.27911 ], [ 110.197609, 25.278933 ], [ 110.19761, 25.278756 ], [ 110.197616, 25.278579 ], [ 110.197632, 25.278402 ], [ 110.197716, 25.278259 ], [ 110.197883, 25.278171 ], [ 110.198071, 25.278139 ], [ 110.198266, 25.27814 ], [ 110.19846, 25.278141 ], [ 110.198655, 25.278142 ], [ 110.19885, 25.278143 ], [ 110.199045, 25.278144 ], [ 110.19924, 25.278145 ], [ 110.199434, 25.278146 ], [ 110.199629, 25.278147 ], [ 110.199824, 25.278148 ], [ 110.200019, 25.278149 ], [ 110.200214, 25.27815 ], [ 110.200408, 25.278146 ], [ 110.200602, 25.27813 ], [ 110.200705, 25.278022 ], [ 110.200659, 25.277853 ], [ 110.2006, 25.277684 ], [ 110.200541, 25.277515 ], [ 110.200483, 25.277346 ], [ 110.200424, 25.277177 ], [ 110.200366, 25.277008 ], [ 110.200307, 25.276839 ], [ 110.200249, 25.27667 ], [ 110.20019, 25.276501 ], [ 110.200132, 25.276332 ], [ 110.200073, 25.276164 ], [ 110.200014, 25.275995 ], [ 110.199956, 25.275826 ], [ 110.199897, 25.275657 ], [ 110.199839, 25.275488 ], [ 110.199777, 25.27532 ], [ 110.199709, 25.275154 ], [ 110.199609, 25.275002 ], [ 110.199477, 25.274873 ], [ 110.19934, 25.274746 ], [ 110.199204, 25.27462 ], [ 110.199067, 25.274494 ], [ 110.19893, 25.274368 ], [ 110.198793, 25.274242 ], [ 110.198656, 25.274116 ], [ 110.198519, 25.27399 ], [ 110.198382, 25.273864 ], [ 110.198245, 25.273738 ], [ 110.198108, 25.273612 ], [ 110.197971, 25.273486 ], [ 110.197834, 25.27336 ], [ 110.197697, 25.273234 ], [ 110.197617, 25.273074 ], [ 110.19763, 25.272902 ], [ 110.197771, 25.27278 ], [ 110.197912, 25.272658 ], [ 110.198053, 25.272536 ], [ 110.198194, 25.272414 ], [ 110.198335, 25.272292 ], [ 110.198476, 25.27217 ], [ 110.198617, 25.272047 ], [ 110.198754, 25.271922 ], [ 110.198853, 25.271773 ], [ 110.198872, 25.271596 ], [ 110.198872, 25.271419 ], [ 110.198857, 25.271243 ], [ 110.198842, 25.271066 ], [ 110.198817, 25.270892 ], [ 110.198725, 25.270736 ], [ 110.1986, 25.270604 ], [ 110.198429, 25.270518 ], [ 110.198259, 25.270433 ], [ 110.198088, 25.270347 ], [ 110.197918, 25.270261 ], [ 110.197747, 25.270176 ], [ 110.197576, 25.27009 ], [ 110.197406, 25.270005 ], [ 110.197235, 25.269919 ], [ 110.197065, 25.269834 ], [ 110.196902, 25.269739 ], [ 110.19682, 25.269593 ], [ 110.196871, 25.269428 ], [ 110.196988, 25.269286 ], [ 110.197106, 25.269146 ], [ 110.197225, 25.269006 ], [ 110.197344, 25.268865 ], [ 110.197463, 25.268725 ], [ 110.197582, 25.268585 ], [ 110.1977, 25.268444 ], [ 110.197819, 25.268304 ], [ 110.197938, 25.268163 ], [ 110.198057, 25.268023 ], [ 110.198176, 25.267883 ], [ 110.198284, 25.267736 ], [ 110.198321, 25.267572 ], [ 110.19824, 25.267419 ], [ 110.198094, 25.267303 ], [ 110.197942, 25.267192 ], [ 110.19779, 25.267081 ], [ 110.197638, 25.26697 ], [ 110.197486, 25.26686 ], [ 110.197334, 25.266749 ], [ 110.197182, 25.266638 ], [ 110.19703, 25.266527 ], [ 110.196877, 25.266417 ], [ 110.196725, 25.266307 ], [ 110.196557, 25.266222 ], [ 110.19637, 25.266174 ], [ 110.196179, 25.266144 ], [ 110.195984, 25.266131 ], [ 110.19579, 25.266118 ], [ 110.195596, 25.266104 ], [ 110.195402, 25.266091 ], [ 110.195208, 25.266078 ], [ 110.195013, 25.266065 ], [ 110.194819, 25.266051 ], [ 110.194625, 25.266038 ], [ 110.194431, 25.266025 ], [ 110.194236, 25.266014 ], [ 110.194042, 25.26601 ], [ 110.193853, 25.266041 ], [ 110.193692, 25.266135 ], [ 110.193549, 25.266256 ], [ 110.193407, 25.266376 ], [ 110.193285, 25.266512 ], [ 110.193211, 25.266674 ], [ 110.193274, 25.266823 ], [ 110.193397, 25.26696 ], [ 110.19352, 25.267098 ], [ 110.193643, 25.267235 ], [ 110.193766, 25.267372 ], [ 110.193809, 25.267535 ], [ 110.193757, 25.267703 ], [ 110.193637, 25.26784 ], [ 110.193503, 25.267969 ], [ 110.193372, 25.2681 ], [ 110.193243, 25.268233 ], [ 110.193116, 25.268367 ], [ 110.192989, 25.268501 ], [ 110.192862, 25.268635 ], [ 110.192735, 25.26877 ], [ 110.192608, 25.268904 ], [ 110.192481, 25.269038 ], [ 110.192354, 25.269172 ], [ 110.192226, 25.269307 ], [ 110.192099, 25.269441 ], [ 110.191972, 25.269575 ], [ 110.191845, 25.269709 ], [ 110.191718, 25.269843 ], [ 110.191591, 25.269978 ], [ 110.191464, 25.270112 ], [ 110.191337, 25.270246 ], [ 110.19121, 25.27038 ], [ 110.191083, 25.270515 ], [ 110.190956, 25.270649 ], [ 110.190828, 25.270783 ], [ 110.190706, 25.270921 ], [ 110.190586, 25.27106 ], [ 110.19066, 25.271194 ], [ 110.190798, 25.271319 ], [ 110.190949, 25.271431 ], [ 110.191102, 25.27154 ], [ 110.191256, 25.271649 ], [ 110.191409, 25.271758 ], [ 110.191563, 25.271867 ], [ 110.191716, 25.271976 ], [ 110.19187, 25.272085 ], [ 110.192023, 25.272194 ], [ 110.192177, 25.272303 ], [ 110.19233, 25.272412 ], [ 110.192484, 25.272521 ], [ 110.192637, 25.27263 ], [ 110.192791, 25.272739 ], [ 110.192944, 25.272848 ], [ 110.193098, 25.272957 ], [ 110.193251, 25.273066 ], [ 110.193311, 25.273228 ], [ 110.193283, 25.273402 ], [ 110.193176, 25.273548 ], [ 110.193075, 25.2737 ], [ 110.192987, 25.273857 ], [ 110.19292, 25.274024 ], [ 110.192861, 25.274193 ], [ 110.192804, 25.274362 ], [ 110.192746, 25.274531 ], [ 110.192688, 25.2747 ], [ 110.19263, 25.274869 ], [ 110.192572, 25.275038 ], [ 110.192514, 25.275207 ], [ 110.192456, 25.275377 ], [ 110.192398, 25.275546 ], [ 110.19234, 25.275715 ], [ 110.192282, 25.275884 ], [ 110.192225, 25.276053 ], [ 110.192167, 25.276222 ], [ 110.192109, 25.276391 ], [ 110.192051, 25.27656 ], [ 110.191993, 25.276729 ], [ 110.191935, 25.276899 ], [ 110.191877, 25.277068 ], [ 110.191819, 25.277237 ], [ 110.191761, 25.277406 ], [ 110.191703, 25.277575 ], [ 110.191645, 25.277744 ], [ 110.191588, 25.277913 ], [ 110.19153, 25.278082 ], [ 110.191472, 25.278252 ], [ 110.191414, 25.278421 ], [ 110.191349, 25.278588 ], [ 110.191277, 25.278752 ], [ 110.19109, 25.278783 ], [ 110.190898, 25.278757 ], [ 110.190711, 25.278708 ], [ 110.190523, 25.278659 ], [ 110.190336, 25.27861 ], [ 110.190149, 25.278561 ], [ 110.189962, 25.278512 ], [ 110.189775, 25.278463 ], [ 110.189588, 25.278414 ], [ 110.1894, 25.278365 ], [ 110.189213, 25.278316 ], [ 110.189026, 25.278266 ], [ 110.188839, 25.278217 ], [ 110.188652, 25.278168 ], [ 110.188465, 25.278119 ], [ 110.188277, 25.27807 ], [ 110.18809, 25.278021 ], [ 110.187903, 25.277972 ], [ 110.187716, 25.277923 ], [ 110.187529, 25.277874 ], [ 110.187342, 25.277824 ], [ 110.187154, 25.277775 ], [ 110.186967, 25.277726 ], [ 110.18678, 25.277677 ], [ 110.186593, 25.277628 ], [ 110.186406, 25.277579 ], [ 110.186219, 25.27753 ], [ 110.186031, 25.277481 ], [ 110.185844, 25.277432 ], [ 110.185657, 25.277382 ], [ 110.18547, 25.277333 ], [ 110.185283, 25.277284 ], [ 110.185096, 25.277235 ], [ 110.184908, 25.277186 ], [ 110.184721, 25.277137 ], [ 110.184534, 25.277088 ], [ 110.184346, 25.277043 ], [ 110.184156, 25.277001 ], [ 110.183966, 25.276964 ], [ 110.183775, 25.27693 ], [ 110.183584, 25.276896 ], [ 110.183392, 25.276861 ], [ 110.183201, 25.276827 ], [ 110.18301, 25.276793 ], [ 110.182819, 25.276759 ], [ 110.182627, 25.276728 ], [ 110.182434, 25.276705 ], [ 110.18224, 25.276709 ], [ 110.182047, 25.276732 ], [ 110.181854, 25.276756 ], [ 110.18166, 25.276779 ], [ 110.181467, 25.276803 ], [ 110.181274, 25.276826 ], [ 110.181081, 25.27685 ], [ 110.180888, 25.276873 ], [ 110.180695, 25.276897 ], [ 110.180502, 25.27692 ], [ 110.180309, 25.276944 ], [ 110.180116, 25.276967 ], [ 110.179923, 25.276991 ], [ 110.17973, 25.277014 ], [ 110.179537, 25.277039 ], [ 110.179345, 25.277072 ], [ 110.179154, 25.277107 ], [ 110.178964, 25.277145 ], [ 110.178774, 25.277183 ], [ 110.178584, 25.277222 ], [ 110.178394, 25.27726 ], [ 110.178203, 25.277298 ], [ 110.178013, 25.277338 ], [ 110.177825, 25.277383 ], [ 110.177646, 25.277452 ], [ 110.177469, 25.277525 ], [ 110.177292, 25.277599 ], [ 110.177114, 25.277672 ], [ 110.176936, 25.277744 ], [ 110.176757, 25.277814 ], [ 110.176578, 25.277882 ], [ 110.176398, 25.27795 ], [ 110.176218, 25.278018 ], [ 110.176038, 25.278086 ], [ 110.175858, 25.278154 ], [ 110.175678, 25.278223 ], [ 110.175501, 25.278296 ], [ 110.175339, 25.27839 ], [ 110.175258, 25.27854 ], [ 110.175269, 25.278717 ], [ 110.175281, 25.278894 ], [ 110.175293, 25.279071 ], [ 110.175305, 25.279248 ], [ 110.175317, 25.279424 ], [ 110.175328, 25.279601 ], [ 110.175339, 25.279778 ], [ 110.17535, 25.279955 ], [ 110.175361, 25.280132 ], [ 110.175372, 25.280309 ], [ 110.175383, 25.280485 ], [ 110.175394, 25.280662 ], [ 110.175405, 25.280839 ], [ 110.175416, 25.281016 ], [ 110.175427, 25.281193 ], [ 110.175438, 25.28137 ], [ 110.175449, 25.281546 ], [ 110.17546, 25.281723 ], [ 110.175471, 25.2819 ], [ 110.175482, 25.282077 ], [ 110.175494, 25.282254 ], [ 110.175505, 25.282431 ], [ 110.175516, 25.282607 ], [ 110.175527, 25.282784 ], [ 110.175538, 25.282961 ], [ 110.175549, 25.283138 ], [ 110.17556, 25.283315 ], [ 110.175571, 25.283492 ], [ 110.175582, 25.283668 ], [ 110.175593, 25.283845 ], [ 110.175604, 25.284022 ], [ 110.175615, 25.284199 ], [ 110.175626, 25.284376 ], [ 110.175637, 25.284553 ], [ 110.175648, 25.284729 ], [ 110.175659, 25.284906 ], [ 110.17567, 25.285083 ], [ 110.175681, 25.28526 ], [ 110.175692, 25.285437 ], [ 110.175703, 25.285614 ], [ 110.175714, 25.285791 ], [ 110.175725, 25.285967 ], [ 110.175736, 25.286144 ], [ 110.175747, 25.286321 ], [ 110.175758, 25.286498 ], [ 110.175762, 25.286675 ], [ 110.174336, 25.286556 ], [ 110.174145, 25.286517 ], [ 110.173955, 25.286478 ], [ 110.173765, 25.286439 ], [ 110.173575, 25.2864 ], [ 110.173385, 25.286361 ], [ 110.173195, 25.286322 ], [ 110.173005, 25.286283 ], [ 110.172815, 25.286244 ], [ 110.172625, 25.286205 ], [ 110.172435, 25.286166 ], [ 110.172245, 25.286127 ], [ 110.172055, 25.286088 ], [ 110.171865, 25.286049 ], [ 110.171675, 25.28601 ], [ 110.171485, 25.285971 ], [ 110.171295, 25.285932 ], [ 110.171105, 25.285893 ], [ 110.170915, 25.285854 ], [ 110.170725, 25.285815 ], [ 110.170535, 25.285776 ], [ 110.170345, 25.285737 ], [ 110.170155, 25.285698 ], [ 110.169965, 25.285659 ], [ 110.169775, 25.28562 ], [ 110.169585, 25.285581 ], [ 110.169395, 25.285542 ], [ 110.169205, 25.285503 ], [ 110.169015, 25.285464 ], [ 110.168824, 25.285425 ], [ 110.168634, 25.285386 ], [ 110.168444, 25.285347 ], [ 110.168254, 25.285308 ], [ 110.168064, 25.285269 ], [ 110.167874, 25.28523 ], [ 110.167684, 25.285191 ], [ 110.167494, 25.285152 ], [ 110.167304, 25.285113 ], [ 110.167115, 25.285071 ], [ 110.166927, 25.285025 ], [ 110.16674, 25.284974 ], [ 110.166555, 25.284919 ], [ 110.16637, 25.284864 ], [ 110.166184, 25.28481 ], [ 110.165998, 25.284758 ], [ 110.165812, 25.284707 ], [ 110.165625, 25.284657 ], [ 110.165437, 25.284609 ], [ 110.165249, 25.284564 ], [ 110.16506, 25.284521 ], [ 110.16487, 25.28448 ], [ 110.16468, 25.284444 ], [ 110.164488, 25.284411 ], [ 110.164296, 25.284383 ], [ 110.164102, 25.284362 ], [ 110.163908, 25.284348 ], [ 110.163714, 25.284343 ], [ 110.163519, 25.284347 ], [ 110.163325, 25.284364 ], [ 110.163133, 25.284393 ], [ 110.162943, 25.284432 ], [ 110.162756, 25.284481 ], [ 110.162571, 25.284537 ], [ 110.16239, 25.284601 ], [ 110.162212, 25.284673 ], [ 110.162039, 25.284754 ], [ 110.161871, 25.284845 ], [ 110.161711, 25.284944 ], [ 110.161556, 25.285053 ], [ 110.161409, 25.285168 ], [ 110.161269, 25.285292 ], [ 110.161136, 25.28542 ], [ 110.161009, 25.285555 ], [ 110.160888, 25.285694 ], [ 110.160773, 25.285836 ], [ 110.160663, 25.285983 ], [ 110.160558, 25.286132 ], [ 110.160458, 25.286284 ], [ 110.160362, 25.286438 ], [ 110.16027, 25.286594 ], [ 110.160183, 25.286753 ], [ 110.1601, 25.286913 ], [ 110.160019, 25.287074 ], [ 110.159939, 25.287235 ], [ 110.159858, 25.287397 ], [ 110.159778, 25.287558 ], [ 110.159698, 25.287719 ], [ 110.159617, 25.287881 ], [ 110.159537, 25.288042 ], [ 110.159457, 25.288204 ], [ 110.159378, 25.288365 ], [ 110.159298, 25.288527 ], [ 110.159218, 25.288688 ], [ 110.159138, 25.28885 ], [ 110.159058, 25.289011 ], [ 110.158978, 25.289173 ], [ 110.158898, 25.289334 ], [ 110.158818, 25.289496 ], [ 110.158738, 25.289657 ], [ 110.158658, 25.289819 ], [ 110.158578, 25.289981 ], [ 110.158498, 25.290142 ], [ 110.158418, 25.290304 ], [ 110.158338, 25.290465 ], [ 110.158259, 25.290627 ], [ 110.158179, 25.290788 ], [ 110.158099, 25.29095 ], [ 110.158019, 25.291111 ], [ 110.157939, 25.291273 ], [ 110.157859, 25.291434 ], [ 110.157779, 25.291596 ], [ 110.157699, 25.291757 ], [ 110.157619, 25.291919 ], [ 110.157539, 25.29208 ], [ 110.157459, 25.292242 ], [ 110.157379, 25.292403 ], [ 110.157299, 25.292565 ], [ 110.157219, 25.292727 ], [ 110.15714, 25.292888 ], [ 110.15706, 25.29305 ], [ 110.156979, 25.293211 ], [ 110.156898, 25.293372 ], [ 110.156817, 25.293533 ], [ 110.156735, 25.293694 ], [ 110.156652, 25.293854 ], [ 110.156568, 25.294014 ], [ 110.156434, 25.294042 ], [ 110.156274, 25.293941 ], [ 110.156121, 25.293832 ], [ 110.155965, 25.293882 ], [ 110.155848, 25.294023 ], [ 110.155733, 25.294165 ], [ 110.155617, 25.294308 ], [ 110.155502, 25.294451 ], [ 110.155387, 25.294594 ], [ 110.155502, 25.294728 ], [ 110.155658, 25.294834 ], [ 110.155814, 25.29494 ], [ 110.15597, 25.295046 ], [ 110.156124, 25.295155 ], [ 110.156268, 25.295273 ], [ 110.156413, 25.295392 ], [ 110.156556, 25.295513 ], [ 110.156698, 25.295633 ], [ 110.15684, 25.295755 ], [ 110.156705, 25.296033 ], [ 110.156658, 25.296167 ], [ 110.156816, 25.29627 ], [ 110.156974, 25.296374 ], [ 110.157132, 25.296478 ], [ 110.15729, 25.296581 ], [ 110.157424, 25.296458 ], [ 110.157558, 25.296329 ] ] ] } }
]
}
