{
"type": "FeatureCollection",
"name": "prod-service-area",
"crs": { "type": "name", "properties": { "name": "urn:ogc:def:crs:OGC:1.3:CRS84" } },
"features": [
{ "type": "Feature", "properties": { "OBJECTID": 1, "名称": "桂林星莱科技有限公司&桂林赛尔科技", "类型": "研发" }, "geometry": { "type": "Polygon", "coordinates": [ [ [ 110.173717, 25.29735 ], [ 110.173858, 25.297292 ], [ 110.174011, 25.297305 ], [ 110.174166, 25.297321 ], [ 110.174322, 25.297329 ], [ 110.174476, 25.297309 ], [ 110.174598, 25.297232 ], [ 110.174633, 25.297124 ], [ 110.174496, 25.296992 ], [ 110.174609, 25.296937 ], [ 110.174521, 25.296875 ], [ 110.174331, 25.296769 ], [ 110.17422, 25.296677 ], [ 110.17394, 25.296263 ], [ 110.173906, 25.296126 ], [ 110.173869, 25.296004 ], [ 110.173721, 25.295964 ], [ 110.173568, 25.295932 ], [ 110.173417, 25.295929 ], [ 110.173269, 25.295973 ], [ 110.173108, 25.295714 ], [ 110.173253, 25.295699 ], [ 110.17328, 25.295573 ], [ 110.172792, 25.295217 ], [ 110.172691, 25.295297 ], [ 110.172201, 25.295851 ], [ 110.172101, 25.295959 ], [ 110.171994, 25.296063 ], [ 110.171882, 25.296162 ], [ 110.171765, 25.296256 ], [ 110.171642, 25.296344 ], [ 110.171515, 25.296427 ], [ 110.171384, 25.296503 ], [ 110.171248, 25.296574 ], [ 110.171109, 25.296638 ], [ 110.170967, 25.296698 ], [ 110.17054, 25.296873 ], [ 110.170431, 25.296961 ], [ 110.170378, 25.297094 ], [ 110.170415, 25.297189 ], [ 110.170534, 25.297278 ], [ 110.170649, 25.297374 ], [ 110.170728, 25.297494 ], [ 110.170834, 25.298265 ], [ 110.17095, 25.298529 ], [ 110.17101, 25.29866 ], [ 110.171077, 25.298789 ], [ 110.171152, 25.298913 ], [ 110.171235, 25.299033 ], [ 110.171325, 25.299149 ], [ 110.171423, 25.299261 ], [ 110.171527, 25.299367 ], [ 110.171637, 25.299467 ], [ 110.171753, 25.299562 ], [ 110.171875, 25.299651 ], [ 110.172003, 25.299733 ], [ 110.172313, 25.299897 ], [ 110.172361, 25.299819 ], [ 110.172605, 25.299415 ], [ 110.172729, 25.299233 ], [ 110.172769, 25.299104 ], [ 110.172778, 25.298989 ], [ 110.172752, 25.298843 ], [ 110.172892, 25.298246 ], [ 110.172885, 25.298174 ], [ 110.172886, 25.298172 ], [ 110.172961, 25.298048 ], [ 110.173051, 25.297932 ], [ 110.17314, 25.297815 ], [ 110.173231, 25.2977 ], [ 110.173337, 25.297596 ], [ 110.173454, 25.297503 ], [ 110.17358, 25.297419 ], [ 110.173717, 25.29735 ] ] ] } },
{ "type": "Feature", "properties": { "OBJECTID": 2, "名称": "广西汇通药业医药物流配送中心", "类型": "第三方物流" }, "geometry": { "type": "Polygon", "coordinates": [ [ [ 110.168121, 25.215192 ], [ 110.1674, 25.214857 ], [ 110.166835, 25.215323 ], [ 110.166794, 25.215825 ], [ 110.167433, 25.216279 ], [ 110.168166, 25.216088 ], [ 110.168956, 25.215929 ], [ 110.169765, 25.215884 ], [ 110.169552, 25.215768 ], [ 110.168772, 25.215567 ], [ 110.168121, 25.215192 ] ] ] } },
{ "type": "Feature", "properties": { "OBJECTID": 3, "名称": "桂林中辰电商物流交流中心（内含顺", "类型": "第三方物流" }, "geometry": { "type": "Polygon", "coordinates": [ [ [ 110.141528, 25.202241 ], [ 110.141315, 25.202057 ], [ 110.141301, 25.202067 ], [ 110.141286, 25.202078 ], [ 110.14126, 25.20209 ], [ 110.141259, 25.20209 ], [ 110.141257, 25.20209 ], [ 110.14114, 25.202076 ], [ 110.141139, 25.202076 ], [ 110.141137, 25.202076 ], [ 110.141136, 25.202076 ], [ 110.141076, 25.202048 ], [ 110.141058, 25.202045 ], [ 110.141056, 25.202044 ], [ 110.141055, 25.202043 ], [ 110.140957, 25.201992 ], [ 110.14089, 25.201911 ], [ 110.14089, 25.201911 ], [ 110.140889, 25.201899 ], [ 110.140886, 25.201865 ], [ 110.140847, 25.201857 ], [ 110.140805, 25.201728 ], [ 110.140745, 25.201623 ], [ 110.140672, 25.201578 ], [ 110.140559, 25.201574 ], [ 110.14049, 25.201571 ], [ 110.140337, 25.201562 ], [ 110.140289, 25.201559 ], [ 110.14017, 25.201558 ], [ 110.140143, 25.201558 ], [ 110.140139, 25.201571 ], [ 110.140131, 25.201591 ], [ 110.140027, 25.201563 ], [ 110.139921, 25.201552 ], [ 110.139871, 25.201531 ], [ 110.139781, 25.201424 ], [ 110.139781, 25.201424 ], [ 110.13978, 25.201423 ], [ 110.139779, 25.201423 ], [ 110.13976, 25.201399 ], [ 110.139737, 25.201391 ], [ 110.139729, 25.201388 ], [ 110.139719, 25.201385 ], [ 110.139668, 25.201389 ], [ 110.139633, 25.201392 ], [ 110.138745, 25.202376 ], [ 110.137022, 25.201126 ], [ 110.136519, 25.201759 ], [ 110.136516, 25.201763 ], [ 110.136513, 25.201766 ], [ 110.13651, 25.20177 ], [ 110.136507, 25.201774 ], [ 110.136504, 25.201777 ], [ 110.136501, 25.201781 ], [ 110.136499, 25.201785 ], [ 110.136496, 25.201789 ], [ 110.136493, 25.201792 ], [ 110.13649, 25.201796 ], [ 110.136487, 25.2018 ], [ 110.136484, 25.201803 ], [ 110.136482, 25.201807 ], [ 110.136479, 25.201811 ], [ 110.136476, 25.201815 ], [ 110.136473, 25.201818 ], [ 110.13647, 25.201822 ], [ 110.136467, 25.201826 ], [ 110.136465, 25.20183 ], [ 110.136462, 25.201833 ], [ 110.136459, 25.201837 ], [ 110.136456, 25.201841 ], [ 110.136454, 25.201845 ], [ 110.136451, 25.201848 ], [ 110.136448, 25.201852 ], [ 110.136445, 25.201856 ], [ 110.136443, 25.20186 ], [ 110.13644, 25.201864 ], [ 110.136437, 25.201867 ], [ 110.136434, 25.201871 ], [ 110.136432, 25.201875 ], [ 110.136429, 25.201879 ], [ 110.136426, 25.201883 ], [ 110.136424, 25.201886 ], [ 110.136421, 25.20189 ], [ 110.136418, 25.201894 ], [ 110.136416, 25.201898 ], [ 110.136413, 25.201902 ], [ 110.13641, 25.201906 ], [ 110.136408, 25.201909 ], [ 110.136405, 25.201913 ], [ 110.136403, 25.201917 ], [ 110.1364, 25.201921 ], [ 110.136397, 25.201925 ], [ 110.136395, 25.201929 ], [ 110.136392, 25.201933 ], [ 110.13639, 25.201936 ], [ 110.136387, 25.20194 ], [ 110.136384, 25.201944 ], [ 110.136382, 25.201948 ], [ 110.136379, 25.201952 ], [ 110.136377, 25.201956 ], [ 110.136374, 25.20196 ], [ 110.136372, 25.201964 ], [ 110.136369, 25.201968 ], [ 110.136367, 25.201972 ], [ 110.136364, 25.201975 ], [ 110.136362, 25.201979 ], [ 110.136359, 25.201983 ], [ 110.136357, 25.201987 ], [ 110.136354, 25.201991 ], [ 110.136352, 25.201995 ], [ 110.136349, 25.201999 ], [ 110.136347, 25.202003 ], [ 110.136344, 25.202007 ], [ 110.136342, 25.202011 ], [ 110.136339, 25.202015 ], [ 110.136337, 25.202019 ], [ 110.136335, 25.202023 ], [ 110.136332, 25.202027 ], [ 110.13633, 25.202031 ], [ 110.136327, 25.202035 ], [ 110.136325, 25.202039 ], [ 110.136323, 25.202043 ], [ 110.13632, 25.202047 ], [ 110.136318, 25.202051 ], [ 110.136315, 25.202055 ], [ 110.136313, 25.202058 ], [ 110.136311, 25.202062 ], [ 110.136308, 25.202066 ], [ 110.136306, 25.202071 ], [ 110.136304, 25.202075 ], [ 110.136301, 25.202079 ], [ 110.136299, 25.202083 ], [ 110.136297, 25.202087 ], [ 110.136295, 25.202091 ], [ 110.136292, 25.202095 ], [ 110.13629, 25.202099 ], [ 110.136288, 25.202103 ], [ 110.136286, 25.202107 ], [ 110.136283, 25.202111 ], [ 110.136281, 25.202115 ], [ 110.136279, 25.202119 ], [ 110.136277, 25.202123 ], [ 110.136274, 25.202127 ], [ 110.136272, 25.202131 ], [ 110.13627, 25.202135 ], [ 110.136268, 25.202139 ], [ 110.136266, 25.202143 ], [ 110.136263, 25.202147 ], [ 110.136261, 25.202151 ], [ 110.136259, 25.202155 ], [ 110.136257, 25.20216 ], [ 110.136255, 25.202164 ], [ 110.136253, 25.202168 ], [ 110.13625, 25.202172 ], [ 110.136248, 25.202176 ], [ 110.136246, 25.20218 ], [ 110.136244, 25.202184 ], [ 110.136242, 25.202188 ], [ 110.13624, 25.202192 ], [ 110.136238, 25.202196 ], [ 110.136236, 25.202201 ], [ 110.136234, 25.202205 ], [ 110.136232, 25.202209 ], [ 110.136229, 25.202213 ], [ 110.136227, 25.202217 ], [ 110.136225, 25.202221 ], [ 110.136223, 25.202225 ], [ 110.136221, 25.202229 ], [ 110.136219, 25.202234 ], [ 110.136217, 25.202238 ], [ 110.136215, 25.202242 ], [ 110.136213, 25.202246 ], [ 110.136211, 25.20225 ], [ 110.136209, 25.202254 ], [ 110.136207, 25.202258 ], [ 110.136205, 25.202263 ], [ 110.136203, 25.202267 ], [ 110.136201, 25.202271 ], [ 110.1362, 25.202275 ], [ 110.136198, 25.202279 ], [ 110.136196, 25.202283 ], [ 110.136194, 25.202288 ], [ 110.136192, 25.202292 ], [ 110.13619, 25.202296 ], [ 110.136188, 25.2023 ], [ 110.136186, 25.202304 ], [ 110.136184, 25.202309 ], [ 110.136182, 25.202313 ], [ 110.136181, 25.202317 ], [ 110.136179, 25.202321 ], [ 110.136177, 25.202325 ], [ 110.136175, 25.20233 ], [ 110.136173, 25.202334 ], [ 110.136171, 25.202338 ], [ 110.13617, 25.202342 ], [ 110.136168, 25.202347 ], [ 110.136166, 25.202351 ], [ 110.136164, 25.202355 ], [ 110.136162, 25.202359 ], [ 110.136161, 25.202363 ], [ 110.136159, 25.202368 ], [ 110.136157, 25.202372 ], [ 110.136155, 25.202376 ], [ 110.136154, 25.20238 ], [ 110.136152, 25.202385 ], [ 110.13615, 25.202389 ], [ 110.136148, 25.202393 ], [ 110.136147, 25.202397 ], [ 110.136145, 25.202402 ], [ 110.136143, 25.202406 ], [ 110.136142, 25.20241 ], [ 110.13614, 25.202414 ], [ 110.136138, 25.202419 ], [ 110.136137, 25.202423 ], [ 110.136135, 25.202427 ], [ 110.136133, 25.202432 ], [ 110.136132, 25.202436 ], [ 110.13613, 25.20244 ], [ 110.136128, 25.202444 ], [ 110.136127, 25.202449 ], [ 110.136125, 25.202453 ], [ 110.136124, 25.202457 ], [ 110.136122, 25.202462 ], [ 110.13612, 25.202466 ], [ 110.136119, 25.20247 ], [ 110.136117, 25.202474 ], [ 110.136116, 25.202479 ], [ 110.136114, 25.202483 ], [ 110.136113, 25.202487 ], [ 110.136111, 25.202492 ], [ 110.13611, 25.202496 ], [ 110.136108, 25.2025 ], [ 110.136107, 25.202505 ], [ 110.136105, 25.202509 ], [ 110.136104, 25.202513 ], [ 110.136102, 25.202518 ], [ 110.136101, 25.202522 ], [ 110.136099, 25.202526 ], [ 110.136098, 25.202531 ], [ 110.136096, 25.202535 ], [ 110.136095, 25.202539 ], [ 110.136093, 25.202544 ], [ 110.136092, 25.202548 ], [ 110.136091, 25.202552 ], [ 110.136089, 25.202557 ], [ 110.136088, 25.202561 ], [ 110.136086, 25.202565 ], [ 110.136085, 25.20257 ], [ 110.136084, 25.202574 ], [ 110.136082, 25.202578 ], [ 110.136081, 25.202583 ], [ 110.13608, 25.202587 ], [ 110.136078, 25.202592 ], [ 110.136077, 25.202596 ], [ 110.136076, 25.2026 ], [ 110.136074, 25.202605 ], [ 110.136073, 25.202609 ], [ 110.136072, 25.202613 ], [ 110.13607, 25.202618 ], [ 110.136069, 25.202622 ], [ 110.136068, 25.202626 ], [ 110.136067, 25.202631 ], [ 110.136065, 25.202635 ], [ 110.136064, 25.20264 ], [ 110.136063, 25.202644 ], [ 110.136062, 25.202648 ], [ 110.13606, 25.202653 ], [ 110.136059, 25.202657 ], [ 110.136058, 25.202662 ], [ 110.136057, 25.202666 ], [ 110.136056, 25.20267 ], [ 110.136054, 25.202675 ], [ 110.136053, 25.202679 ], [ 110.135468, 25.204886 ], [ 110.135461, 25.204914 ], [ 110.135562, 25.205121 ], [ 110.135578, 25.20513 ], [ 110.137963, 25.206487 ], [ 110.137999, 25.206508 ], [ 110.138344, 25.206439 ], [ 110.138366, 25.206411 ], [ 110.141528, 25.202241 ] ] ] } },
{ "type": "Feature", "properties": { "OBJECTID": 4, "名称": "恒晟（桂林）检测科技有限公司", "类型": "检测" }, "geometry": { "type": "Polygon", "coordinates": [ [ [ 110.135791, 25.196084 ], [ 110.135602, 25.195945 ], [ 110.135371, 25.195953 ], [ 110.135195, 25.19607 ], [ 110.135089, 25.196268 ], [ 110.134985, 25.196467 ], [ 110.13488, 25.196666 ], [ 110.134776, 25.196864 ], [ 110.134672, 25.197063 ], [ 110.134567, 25.197262 ], [ 110.134463, 25.197461 ], [ 110.134364, 25.197662 ], [ 110.134276, 25.197868 ], [ 110.134198, 25.198076 ], [ 110.134131, 25.198288 ], [ 110.134074, 25.198502 ], [ 110.134027, 25.198718 ], [ 110.133992, 25.198936 ], [ 110.133967, 25.199155 ], [ 110.133953, 25.199375 ], [ 110.13395, 25.199596 ], [ 110.133952, 25.199816 ], [ 110.133953, 25.200036 ], [ 110.133955, 25.200257 ], [ 110.133956, 25.200477 ], [ 110.133957, 25.200698 ], [ 110.13395, 25.200918 ], [ 110.133931, 25.201137 ], [ 110.1339, 25.201356 ], [ 110.133858, 25.201573 ], [ 110.132999, 25.203381 ], [ 110.132979, 25.203583 ], [ 110.133129, 25.203737 ], [ 110.133334, 25.203854 ], [ 110.133539, 25.203971 ], [ 110.133745, 25.204088 ], [ 110.13395, 25.204204 ], [ 110.134156, 25.204321 ], [ 110.134361, 25.204438 ], [ 110.134566, 25.204555 ], [ 110.134772, 25.204672 ], [ 110.134977, 25.204788 ], [ 110.13519, 25.204839 ], [ 110.135318, 25.204682 ], [ 110.135375, 25.204468 ], [ 110.135432, 25.204254 ], [ 110.135489, 25.204039 ], [ 110.135545, 25.203825 ], [ 110.135602, 25.203611 ], [ 110.136998, 25.200848 ], [ 110.13714, 25.20067 ], [ 110.137282, 25.200491 ], [ 110.137424, 25.200312 ], [ 110.137566, 25.200134 ], [ 110.137708, 25.199955 ], [ 110.13785, 25.199777 ], [ 110.137992, 25.199598 ], [ 110.138134, 25.19942 ], [ 110.138276, 25.199241 ], [ 110.138417, 25.199062 ], [ 110.138559, 25.198884 ], [ 110.138701, 25.198705 ], [ 110.13883, 25.198524 ], [ 110.138789, 25.198307 ], [ 110.138619, 25.198159 ], [ 110.13843, 25.19802 ], [ 110.138242, 25.197882 ], [ 110.138053, 25.197744 ], [ 110.137865, 25.197605 ], [ 110.137676, 25.197467 ], [ 110.137488, 25.197329 ], [ 110.137299, 25.19719 ], [ 110.13711, 25.197052 ], [ 110.136922, 25.196914 ], [ 110.136733, 25.196775 ], [ 110.136545, 25.196637 ], [ 110.136356, 25.196499 ], [ 110.136168, 25.19636 ], [ 110.135979, 25.196222 ], [ 110.135791, 25.196084 ] ] ] } },
{ "type": "Feature", "properties": { "OBJECTID": 5, "名称": "华为云计算数据中心", "类型": "研发" }, "geometry": { "type": "Polygon", "coordinates": [ [ [ 110.135165, 25.217886 ], [ 110.134907, 25.217686 ], [ 110.134789, 25.217687 ], [ 110.134671, 25.217689 ], [ 110.134553, 25.21769 ], [ 110.134435, 25.217691 ], [ 110.134317, 25.217692 ], [ 110.134199, 25.217694 ], [ 110.134081, 25.217695 ], [ 110.133963, 25.217696 ], [ 110.133845, 25.217698 ], [ 110.133727, 25.217699 ], [ 110.13361, 25.2177 ], [ 110.133492, 25.217702 ], [ 110.133374, 25.217703 ], [ 110.133256, 25.217704 ], [ 110.133138, 25.217706 ], [ 110.13302, 25.217707 ], [ 110.132902, 25.217708 ], [ 110.132784, 25.21771 ], [ 110.132666, 25.217711 ], [ 110.132548, 25.217712 ], [ 110.13243, 25.217713 ], [ 110.132312, 25.217715 ], [ 110.132194, 25.217717 ], [ 110.132076, 25.21772 ], [ 110.131958, 25.217724 ], [ 110.131841, 25.217728 ], [ 110.131723, 25.217733 ], [ 110.131605, 25.217738 ], [ 110.131487, 25.217744 ], [ 110.131369, 25.217751 ], [ 110.131252, 25.217758 ], [ 110.131134, 25.217766 ], [ 110.131541, 25.219387 ], [ 110.131614, 25.21947 ], [ 110.131704, 25.219539 ], [ 110.131803, 25.219596 ], [ 110.131904, 25.219653 ], [ 110.132004, 25.219709 ], [ 110.132104, 25.219765 ], [ 110.132205, 25.219822 ], [ 110.132306, 25.219877 ], [ 110.13241, 25.219928 ], [ 110.132514, 25.219978 ], [ 110.132626, 25.22 ], [ 110.132743, 25.219993 ], [ 110.132861, 25.219985 ], [ 110.132979, 25.219977 ], [ 110.133096, 25.219968 ], [ 110.133214, 25.219959 ], [ 110.133331, 25.21995 ], [ 110.133449, 25.21994 ], [ 110.133566, 25.21993 ], [ 110.133684, 25.219919 ], [ 110.133801, 25.219908 ], [ 110.133918, 25.219896 ], [ 110.134035, 25.219884 ], [ 110.134152, 25.219872 ], [ 110.13427, 25.219859 ], [ 110.134387, 25.219846 ], [ 110.134504, 25.219832 ], [ 110.134621, 25.219818 ], [ 110.134737, 25.219803 ], [ 110.134854, 25.219788 ], [ 110.134958, 25.219752 ], [ 110.135036, 25.219671 ], [ 110.135113, 25.21959 ], [ 110.13515, 25.219495 ], [ 110.135151, 25.219388 ], [ 110.135152, 25.21928 ], [ 110.135153, 25.219173 ], [ 110.135154, 25.219066 ], [ 110.135155, 25.218959 ], [ 110.135156, 25.218851 ], [ 110.135157, 25.218744 ], [ 110.135158, 25.218637 ], [ 110.135159, 25.218529 ], [ 110.13516, 25.218422 ], [ 110.135161, 25.218315 ], [ 110.135162, 25.218207 ], [ 110.135163, 25.2181 ], [ 110.135164, 25.217993 ], [ 110.135165, 25.217886 ] ] ] } },
{ "type": "Feature", "properties": { "OBJECTID": 6, "名称": "华为云计算数据中心", "类型": "研发" }, "geometry": { "type": "Polygon", "coordinates": [ [ [ 110.131264, 25.21563 ], [ 110.131144, 25.215623 ], [ 110.131077, 25.215666 ], [ 110.131077, 25.215774 ], [ 110.131077, 25.215883 ], [ 110.131078, 25.215992 ], [ 110.131078, 25.2161 ], [ 110.131078, 25.216209 ], [ 110.131079, 25.216318 ], [ 110.131079, 25.216427 ], [ 110.131079, 25.216535 ], [ 110.13108, 25.216644 ], [ 110.13108, 25.216753 ], [ 110.13108, 25.216861 ], [ 110.13108, 25.21697 ], [ 110.131081, 25.217079 ], [ 110.131081, 25.217187 ], [ 110.131081, 25.217296 ], [ 110.131082, 25.217405 ], [ 110.131119, 25.217586 ], [ 110.131238, 25.217578 ], [ 110.131357, 25.217571 ], [ 110.131476, 25.217564 ], [ 110.131596, 25.217558 ], [ 110.131715, 25.217552 ], [ 110.131834, 25.217547 ], [ 110.131954, 25.217543 ], [ 110.132073, 25.21754 ], [ 110.132193, 25.217537 ], [ 110.132312, 25.217535 ], [ 110.132431, 25.217533 ], [ 110.132551, 25.217532 ], [ 110.13267, 25.21753 ], [ 110.13279, 25.217529 ], [ 110.132909, 25.217528 ], [ 110.133029, 25.217526 ], [ 110.133148, 25.217525 ], [ 110.133268, 25.217524 ], [ 110.133387, 25.217522 ], [ 110.133507, 25.217521 ], [ 110.133626, 25.21752 ], [ 110.133746, 25.217518 ], [ 110.133865, 25.217517 ], [ 110.133985, 25.217516 ], [ 110.134104, 25.217514 ], [ 110.134224, 25.217513 ], [ 110.134343, 25.217512 ], [ 110.134463, 25.21751 ], [ 110.134582, 25.217509 ], [ 110.134701, 25.217508 ], [ 110.134821, 25.217506 ], [ 110.13494, 25.217505 ], [ 110.135031, 25.217445 ], [ 110.135112, 25.217365 ], [ 110.135171, 25.217277 ], [ 110.135172, 25.217169 ], [ 110.135173, 25.21706 ], [ 110.135174, 25.216951 ], [ 110.135175, 25.216843 ], [ 110.135176, 25.216734 ], [ 110.135177, 25.216625 ], [ 110.135178, 25.216516 ], [ 110.135179, 25.216408 ], [ 110.13518, 25.216299 ], [ 110.135182, 25.21619 ], [ 110.135183, 25.216082 ], [ 110.13496, 25.215846 ], [ 110.13484, 25.215845 ], [ 110.134721, 25.215842 ], [ 110.134601, 25.215838 ], [ 110.134482, 25.215832 ], [ 110.134363, 25.215825 ], [ 110.134244, 25.215818 ], [ 110.134124, 25.21581 ], [ 110.134005, 25.215803 ], [ 110.133886, 25.215795 ], [ 110.133767, 25.215788 ], [ 110.133648, 25.21578 ], [ 110.133528, 25.215773 ], [ 110.133409, 25.215765 ], [ 110.13329, 25.215758 ], [ 110.133171, 25.21575 ], [ 110.133052, 25.215743 ], [ 110.132932, 25.215735 ], [ 110.132813, 25.215728 ], [ 110.132694, 25.21572 ], [ 110.132575, 25.215713 ], [ 110.132456, 25.215705 ], [ 110.132336, 25.215698 ], [ 110.132217, 25.21569 ], [ 110.132098, 25.215683 ], [ 110.131979, 25.215675 ], [ 110.13186, 25.215668 ], [ 110.13174, 25.21566 ], [ 110.131621, 25.215653 ], [ 110.131502, 25.215645 ], [ 110.131383, 25.215638 ], [ 110.131264, 25.21563 ] ] ] } },
{ "type": "Feature", "properties": { "OBJECTID": 7, "名称": "华为云计算数据中心", "类型": "研发" }, "geometry": { "type": "Polygon", "coordinates": [ [ [ 110.135202, 25.213995 ], [ 110.135107, 25.213934 ], [ 110.134988, 25.213937 ], [ 110.134869, 25.21394 ], [ 110.13475, 25.213943 ], [ 110.134631, 25.213945 ], [ 110.134512, 25.213947 ], [ 110.134393, 25.213948 ], [ 110.134274, 25.213948 ], [ 110.134155, 25.213948 ], [ 110.134036, 25.213947 ], [ 110.133918, 25.213945 ], [ 110.133799, 25.213943 ], [ 110.13368, 25.213939 ], [ 110.133561, 25.213936 ], [ 110.133442, 25.213931 ], [ 110.133323, 25.213926 ], [ 110.133204, 25.21392 ], [ 110.133085, 25.213913 ], [ 110.132967, 25.213906 ], [ 110.132848, 25.213898 ], [ 110.132729, 25.213889 ], [ 110.132611, 25.21388 ], [ 110.132492, 25.21387 ], [ 110.132374, 25.213859 ], [ 110.132256, 25.213847 ], [ 110.132137, 25.213835 ], [ 110.132019, 25.213822 ], [ 110.131901, 25.213808 ], [ 110.131783, 25.213794 ], [ 110.131666, 25.213779 ], [ 110.131548, 25.213763 ], [ 110.13143, 25.213747 ], [ 110.131313, 25.21373 ], [ 110.131195, 25.213712 ], [ 110.131072, 25.213818 ], [ 110.131072, 25.213926 ], [ 110.131072, 25.214034 ], [ 110.131073, 25.214142 ], [ 110.131073, 25.214251 ], [ 110.131073, 25.214359 ], [ 110.131074, 25.214467 ], [ 110.131074, 25.214575 ], [ 110.131074, 25.214684 ], [ 110.131074, 25.214792 ], [ 110.131075, 25.2149 ], [ 110.131075, 25.215008 ], [ 110.131075, 25.215117 ], [ 110.131076, 25.215225 ], [ 110.131076, 25.215333 ], [ 110.13108, 25.215438 ], [ 110.131199, 25.215445 ], [ 110.131318, 25.215453 ], [ 110.131436, 25.21546 ], [ 110.131555, 25.215468 ], [ 110.131674, 25.215475 ], [ 110.131793, 25.215483 ], [ 110.131911, 25.21549 ], [ 110.13203, 25.215498 ], [ 110.132149, 25.215505 ], [ 110.132267, 25.215513 ], [ 110.132386, 25.21552 ], [ 110.132505, 25.215527 ], [ 110.132623, 25.215535 ], [ 110.132742, 25.215542 ], [ 110.132861, 25.21555 ], [ 110.13298, 25.215557 ], [ 110.133098, 25.215565 ], [ 110.133217, 25.215572 ], [ 110.133336, 25.21558 ], [ 110.133454, 25.215587 ], [ 110.133573, 25.215595 ], [ 110.133692, 25.215602 ], [ 110.133811, 25.21561 ], [ 110.133929, 25.215617 ], [ 110.134048, 25.215624 ], [ 110.134167, 25.215632 ], [ 110.134285, 25.215639 ], [ 110.134404, 25.215647 ], [ 110.134523, 25.215653 ], [ 110.134642, 25.215658 ], [ 110.134761, 25.215662 ], [ 110.13488, 25.215665 ], [ 110.135189, 25.215402 ], [ 110.13519, 25.215293 ], [ 110.135191, 25.215185 ], [ 110.135192, 25.215077 ], [ 110.135193, 25.214969 ], [ 110.135194, 25.21486 ], [ 110.135195, 25.214752 ], [ 110.135196, 25.214644 ], [ 110.135197, 25.214536 ], [ 110.135198, 25.214428 ], [ 110.135199, 25.214319 ], [ 110.1352, 25.214211 ], [ 110.135201, 25.214103 ], [ 110.135202, 25.213995 ] ] ] } },
{ "type": "Feature", "properties": { "OBJECTID": 8, "名称": "秧塘区创新创业服务中心", "类型": "研发" }, "geometry": { "type": "Polygon", "coordinates": [ [ [ 110.159528, 25.211293 ], [ 110.159347, 25.21117 ], [ 110.159166, 25.211048 ], [ 110.158984, 25.210928 ], [ 110.158821, 25.210909 ], [ 110.158703, 25.211084 ], [ 110.158408, 25.211206 ], [ 110.158215, 25.211099 ], [ 110.158023, 25.210992 ], [ 110.157831, 25.210885 ], [ 110.157639, 25.210778 ], [ 110.157486, 25.210872 ], [ 110.157347, 25.211032 ], [ 110.157207, 25.211193 ], [ 110.157068, 25.211354 ], [ 110.156928, 25.211515 ], [ 110.156789, 25.211676 ], [ 110.156649, 25.211837 ], [ 110.15651, 25.211998 ], [ 110.15637, 25.212158 ], [ 110.15631, 25.212336 ], [ 110.156418, 25.212494 ], [ 110.156616, 25.212593 ], [ 110.156813, 25.212692 ], [ 110.15701, 25.212791 ], [ 110.157208, 25.21289 ], [ 110.157405, 25.212988 ], [ 110.157602, 25.213087 ], [ 110.1578, 25.213186 ], [ 110.157997, 25.213285 ], [ 110.158194, 25.213384 ], [ 110.158392, 25.213482 ], [ 110.158589, 25.213581 ], [ 110.158786, 25.21368 ], [ 110.158987, 25.213738 ], [ 110.1592, 25.213672 ], [ 110.159314, 25.213501 ], [ 110.159417, 25.213318 ], [ 110.159519, 25.213136 ], [ 110.159622, 25.212953 ], [ 110.159724, 25.212771 ], [ 110.159827, 25.212588 ], [ 110.159929, 25.212406 ], [ 110.160032, 25.212224 ], [ 110.160135, 25.212041 ], [ 110.160139, 25.211846 ], [ 110.16007, 25.211659 ], [ 110.15989, 25.211537 ], [ 110.159709, 25.211415 ], [ 110.159528, 25.211293 ] ] ] } },
{ "type": "Feature", "properties": { "OBJECTID": 9, "名称": "桂林真龙机动车检测中心", "类型": "检测" }, "geometry": { "type": "Polygon", "coordinates": [ [ [ 110.166359, 25.269193 ], [ 110.166374, 25.269438 ], [ 110.166389, 25.269682 ], [ 110.166404, 25.269926 ], [ 110.166419, 25.27017 ], [ 110.166434, 25.270415 ], [ 110.166446, 25.270659 ], [ 110.166452, 25.270903 ], [ 110.166678, 25.270979 ], [ 110.166947, 25.270981 ], [ 110.167204, 25.270962 ], [ 110.167205, 25.270717 ], [ 110.167207, 25.270473 ], [ 110.167209, 25.270228 ], [ 110.16721, 25.269984 ], [ 110.167212, 25.269739 ], [ 110.167214, 25.269494 ], [ 110.168434, 25.269489 ], [ 110.168426, 25.269776 ], [ 110.168425, 25.27002 ], [ 110.168423, 25.270265 ], [ 110.168421, 25.270509 ], [ 110.16842, 25.270754 ], [ 110.168446, 25.270977 ], [ 110.168714, 25.270991 ], [ 110.168983, 25.270992 ], [ 110.169252, 25.270994 ], [ 110.169494, 25.270918 ], [ 110.16955, 25.270691 ], [ 110.16955, 25.270447 ], [ 110.169551, 25.270202 ], [ 110.169551, 25.269957 ], [ 110.169551, 25.269713 ], [ 110.169551, 25.269468 ], [ 110.169523, 25.26923 ], [ 110.169296, 25.269116 ], [ 110.169027, 25.269117 ], [ 110.168758, 25.269118 ], [ 110.168489, 25.26912 ], [ 110.16822, 25.269121 ], [ 110.167951, 25.269122 ], [ 110.167682, 25.269123 ], [ 110.167413, 25.269124 ], [ 110.167144, 25.269125 ], [ 110.166875, 25.269126 ], [ 110.166606, 25.269127 ], [ 110.166359, 25.269193 ] ] ] } },
{ "type": "Feature", "properties": { "OBJECTID": 10, "名称": "临桂西诚速检机动车检测站", "类型": "检测" }, "geometry": { "type": "Polygon", "coordinates": [ [ [ 110.163235, 25.216646 ], [ 110.162974, 25.216475 ], [ 110.162686, 25.216728 ], [ 110.162583, 25.216859 ], [ 110.16248, 25.21699 ], [ 110.162377, 25.21712 ], [ 110.162274, 25.217251 ], [ 110.162171, 25.217381 ], [ 110.162067, 25.217512 ], [ 110.161964, 25.217643 ], [ 110.161861, 25.217773 ], [ 110.161758, 25.217904 ], [ 110.161823, 25.218135 ], [ 110.16197, 25.218223 ], [ 110.162118, 25.218311 ], [ 110.162267, 25.218397 ], [ 110.162421, 25.218476 ], [ 110.162581, 25.218545 ], [ 110.162745, 25.218605 ], [ 110.162913, 25.218654 ], [ 110.163085, 25.218694 ], [ 110.163258, 25.218723 ], [ 110.163434, 25.218741 ], [ 110.16361, 25.218749 ], [ 110.163787, 25.218747 ], [ 110.163963, 25.218734 ], [ 110.164138, 25.21871 ], [ 110.164311, 25.218676 ], [ 110.16448, 25.218631 ], [ 110.164647, 25.218577 ], [ 110.164809, 25.218512 ], [ 110.164966, 25.218438 ], [ 110.164982, 25.218239 ], [ 110.164858, 25.218125 ], [ 110.164734, 25.21801 ], [ 110.16461, 25.217896 ], [ 110.164486, 25.217781 ], [ 110.164362, 25.217666 ], [ 110.164238, 25.217552 ], [ 110.164114, 25.217437 ], [ 110.16399, 25.217323 ], [ 110.163866, 25.217208 ], [ 110.163742, 25.217093 ], [ 110.163618, 25.216979 ], [ 110.163493, 25.216866 ], [ 110.163365, 25.216755 ], [ 110.163235, 25.216646 ] ] ] } },
{ "type": "Feature", "properties": { "OBJECTID": 11, "名称": "桂林市临桂区安达机动车检测有限公", "类型": "检测" }, "geometry": { "type": "Polygon", "coordinates": [ [ [ 110.196455, 25.272763 ], [ 110.195354, 25.271855 ], [ 110.195141, 25.271831 ], [ 110.194967, 25.271948 ], [ 110.193889, 25.273024 ], [ 110.194003, 25.273163 ], [ 110.195129, 25.274045 ], [ 110.196455, 25.272763 ] ] ] } }
]
}
