{
"type": "FeatureCollection",
"name": "prod-service-point",
"crs": { "type": "name", "properties": { "name": "urn:ogc:def:crs:OGC:1.3:CRS84" } },
"features": [
{ "type": "Feature", "properties": { "OBJECTID": 1, "名称": "广西医疗器械检测中心桂林分中心", "类型": "检测" }, "geometry": { "type": "Point", "coordinates": [ 110.170959, 25.204631 ] } },
{ "type": "Feature", "properties": { "OBJECTID": 2, "名称": "顺丰速运（通达物流园店）", "类型": "第三方物流" }, "geometry": { "type": "Point", "coordinates": [ 110.186019, 25.285098 ] } },
{ "type": "Feature", "properties": { "OBJECTID": 3, "名称": "桂林骏锋检测站", "类型": "检测" }, "geometry": { "type": "Point", "coordinates": [ 110.186886, 25.284148 ] } },
{ "type": "Feature", "properties": { "OBJECTID": 4, "名称": "桂林千卓环境检测技术服务有限公司", "类型": "检测" }, "geometry": { "type": "Point", "coordinates": [ 110.198656, 25.261694 ] } },
{ "type": "Feature", "properties": { "OBJECTID": 5, "名称": "桂林明晟粘胶制品厂新材料有限公司", "类型": "研发" }, "geometry": { "type": "Point", "coordinates": [ 110.183742, 25.278505 ] } }
]
}
