{
"type": "FeatureCollection",
"name": "yellow-line",
"crs": { "type": "name", "properties": { "name": "urn:ogc:def:crs:OGC:1.3:CRS84" } },
"features": [
{ "type": "Feature", "properties": { "OBJECTID": 1 }, "geometry": { "type": "Polygon", "coordinates": [ [ [ 110.177188349912754, 25.213422281892026, 0.0 ], [ 110.177272838745196, 25.213453947580163, 0.0 ], [ 110.17735740788747, 25.213485685939144, 0.0 ], [ 110.17744197700371, 25.21351742440746, 0.0 ], [ 110.177526054942547, 25.213550158221718, 0.0 ], [ 110.177608323523117, 25.213586558466677, 0.0 ], [ 110.177690592396374, 25.213622958213037, 0.0 ], [ 110.177772861214962, 25.21365935811043, 0.0 ], [ 110.177855130072729, 25.213695757983569, 0.0 ], [ 110.177935603690358, 25.213675112686598, 0.0 ], [ 110.177953883533533, 25.21363710243147, 0.0 ], [ 110.177870230063292, 25.213603415370532, 0.0 ], [ 110.177786576687041, 25.213569728166952, 0.0 ], [ 110.177703391065506, 25.213535101300451, 0.0 ], [ 110.177010591875529, 25.213167005986445, 0.0 ], [ 110.176934866992127, 25.213124348938841, 0.0 ], [ 110.176853389251264, 25.213086505785157, 0.0 ], [ 110.176771911496175, 25.21304866270318, 0.0 ], [ 110.17669043392543, 25.213010819341633, 0.0 ], [ 110.176608956206209, 25.212972976292338, 0.0 ], [ 110.176525029163543, 25.212939974484172, 0.0 ], [ 110.176440438878416, 25.212908283657281, 0.0 ], [ 110.176355848741451, 25.212876592554956, 0.0 ], [ 110.17627125864955, 25.21284490140523, 0.0 ], [ 110.176186668602853, 25.212813210208076, 0.0 ], [ 110.17610207859984, 25.212781518966064, 0.0 ], [ 110.176017488633093, 25.212749827696125, 0.0 ], [ 110.175932898661813, 25.212718136488519, 0.0 ], [ 110.175848135137784, 25.212686841392394, 0.0 ], [ 110.175762778055827, 25.212656900888618, 0.0 ], [ 110.175677421183991, 25.212626959942696, 0.0 ], [ 110.175592827440937, 25.212595437170464, 0.0 ], [ 110.175510817748602, 25.212558557919913, 0.0 ], [ 110.175428808106773, 25.212521678624885, 0.0 ], [ 110.175346798520906, 25.212484799275035, 0.0 ], [ 110.175265228081173, 25.212447209846868, 0.0 ], [ 110.175188004757032, 25.212402591255255, 0.0 ], [ 110.175110781489948, 25.212357972624467, 0.0 ], [ 110.175033558279935, 25.212313353954453, 0.0 ], [ 110.174957623213814, 25.212267150416736, 0.0 ], [ 110.174888098587175, 25.212213059724636, 0.0 ], [ 110.1748185739972, 25.212158969027499, 0.0 ], [ 110.174749049453339, 25.212104878315511, 0.0 ], [ 110.174679524971225, 25.212050787571972, 0.0 ], [ 110.174600479895687, 25.21209150827314, 0.0 ], [ 110.174535510570948, 25.21213497921984, 0.0 ], [ 110.174599716419067, 25.212194262083546, 0.0 ], [ 110.174667384459639, 25.212250121196487, 0.0 ], [ 110.174737669887975, 25.212303391962273, 0.0 ], [ 110.174807955377844, 25.212356662695822, 0.0 ], [ 110.174878240727608, 25.212409933617433, 0.0 ], [ 110.174949502966257, 25.212461952025265, 0.0 ], [ 110.175027992452883, 25.212504703106884, 0.0 ], [ 110.175106481785662, 25.212547454466172, 0.0 ], [ 110.175186170664261, 25.212588181691398, 0.0 ], [ 110.175268570022183, 25.21262433499253, 0.0 ], [ 110.175350969235197, 25.212660488616077, 0.0 ], [ 110.175433368590475, 25.212696642020386, 0.0 ], [ 110.175515767902965, 25.212732795554185, 0.0 ], [ 110.175598167459995, 25.212768948675855, 0.0 ], [ 110.175683054861082, 25.212799930063806, 0.0 ], [ 110.175768158752305, 25.212830461456438, 0.0 ], [ 110.175853262687198, 25.212860992801012, 0.0 ], [ 110.175938366600121, 25.212891524249208, 0.0 ], [ 110.176023470622411, 25.212922055497689, 0.0 ], [ 110.176108574688612, 25.212952586698115, 0.0 ], [ 110.176193678798455, 25.212983117850523, 0.0 ], [ 110.176278782952053, 25.213013648954856, 0.0 ], [ 110.176363887149392, 25.213044180011188, 0.0 ], [ 110.17644722630493, 25.213078299801982, 0.0 ], [ 110.176528962346367, 25.213115679109904, 0.0 ], [ 110.176610698516697, 25.213153058232926, 0.0 ], [ 110.176692434666748, 25.213190437440836, 0.0 ], [ 110.176774170888521, 25.213227816566771, 0.0 ], [ 110.176855907116888, 25.213265195729001, 0.0 ], [ 110.176937643586029, 25.213302574503722, 0.0 ], [ 110.177019379862088, 25.213339953676186, 0.0 ], [ 110.17710111628142, 25.213377332637233, 0.0 ], [ 110.177138774688103, 25.213451828077535, 0.0 ], [ 110.177173436988696, 25.213528846568039, 0.0 ], [ 110.177208099155095, 25.21360586511652, 0.0 ], [ 110.177242761247911, 25.213682883700177, 0.0 ], [ 110.177277423562941, 25.213759902209382, 0.0 ], [ 110.177312085963749, 25.21383692069459, 0.0 ], [ 110.177346748080851, 25.213913939293196, 0.0 ], [ 110.177398879251115, 25.213883434279907, 0.0 ], [ 110.177363790832288, 25.213806575602014, 0.0 ], [ 110.17732870200912, 25.213729717085069, 0.0 ], [ 110.177293613650747, 25.213652858400653, 0.0 ], [ 110.177258525335333, 25.213575999708215, 0.0 ], [ 110.177223437062793, 25.213499141007819, 0.0 ], [ 110.177188349912754, 25.213422281892026, 0.0 ] ] ] } },
{ "type": "Feature", "properties": { "OBJECTID": 2 }, "geometry": { "type": "Polygon", "coordinates": [ [ [ 110.178775832172946, 25.213953576191614, 0.0 ], [ 110.178568880361397, 25.213816494250292, 0.0 ], [ 110.178381437485598, 25.213914892777357, 0.0 ], [ 110.178474805231673, 25.213954560179143, 0.0 ], [ 110.178574388788348, 25.213994211573453, 0.0 ], [ 110.178673712242883, 25.214034401885559, 0.0 ], [ 110.178773053307879, 25.214074556106073, 0.0 ], [ 110.178872507971576, 25.214114477129392, 0.0 ], [ 110.178971962718776, 25.214154398052205, 0.0 ], [ 110.179072628286292, 25.214191667319103, 0.0 ], [ 110.17917390466512, 25.214227598932382, 0.0 ], [ 110.179273253826352, 25.214267513050174, 0.0 ], [ 110.179370777723051, 25.214311198966229, 0.0 ], [ 110.179464145193521, 25.214361810667146, 0.0 ], [ 110.179558194373513, 25.214411350575489, 0.0 ], [ 110.179653907046443, 25.214458234745397, 0.0 ], [ 110.17974962034539, 25.214505117922599, 0.0 ], [ 110.179844686138125, 25.214553078801664, 0.0 ], [ 110.179939741970088, 25.214601056322781, 0.0 ], [ 110.180034797608741, 25.214649034225427, 0.0 ], [ 110.180125989278366, 25.214702796894031, 0.0 ], [ 110.180216588784575, 25.21475744617446, 0.0 ], [ 110.180307188397748, 25.214812095366625, 0.0 ], [ 110.18039778812205, 25.214866744464871, 0.0 ], [ 110.180486142152461, 25.214924315356534, 0.0 ], [ 110.18057366578347, 25.214982966705183, 0.0 ], [ 110.180655661739266, 25.215047244910199, 0.0 ], [ 110.180729526454996, 25.215119800192586, 0.0 ], [ 110.18079653516925, 25.215197307103381, 0.0 ], [ 110.180857464004859, 25.215279205082044, 0.0 ], [ 110.180904601834825, 25.215367862637564, 0.0 ], [ 110.180946275168225, 25.215459198619502, 0.0 ], [ 110.180983477527747, 25.215552058472188, 0.0 ], [ 110.18101803777779, 25.215645818877256, 0.0 ], [ 110.181048834680979, 25.215740652004207, 0.0 ], [ 110.181079268900916, 25.215835588514977, 0.0 ], [ 110.181108569377173, 25.215930809513285, 0.0 ], [ 110.181135938900866, 25.216026515024129, 0.0 ], [ 110.181163308894, 25.216122220428264, 0.0 ], [ 110.181178555090582, 25.2162198795268, 0.0 ], [ 110.181188657321911, 25.216318331747406, 0.0 ], [ 110.181190881004127, 25.216417202186427, 0.0 ], [ 110.181193104448113, 25.21651607262865, 0.0 ], [ 110.181195327579474, 25.216614943075438, 0.0 ], [ 110.181197550607962, 25.216713813522926, 0.0 ], [ 110.181199753033042, 25.216812684343989, 0.0 ], [ 110.181201877462541, 25.216911556583185, 0.0 ], [ 110.181204001789666, 25.217010428823414, 0.0 ], [ 110.181206126109743, 25.21710930106255, 0.0 ], [ 110.181208250522971, 25.217208173298527, 0.0 ], [ 110.181210374518429, 25.217307045540355, 0.0 ], [ 110.181300088576094, 25.217321179676059, 0.0 ], [ 110.181317223179107, 25.217223525774056, 0.0 ], [ 110.181332517796946, 25.21712561969554, 0.0 ], [ 110.181345725230415, 25.217027462895416, 0.0 ], [ 110.181342667584516, 25.216930702911803, 0.0 ], [ 110.181330997057657, 25.216833522744238, 0.0 ], [ 110.181329557667269, 25.216734640284702, 0.0 ], [ 110.181328118286388, 25.216635757823784, 0.0 ], [ 110.181326678895729, 25.216536875361712, 0.0 ], [ 110.181321050447238, 25.216438173191545, 0.0 ], [ 110.181312221459137, 25.21633960875532, 0.0 ], [ 110.181303392524811, 25.216241044314497, 0.0 ], [ 110.181294563611274, 25.216142479871543, 0.0 ], [ 110.181281167628214, 25.216044770053895, 0.0 ], [ 110.181246514426391, 25.215951038009479, 0.0 ], [ 110.181211861220646, 25.215857305973916, 0.0 ], [ 110.181177208023698, 25.215763573943356, 0.0 ], [ 110.181142554986664, 25.215669841871598, 0.0 ], [ 110.181110240080173, 25.215575430145321, 0.0 ], [ 110.181078724961893, 25.215480785945982, 0.0 ], [ 110.181044433104759, 25.215386983347141, 0.0 ], [ 110.181005709205166, 25.215294645591435, 0.0 ], [ 110.180958840213037, 25.215205418071278, 0.0 ], [ 110.180894797140652, 25.215125686317197, 0.0 ], [ 110.18082341107521, 25.215051292041327, 0.0 ], [ 110.180748717691003, 25.214979442289856, 0.0 ], [ 110.180674024394463, 25.214907592502136, 0.0 ], [ 110.180587743499146, 25.214847791055394, 0.0 ], [ 110.180497358491962, 25.214792901773929, 0.0 ], [ 110.180405946820287, 25.214739383411057, 0.0 ], [ 110.180314535229769, 25.214685864993278, 0.0 ], [ 110.180220732930579, 25.214636125141954, 0.0 ], [ 110.180125094419083, 25.214589223390043, 0.0 ], [ 110.180031971495623, 25.214538205195996, 0.0 ], [ 110.1799388484677, 25.214487187221899, 0.0 ], [ 110.179845725583689, 25.214436169092085, 0.0 ], [ 110.179752602913169, 25.214385150702068, 0.0 ], [ 110.179659480321391, 25.214334132254987, 0.0 ], [ 110.17956635770139, 25.214283113912437, 0.0 ], [ 110.179467445982041, 25.214242167059652, 0.0 ], [ 110.179368256353726, 25.214201703772741, 0.0 ], [ 110.179269066919815, 25.21416124016276, 0.0 ], [ 110.179169877635061, 25.214120776321423, 0.0 ], [ 110.17907068814975, 25.214080312957925, 0.0 ], [ 110.178972240552156, 25.214038387174341, 0.0 ], [ 110.178874036454189, 25.213995981472465, 0.0 ], [ 110.178775832172946, 25.213953576191614, 0.0 ] ] ] } },
{ "type": "Feature", "properties": { "OBJECTID": 3 }, "geometry": { "type": "Polygon", "coordinates": [ [ [ 110.182034496219615, 25.219678436014558, 0.0 ], [ 110.182201497161728, 25.219563011925604, 0.0 ], [ 110.182243383767457, 25.219402535367092, 0.0 ], [ 110.182286850152309, 25.219242566210941, 0.0 ], [ 110.182365013209235, 25.21909374099895, 0.0 ], [ 110.182443176248981, 25.218944915815069, 0.0 ], [ 110.18252133905095, 25.218796090563284, 0.0 ], [ 110.182577726831482, 25.218640073977642, 0.0 ], [ 110.182622725118591, 25.218480296041935, 0.0 ], [ 110.182667723708676, 25.218320518185607, 0.0 ], [ 110.182712722341151, 25.218160740347802, 0.0 ], [ 110.182772762921289, 25.218005531139486, 0.0 ], [ 110.182842312936117, 25.21785321016144, 0.0 ], [ 110.182911862926431, 25.217700889201161, 0.0 ], [ 110.182981412677179, 25.217548568177445, 0.0 ], [ 110.183050962186257, 25.217396247089486, 0.0 ], [ 110.183136540458719, 25.217252137938537, 0.0 ], [ 110.183243672569503, 25.217119071281903, 0.0 ], [ 110.183350804541433, 25.21698600460325, 0.0 ], [ 110.183449693040345, 25.216848601295606, 0.0 ], [ 110.183523041397819, 25.216697762145934, 0.0 ], [ 110.183587409751112, 25.216545046679688, 0.0 ], [ 110.183541144925456, 25.215418143630973, 0.0 ], [ 110.183458374853032, 25.215271395234019, 0.0 ], [ 110.183375604643203, 25.215124646947682, 0.0 ], [ 110.183292834623956, 25.214977898619061, 0.0 ], [ 110.183210064927209, 25.214831150186598, 0.0 ], [ 110.183127295523448, 25.214684401663959, 0.0 ], [ 110.183044526381337, 25.214537653065616, 0.0 ], [ 110.182961757128396, 25.214390904565736, 0.0 ], [ 110.182878988222669, 25.214244155950539, 0.0 ], [ 110.182796219333312, 25.214097407374133, 0.0 ], [ 110.182713450987734, 25.213950658590431, 0.0 ], [ 110.182630682470474, 25.213803909933606, 0.0 ], [ 110.182547914539327, 25.213657161049909, 0.0 ], [ 110.182465146521778, 25.213510412253004, 0.0 ], [ 110.182382378626173, 25.213363663445662, 0.0 ], [ 110.182299611032903, 25.213216914544059, 0.0 ], [ 110.182216843774256, 25.21307016553283, 0.0 ], [ 110.18213407681624, 25.212923416427767, 0.0 ], [ 110.182051309686869, 25.212776667449191, 0.0 ], [ 110.181968844534822, 25.212584786922864, 0.0 ], [ 110.181819314596709, 25.212665584271573, 0.0 ], [ 110.181661075724492, 25.212746094923471, 0.0 ], [ 110.181502836832621, 25.212826605700819, 0.0 ], [ 110.181344597695926, 25.212907116237762, 0.0 ], [ 110.181186358330663, 25.212987626560366, 0.0 ], [ 110.181028118728847, 25.213068136655746, 0.0 ], [ 110.180869878952421, 25.21314864662461, 0.0 ], [ 110.180711639062366, 25.213229156566161, 0.0 ], [ 110.180553398778827, 25.213309666025211, 0.0 ], [ 110.180395158576943, 25.213390175774578, 0.0 ], [ 110.180573196362459, 25.213623625742578, 0.0 ], [ 110.180692203489514, 25.213748055009852, 0.0 ], [ 110.180807769342721, 25.213875138254316, 0.0 ], [ 110.18091911426356, 25.214005300257565, 0.0 ], [ 110.181025428267148, 25.214138895292731, 0.0 ], [ 110.181126075250958, 25.214276074189694, 0.0 ], [ 110.18122084773448, 25.214416673314521, 0.0 ], [ 110.181309606656981, 25.214560483969038, 0.0 ], [ 110.181392219746883, 25.214707293827729, 0.0 ], [ 110.181468565696392, 25.214856885221383, 0.0 ], [ 110.181538531487973, 25.21500903687047, 0.0 ], [ 110.181602013281065, 25.215163523784703, 0.0 ], [ 110.18165891697825, 25.215320117427975, 0.0 ], [ 110.181709158007621, 25.215478586174047, 0.0 ], [ 110.181752663576162, 25.215638695174754, 0.0 ], [ 110.181789366580858, 25.215800208112121, 0.0 ], [ 110.181819215732986, 25.215962885422147, 0.0 ], [ 110.181842164770202, 25.216126486762057, 0.0 ], [ 110.181858180769012, 25.216290769930431, 0.0 ], [ 110.181867238996958, 25.216455491920815, 0.0 ], [ 110.181869326624749, 25.216620408937022, 0.0 ], [ 110.181864440675369, 25.216785276975212, 0.0 ], [ 110.181852597681839, 25.216949852794933, 0.0 ], [ 110.181834171775748, 25.217113928904514, 0.0 ], [ 110.181810021446267, 25.217277391371432, 0.0 ], [ 110.181870559547548, 25.218011977696957, 0.0 ], [ 110.181830954094238, 25.218172932757572, 0.0 ], [ 110.181791348136116, 25.218333887721155, 0.0 ], [ 110.181751742079783, 25.218494842670559, 0.0 ], [ 110.181712136283352, 25.218655797678611, 0.0 ], [ 110.181672530006395, 25.218816752594616, 0.0 ], [ 110.181640373422766, 25.218978712203533, 0.0 ], [ 110.181632311912367, 25.219143219986055, 0.0 ], [ 110.181703447013504, 25.219288511965104, 0.0 ], [ 110.181825023854927, 25.219410440151197, 0.0 ], [ 110.181936439199916, 25.219540501330286, 0.0 ], [ 110.182034496219615, 25.219678436014558, 0.0 ] ] ] } },
{ "type": "Feature", "properties": { "OBJECTID": 4 }, "geometry": { "type": "Polygon", "coordinates": [ [ [ 110.174308052540724, 25.217368868333523, 0.0 ], [ 110.174348716848527, 25.218173420641588, 0.0 ], [ 110.174717193976363, 25.218232544158916, 0.0 ], [ 110.174940203899183, 25.218234386827454, 0.0 ], [ 110.175468276027786, 25.218366322341975, 0.0 ], [ 110.175654515579012, 25.218475564628829, 0.0 ], [ 110.175839252815408, 25.218589219779272, 0.0 ], [ 110.176023990402186, 25.218702874701375, 0.0 ], [ 110.176208728340299, 25.21881652939393, 0.0 ], [ 110.17639346662564, 25.218930183862515, 0.0 ], [ 110.17657820517887, 25.219043838213683, 0.0 ], [ 110.176762944068187, 25.219157492355709, 0.0 ], [ 110.176947683309848, 25.219271146266923, 0.0 ], [ 110.177132422909636, 25.219384799939338, 0.0 ], [ 110.177256637172505, 25.219533516913199, 0.0 ], [ 110.177292079588042, 25.21973381518891, 0.0 ], [ 110.177327522180477, 25.219934113443333, 0.0 ], [ 110.177415186136841, 25.220110812598495, 0.0 ], [ 110.177575920791767, 25.220235549601458, 0.0 ], [ 110.177792598341711, 25.220187606888718, 0.0 ], [ 110.178011805411472, 25.220150376805915, 0.0 ], [ 110.178232909510243, 25.220124016579028, 0.0 ], [ 110.178455103367099, 25.220106596841436, 0.0 ], [ 110.178677384738208, 25.220090069042659, 0.0 ], [ 110.178899666164781, 25.220073542081213, 0.0 ], [ 110.179121947844351, 25.220057018155437, 0.0 ], [ 110.179344229473898, 25.220040493893809, 0.0 ], [ 110.179566511071897, 25.220023969501032, 0.0 ], [ 110.179788792625502, 25.220007444835009, 0.0 ], [ 110.180011074129212, 25.219990919833151, 0.0 ], [ 110.180233355573691, 25.219974394393738, 0.0 ], [ 110.180455636959195, 25.2199578685169, 0.0 ], [ 110.180677112062483, 25.219939910049629, 0.0 ], [ 110.18082178138512, 25.219785507850521, 0.0 ], [ 110.180866971537782, 25.219595815459087, 0.0 ], [ 110.180868572678108, 25.219400420733535, 0.0 ], [ 110.180647533661372, 25.219379701541015, 0.0 ], [ 110.18044150550584, 25.219439188105433, 0.0 ], [ 110.180233702281541, 25.219511092171899, 0.0 ], [ 110.180022763827139, 25.219576964429702, 0.0 ], [ 110.179807859668301, 25.219630913498207, 0.0 ], [ 110.179592157285484, 25.219682462788121, 0.0 ], [ 110.179372980181469, 25.219704702116051, 0.0 ], [ 110.179150831711112, 25.219693980589678, 0.0 ], [ 110.178953137208509, 25.219605899933732, 0.0 ], [ 110.17881973194612, 25.219449172322317, 0.0 ], [ 110.178728997062933, 25.219265396752888, 0.0 ], [ 110.178661824153849, 25.219071941267245, 0.0 ], [ 110.178496648038518, 25.21895677746657, 0.0 ], [ 110.178311993107897, 25.218843010750298, 0.0 ], [ 110.178127338717232, 25.218729243551607, 0.0 ], [ 110.177942684723646, 25.218615476062233, 0.0 ], [ 110.177758031084792, 25.218501708339144, 0.0 ], [ 110.177573377801892, 25.218387940380758, 0.0 ], [ 110.177388724859313, 25.21827417220797, 0.0 ], [ 110.177204072255108, 25.218160403823525, 0.0 ], [ 110.177019419999795, 25.218046635213071, 0.0 ], [ 110.176834768106104, 25.217932866359657, 0.0 ], [ 110.176650116555962, 25.217819097287741, 0.0 ], [ 110.176465465306194, 25.217705328055018, 0.0 ], [ 110.176280814414255, 25.217591558584541, 0.0 ], [ 110.176096164120025, 25.217477788553847, 0.0 ], [ 110.175911514082614, 25.217364018421037, 0.0 ], [ 110.175726864217566, 25.217250248299518, 0.0 ], [ 110.175667580140342, 25.2170764251231, 0.0 ], [ 110.175668939490151, 25.21687355237793, 0.0 ], [ 110.175670298825111, 25.216670679627128, 0.0 ], [ 110.175671658145276, 25.216467806870682, 0.0 ], [ 110.175673018266423, 25.216264934113138, 0.0 ], [ 110.175674378409767, 25.216062061350151, 0.0 ], [ 110.175675738538459, 25.215859188581536, 0.0 ], [ 110.175677098652216, 25.215656315807276, 0.0 ], [ 110.175678458681915, 25.215453443027013, 0.0 ], [ 110.175679818677153, 25.215250570241, 0.0 ], [ 110.175498911416042, 25.215328430975891, 0.0 ], [ 110.175304265520111, 25.215427451654598, 0.0 ], [ 110.175109619329788, 25.215526472092503, 0.0 ], [ 110.174914972836518, 25.215625492275958, 0.0 ], [ 110.174720150707643, 25.215724225855006, 0.0 ], [ 110.174523973673473, 25.215820707124568, 0.0 ], [ 110.174325008133522, 25.215912327005242, 0.0 ], [ 110.174166396866426, 25.216023106964769, 0.0 ], [ 110.174165034373701, 25.216225979652471, 0.0 ], [ 110.174163671886632, 25.216428852334651, 0.0 ], [ 110.174162309482568, 25.216631725011755, 0.0 ], [ 110.17416094705311, 25.216834597683143, 0.0 ], [ 110.174159584506668, 25.21703747034833, 0.0 ], [ 110.174158221992286, 25.21724034300815, 0.0 ], [ 110.174308052540724, 25.217368868333523, 0.0 ] ] ] } },
{ "type": "Feature", "properties": { "OBJECTID": 5 }, "geometry": { "type": "Polygon", "coordinates": [ [ [ 110.181432979711033, 25.219120296967372, 0.0 ], [ 110.181379870104109, 25.21920328026593, 0.0 ], [ 110.181568738088444, 25.219438770164135, 0.0 ], [ 110.181692274639474, 25.219597017065109, 0.0 ], [ 110.181828501814365, 25.219746090728659, 0.0 ], [ 110.181965405722252, 25.219893867439765, 0.0 ], [ 110.182019805788428, 25.21986058967407, 0.0 ], [ 110.181793373530056, 25.219591236895628, 0.0 ], [ 110.181658756046872, 25.219440764018763, 0.0 ], [ 110.181524291749653, 25.219290066597225, 0.0 ], [ 110.181432979711033, 25.219120296967372, 0.0 ] ] ] } },
{ "type": "Feature", "properties": { "OBJECTID": 6 }, "geometry": { "type": "Polygon", "coordinates": [ [ [ 110.185067706189727, 25.226485877459535, 0.0 ], [ 110.184807253427209, 25.225783147296312, 0.0 ], [ 110.184668796558057, 25.225411898585413, 0.0 ], [ 110.184529359174164, 25.225040953607021, 0.0 ], [ 110.184391748324202, 25.224669445740531, 0.0 ], [ 110.184258755242197, 25.224296548091576, 0.0 ], [ 110.184118821099347, 25.223925769360481, 0.0 ], [ 110.183977604711359, 25.223555382163333, 0.0 ], [ 110.183836724907138, 25.223184889193746, 0.0 ], [ 110.183696402284198, 25.22281422136966, 0.0 ], [ 110.183567559126544, 25.222440526867196, 0.0 ], [ 110.18348691608206, 25.222055712010302, 0.0 ], [ 110.183408845563577, 25.221670167921289, 0.0 ], [ 110.183313822447516, 25.221296590973278, 0.0 ], [ 110.183052222038143, 25.22098524841148, 0.0 ], [ 110.18255256800434, 25.220329185995514, 0.0 ], [ 110.182481961216126, 25.220544873956992, 0.0 ], [ 110.18274138288686, 25.220850510310193, 0.0 ], [ 110.182965359843749, 25.221155662167032, 0.0 ], [ 110.183160215244172, 25.221497352537256, 0.0 ], [ 110.183252865407098, 25.221880174521079, 0.0 ], [ 110.183333069953264, 25.2222653270038, 0.0 ], [ 110.183425454434982, 25.222647158676111, 0.0 ], [ 110.183563090870706, 25.223018655358139, 0.0 ], [ 110.183698099798761, 25.223390949478212, 0.0 ], [ 110.183828982114647, 25.223764464283015, 0.0 ], [ 110.183963779943227, 25.224136821749926, 0.0 ], [ 110.184104458764025, 25.224507346132977, 0.0 ], [ 110.184250126048795, 25.224876304621297, 0.0 ], [ 110.184392112228267, 25.225246399855536, 0.0 ], [ 110.184523462470253, 25.225619779266669, 0.0 ], [ 110.184659196801789, 25.225991859026873, 0.0 ], [ 110.18485298612562, 25.226589918398098, 0.0 ], [ 110.185067706189727, 25.226485877459535, 0.0 ] ] ] } },
{ "type": "Feature", "properties": { "OBJECTID": 7 }, "geometry": { "type": "Polygon", "coordinates": [ [ [ 110.181175414701485, 25.224320288845153, 0.0 ], [ 110.181073122947069, 25.223788285603501, 0.0 ], [ 110.180356133436462, 25.223892313568022, 0.0 ], [ 110.180430360531091, 25.224399442473342, 0.0 ], [ 110.181175414701485, 25.224320288845153, 0.0 ] ] ] } },
{ "type": "Feature", "properties": { "OBJECTID": 8 }, "geometry": { "type": "Polygon", "coordinates": [ [ [ 110.180394236579076, 25.227312229094682, 0.0 ], [ 110.18012189358285, 25.227429490356624, 0.0 ], [ 110.179849550154074, 25.227546751251381, 0.0 ], [ 110.179652985464571, 25.227605663765321, 0.0 ], [ 110.179870639909495, 25.227984274318359, 0.0 ], [ 110.17998991057722, 25.228235966027054, 0.0 ], [ 110.180227662760871, 25.228184585923191, 0.0 ], [ 110.180493175404081, 25.22805500754308, 0.0 ], [ 110.180608099923845, 25.227824705366508, 0.0 ], [ 110.180501168201658, 25.227568467210276, 0.0 ], [ 110.180394236579076, 25.227312229094682, 0.0 ] ] ] } },
{ "type": "Feature", "properties": { "OBJECTID": 9 }, "geometry": { "type": "Polygon", "coordinates": [ [ [ 110.177916231158591, 25.226093049823831, 0.0 ], [ 110.177837081797406, 25.225905973480643, 0.0 ], [ 110.177757932764678, 25.225718897063686, 0.0 ], [ 110.177564877570973, 25.225772887966251, 0.0 ], [ 110.177378456479062, 25.225879780093631, 0.0 ], [ 110.177192267881438, 25.225987002972865, 0.0 ], [ 110.177009879936222, 25.226099472731857, 0.0 ], [ 110.176833313651883, 25.226219386479347, 0.0 ], [ 110.17666293473205, 25.226346494235099, 0.0 ], [ 110.176499149707269, 25.226480583203543, 0.0 ], [ 110.176342152248282, 25.226621230284884, 0.0 ], [ 110.176252489385107, 25.226802140941814, 0.0 ], [ 110.176255251868469, 25.226994274758194, 0.0 ], [ 110.176322469132714, 25.227185167729768, 0.0 ], [ 110.176387840772762, 25.227376596866733, 0.0 ], [ 110.177293919382308, 25.226881971325895, 0.0 ], [ 110.177181388703943, 25.226535881475186, 0.0 ], [ 110.177365099762554, 25.226425173853769, 0.0 ], [ 110.177548810665186, 25.226314466231209, 0.0 ], [ 110.17773252107375, 25.22620375814321, 0.0 ], [ 110.177916231158591, 25.226093049823831, 0.0 ] ] ] } },
{ "type": "Feature", "properties": { "OBJECTID": 10 }, "geometry": { "type": "Polygon", "coordinates": [ [ [ 110.183678947205294, 25.234188741155091, 0.0 ], [ 110.183619553650942, 25.23408806070254, 0.0 ], [ 110.183560160192513, 25.233987380227251, 0.0 ], [ 110.183500766830292, 25.23388669972913, 0.0 ], [ 110.183441373564065, 25.233786019208253, 0.0 ], [ 110.183381980394046, 25.233685338664511, 0.0 ], [ 110.183322587766753, 25.233584657879994, 0.0 ], [ 110.183263194780409, 25.233483977294799, 0.0 ], [ 110.183203801876388, 25.233383296693514, 0.0 ], [ 110.183118390042566, 25.233337825559587, 0.0 ], [ 110.183006793083777, 25.233390254783327, 0.0 ], [ 110.18289524414601, 25.233442795782491, 0.0 ], [ 110.182783695235599, 25.233495336907851, 0.0 ], [ 110.182744397482779, 25.233572979437106, 0.0 ], [ 110.18280162959222, 25.233674690172837, 0.0 ], [ 110.182858861689951, 25.233776400936296, 0.0 ], [ 110.182916093961282, 25.233878111641204, 0.0 ], [ 110.182973326276951, 25.233979822347806, 0.0 ], [ 110.183030559078958, 25.234081532850276, 0.0 ], [ 110.183087791525509, 25.234183243540524, 0.0 ], [ 110.183145024170457, 25.23428495416066, 0.0 ], [ 110.183208369048018, 25.234389538727893, 0.0 ], [ 110.183678947205294, 25.234188741155091, 0.0 ] ] ] } },
{ "type": "Feature", "properties": { "OBJECTID": 11 }, "geometry": { "type": "Polygon", "coordinates": [ [ [ 110.175993632156178, 25.236690488090066, 0.0 ], [ 110.175917119540145, 25.236298532400578, 0.0 ], [ 110.175878988570105, 25.235916489588412, 0.0 ], [ 110.175840857334663, 25.23553444679148, 0.0 ], [ 110.175802726785264, 25.235152403931231, 0.0 ], [ 110.175764596429602, 25.234770361048319, 0.0 ], [ 110.17572646599578, 25.234388318165184, 0.0 ], [ 110.175688288035232, 25.234006280316372, 0.0 ], [ 110.175662758971029, 25.233651095032123, 0.0 ], [ 110.17510083704758, 25.233600911138936, 0.0 ], [ 110.17467966578954, 25.233589206832086, 0.0 ], [ 110.174262412263047, 25.23364264802542, 0.0 ], [ 110.173861139360056, 25.233759558630194, 0.0 ], [ 110.173577214921863, 25.234020274715903, 0.0 ], [ 110.173615338058781, 25.234402318039599, 0.0 ], [ 110.17365346117991, 25.23478436135791, 0.0 ], [ 110.173691585023022, 25.235166404609963, 0.0 ], [ 110.17372970855925, 25.235548447880671, 0.0 ], [ 110.173767832795505, 25.235930491086933, 0.0 ], [ 110.173805956746335, 25.236312534310091, 0.0 ], [ 110.1738440813767, 25.236694577470473, 0.0 ], [ 110.175993632156178, 25.236690488090066, 0.0 ] ] ] } },
{ "type": "Feature", "properties": { "OBJECTID": 12 }, "geometry": { "type": "Polygon", "coordinates": [ [ [ 110.189699979550952, 25.238181599421004, 0.0 ], [ 110.189488881172807, 25.238204393834753, 0.0 ], [ 110.189470189191013, 25.238466334785304, 0.0 ], [ 110.189562130769346, 25.238708490902873, 0.0 ], [ 110.189688469235406, 25.238944495582253, 0.0 ], [ 110.189868406021333, 25.239043017902169, 0.0 ], [ 110.190129986646909, 25.238932117130613, 0.0 ], [ 110.190031608666828, 25.238710078844818, 0.0 ], [ 110.189848973764327, 25.238537887413354, 0.0 ], [ 110.189774149337779, 25.238355554197096, 0.0 ], [ 110.189699979550952, 25.238181599421004, 0.0 ] ] ] } },
{ "type": "Feature", "properties": { "OBJECTID": 13 }, "geometry": { "type": "Polygon", "coordinates": [ [ [ 110.182779165082792, 25.238674532102745, 0.0 ], [ 110.18221587067336, 25.238868678056214, 0.0 ], [ 110.18198421266041, 25.239073950250212, 0.0 ], [ 110.182077889612216, 25.23941549042042, 0.0 ], [ 110.182171567315876, 25.239757030470788, 0.0 ], [ 110.182421489367755, 25.239830979577871, 0.0 ], [ 110.182774506243021, 25.239686690136796, 0.0 ], [ 110.183127522183938, 25.239542399583481, 0.0 ], [ 110.183023505568841, 25.239244632003558, 0.0 ], [ 110.182779165082792, 25.238674532102745, 0.0 ] ] ] } },
{ "type": "Feature", "properties": { "OBJECTID": 14 }, "geometry": { "type": "Polygon", "coordinates": [ [ [ 110.179356438632496, 25.240979642990009, 0.0 ], [ 110.179444973336473, 25.240431079023104, 0.0 ], [ 110.179312192211796, 25.240220607923259, 0.0 ], [ 110.178982492680532, 25.240247835961657, 0.0 ], [ 110.178652793027396, 25.240275063289566, 0.0 ], [ 110.178478097798973, 25.240426438467892, 0.0 ], [ 110.17850803327957, 25.240726305354581, 0.0 ], [ 110.17853805287595, 25.241026091561956, 0.0 ], [ 110.178867948135306, 25.241005988903805, 0.0 ], [ 110.179356438632496, 25.240979642990009, 0.0 ] ] ] } },
{ "type": "Feature", "properties": { "OBJECTID": 15 }, "geometry": { "type": "Polygon", "coordinates": [ [ [ 110.167318713096179, 25.203086121703198, 0.0 ], [ 110.167137923965242, 25.202822366122589, 0.0 ], [ 110.166957135684214, 25.202558610285113, 0.0 ], [ 110.16677634826604, 25.202294854183695, 0.0 ], [ 110.166595561313684, 25.202031098044074, 0.0 ], [ 110.166414775264201, 25.201767341617291, 0.0 ], [ 110.166233990306438, 25.201503584796583, 0.0 ], [ 110.165720666202205, 25.200621927355794, 0.0 ], [ 110.165487003965836, 25.200478124593712, 0.0 ], [ 110.165266274496219, 25.200240867113997, 0.0 ], [ 110.16512845054325, 25.200025948539931, 0.0 ], [ 110.164845318583446, 25.19985210522745, 0.0 ], [ 110.164549090539936, 25.199697377392571, 0.0 ], [ 110.164241449021233, 25.199562322462203, 0.0 ], [ 110.163919833092919, 25.199469975546435, 0.0 ], [ 110.163578369002806, 25.199471150271872, 0.0 ], [ 110.163237740637953, 25.199495146760345, 0.0 ], [ 110.162897112370075, 25.199519144881531, 0.0 ], [ 110.162565824807174, 25.199582652858805, 0.0 ], [ 110.162263549253169, 25.199727032231355, 0.0 ], [ 110.161951859413833, 25.199854320360664, 0.0 ], [ 110.161640464670441, 25.199982205424973, 0.0 ], [ 110.161315756044687, 25.20007776370807, 0.0 ], [ 110.160984640264729, 25.200153300096794, 0.0 ], [ 110.160645948272204, 25.200191227903719, 0.0 ], [ 110.160306195372542, 25.200163790055552, 0.0 ], [ 110.159979330230072, 25.200080859089162, 0.0 ], [ 110.159672803404987, 25.19994741476771, 0.0 ], [ 110.159375222718353, 25.199794714928895, 0.0 ], [ 110.159094342907707, 25.199619311493208, 0.0 ], [ 110.15885158676646, 25.199400896497039, 0.0 ], [ 110.158608154888867, 25.199183021085233, 0.0 ], [ 110.158361559425629, 25.198967982789121, 0.0 ], [ 110.158121495997506, 25.198746815122679, 0.0 ], [ 110.15786891413498, 25.198537593388348, 0.0 ], [ 110.157617835732381, 25.198327597607513, 0.0 ], [ 110.15736377979033, 25.198120262390397, 0.0 ], [ 110.15711955010056, 25.197902947857528, 0.0 ], [ 110.156938251723588, 25.197643824506908, 0.0 ], [ 110.15679450783739, 25.197361837810153, 0.0 ], [ 110.156650395171212, 25.197080007245241, 0.0 ], [ 110.156535318767652, 25.196787510842242, 0.0 ], [ 110.156430220779114, 25.196491756111769, 0.0 ], [ 110.15628255940338, 25.196212319728847, 0.0 ], [ 110.156066162438691, 25.195972552759919, 0.0 ], [ 110.155986924288428, 25.196051520644669, 0.0 ], [ 110.156210893186085, 25.19628623037551, 0.0 ], [ 110.156361225107645, 25.196564888819388, 0.0 ], [ 110.156494089336761, 25.196851142289191, 0.0 ], [ 110.156620530496156, 25.197139493748708, 0.0 ], [ 110.156761032154392, 25.197422171643442, 0.0 ], [ 110.156918036039158, 25.197698023751482, 0.0 ], [ 110.157099645235121, 25.197957367772528, 0.0 ], [ 110.157340064959044, 25.198177985472523, 0.0 ], [ 110.157585412419351, 25.198394107099251, 0.0 ], [ 110.157840690030383, 25.198600367288215, 0.0 ], [ 110.158093240608522, 25.198809683370918, 0.0 ], [ 110.158337519918959, 25.19902693146134, 0.0 ], [ 110.158586188679109, 25.199240039010935, 0.0 ], [ 110.158830901067958, 25.199456822606606, 0.0 ], [ 110.159077889475725, 25.199671300704054, 0.0 ], [ 110.159352954189444, 25.199853858292752, 0.0 ], [ 110.159650672855449, 25.200006326743644, 0.0 ], [ 110.159950713994689, 25.200154712107171, 0.0 ], [ 110.160273218641478, 25.200245149493796, 0.0 ], [ 110.160612317799135, 25.200275238452178, 0.0 ], [ 110.160953410569249, 25.200257493411602, 0.0 ], [ 110.161286405403942, 25.200194748571501, 0.0 ], [ 110.161604882440116, 25.200083225550852, 0.0 ], [ 110.161920355597147, 25.199963900539075, 0.0 ], [ 110.162235511464331, 25.199843933030301, 0.0 ], [ 110.162543156545624, 25.199708744694121, 0.0 ], [ 110.162867596383478, 25.199629718172471, 0.0 ], [ 110.163208236918067, 25.19960601921894, 0.0 ], [ 110.163549252354713, 25.199587108802191, 0.0 ], [ 110.16389031724546, 25.199593435303225, 0.0 ], [ 110.164226806530323, 25.199641311450179, 0.0 ], [ 110.16453329038255, 25.199770637356849, 0.0 ], [ 110.16480792369515, 25.199951510061702, 0.0 ], [ 110.165038017382599, 25.200180524440928, 0.0 ], [ 110.165238367781072, 25.200432305089258, 0.0 ], [ 110.165455489515509, 25.200671688649059, 0.0 ], [ 110.166053250680889, 25.201385331901545, 0.0 ], [ 110.166236160350749, 25.201647873253425, 0.0 ], [ 110.166415330680479, 25.201912469246356, 0.0 ], [ 110.166587362588231, 25.202181022512232, 0.0 ], [ 110.166761123430163, 25.202448658915973, 0.0 ], [ 110.166937105077977, 25.202715082472242, 0.0 ], [ 110.167124183780146, 25.202975019478316, 0.0 ], [ 110.167217904389531, 25.203230027775902, 0.0 ], [ 110.167393882168099, 25.203496463509104, 0.0 ], [ 110.167569860996011, 25.203762898879017, 0.0 ], [ 110.167804858892538, 25.203861475394927, 0.0 ], [ 110.16767991938427, 25.203613844432727, 0.0 ], [ 110.167499315837134, 25.203349983183667, 0.0 ], [ 110.167318713096179, 25.203086121703198, 0.0 ] ] ] } },
{ "type": "Feature", "properties": { "OBJECTID": 16 }, "geometry": { "type": "Polygon", "coordinates": [ [ [ 110.153931775430578, 25.194105228577222, 0.0 ], [ 110.154001050897449, 25.194027293038094, 0.0 ], [ 110.153809454692009, 25.193893270195556, 0.0 ], [ 110.153686554657597, 25.193796344054505, 0.0 ], [ 110.153550468112158, 25.193715327135397, 0.0 ], [ 110.153403512584063, 25.193651829021814, 0.0 ], [ 110.153264061121462, 25.193575543879923, 0.0 ], [ 110.153124599733431, 25.193499274014336, 0.0 ], [ 110.15299365708529, 25.193412494896613, 0.0 ], [ 110.15268360373264, 25.19306993328993, 0.0 ], [ 110.152551418618941, 25.192983875773532, 0.0 ], [ 110.152413787320597, 25.192904931547364, 0.0 ], [ 110.152264165477746, 25.192846844599664, 0.0 ], [ 110.152114280318543, 25.192789225271014, 0.0 ], [ 110.151960434121293, 25.19274107261819, 0.0 ], [ 110.151806078859096, 25.192694231827701, 0.0 ], [ 110.151647101755174, 25.192662951726064, 0.0 ], [ 110.151489321848331, 25.192626837222104, 0.0 ], [ 110.151336303494446, 25.192576772570501, 0.0 ], [ 110.151190249100168, 25.192512644592998, 0.0 ], [ 110.151054272746165, 25.192431390098665, 0.0 ], [ 110.150923757991436, 25.192342996723038, 0.0 ], [ 110.150664344794606, 25.192178296859655, 0.0 ], [ 110.150592768593455, 25.192340596222515, 0.0 ], [ 110.150888673189755, 25.1924875470499, 0.0 ], [ 110.151016877740417, 25.192578679562626, 0.0 ], [ 110.151154330923148, 25.192657620229447, 0.0 ], [ 110.151304400129604, 25.192713814382586, 0.0 ], [ 110.151457592203869, 25.19276368910813, 0.0 ], [ 110.151612849786389, 25.192807386478485, 0.0 ], [ 110.151771096002363, 25.192841790361072, 0.0 ], [ 110.15192640265154, 25.192885372188055, 0.0 ], [ 110.152077825114191, 25.192939562061394, 0.0 ], [ 110.152229330387883, 25.192993560055708, 0.0 ], [ 110.152378828633459, 25.193051809009656, 0.0 ], [ 110.152525356011395, 25.193115994058758, 0.0 ], [ 110.152640047941901, 25.193219890818234, 0.0 ], [ 110.152989520713618, 25.193528568958442, 0.0 ], [ 110.153130546732783, 25.193602290836125, 0.0 ], [ 110.153273447269143, 25.193673094839973, 0.0 ], [ 110.1534140357832, 25.193747628994998, 0.0 ], [ 110.153548004147439, 25.193831604417063, 0.0 ], [ 110.153681594833088, 25.193915947450158, 0.0 ], [ 110.153807530257424, 25.194009678883742, 0.0 ], [ 110.153931775430578, 25.194105228577222, 0.0 ] ] ] } },
{ "type": "Feature", "properties": { "OBJECTID": 17 }, "geometry": { "type": "Polygon", "coordinates": [ [ [ 110.13323462785857, 25.196727033526166, 0.0 ], [ 110.13274609565174, 25.196619581455753, 0.0 ], [ 110.132634015692091, 25.19686145613111, 0.0 ], [ 110.13252193490392, 25.197103330558651, 0.0 ], [ 110.132409853835014, 25.197345204948842, 0.0 ], [ 110.132754488271289, 25.197557225665904, 0.0 ], [ 110.132868009067224, 25.197425679338693, 0.0 ], [ 110.133010469096163, 25.197210783522191, 0.0 ], [ 110.133122548723918, 25.1969689085836, 0.0 ], [ 110.13323462785857, 25.196727033526166, 0.0 ] ] ] } },
{ "type": "Feature", "properties": { "OBJECTID": 18 }, "geometry": { "type": "Polygon", "coordinates": [ [ [ 110.145628784558397, 25.200976690805099, 0.0 ], [ 110.145447399526617, 25.20086386242297, 0.0 ], [ 110.145368691559412, 25.201003524409767, 0.0 ], [ 110.145327364713339, 25.201146156152767, 0.0 ], [ 110.145869620388027, 25.201497388824812, 0.0 ], [ 110.14602161483738, 25.201353024809922, 0.0 ], [ 110.145628784558397, 25.200976690805099, 0.0 ] ] ] } },
{ "type": "Feature", "properties": { "OBJECTID": 19 }, "geometry": { "type": "Polygon", "coordinates": [ [ [ 110.143698183435049, 25.201808949030855, 0.0 ], [ 110.143601752679061, 25.201738209953621, 0.0 ], [ 110.143505321823937, 25.201667471054289, 0.0 ], [ 110.143427001809769, 25.201751039787716, 0.0 ], [ 110.143349162683023, 25.201838708975608, 0.0 ], [ 110.143271491420037, 25.201926361901382, 0.0 ], [ 110.143367847665672, 25.201997185124309, 0.0 ], [ 110.143464203933135, 25.202068008388416, 0.0 ], [ 110.143542504656835, 25.201984287128287, 0.0 ], [ 110.143620344109507, 25.2018966181076, 0.0 ], [ 110.143698183435049, 25.201808949030855, 0.0 ] ] ] } },
{ "type": "Feature", "properties": { "OBJECTID": 20 }, "geometry": { "type": "Polygon", "coordinates": [ [ [ 110.147453331282165, 25.216499858797803, 0.0 ], [ 110.14733837398245, 25.216369311976109, 0.0 ], [ 110.147209239693936, 25.216371721395124, 0.0 ], [ 110.147068844530509, 25.216479735483485, 0.0 ], [ 110.146999420960341, 25.216592414714917, 0.0 ], [ 110.146859410401078, 25.21670084139971, 0.0 ], [ 110.146900400219991, 25.216826165812112, 0.0 ], [ 110.14702955458506, 25.216821094036519, 0.0 ], [ 110.14717081377016, 25.216714015810535, 0.0 ], [ 110.147312072751632, 25.216606937487509, 0.0 ], [ 110.147453331282165, 25.216499858797803, 0.0 ] ] ] } },
{ "type": "Feature", "properties": { "OBJECTID": 21 }, "geometry": { "type": "Polygon", "coordinates": [ [ [ 110.15434779738257, 25.219524269334428, 0.0 ], [ 110.153795984525743, 25.21851063945547, 0.0 ], [ 110.153453425545109, 25.218138083535759, 0.0 ], [ 110.153138006983298, 25.218589694577975, 0.0 ], [ 110.153116345681582, 25.219147155925402, 0.0 ], [ 110.153420550534207, 25.219622520666817, 0.0 ], [ 110.153975487360967, 25.219903999016289, 0.0 ], [ 110.154525408179111, 25.220206800997222, 0.0 ], [ 110.154650267815285, 25.220033832294831, 0.0 ], [ 110.15434779738257, 25.219524269334428, 0.0 ] ] ] } },
{ "type": "Feature", "properties": { "OBJECTID": 22 }, "geometry": { "type": "Polygon", "coordinates": [ [ [ 110.158859728107075, 25.210851129699567, 0.0 ], [ 110.158009280846386, 25.210430486644885, 0.0 ], [ 110.157657089527476, 25.210787880230431, 0.0 ], [ 110.158491535977248, 25.211252538262787, 0.0 ], [ 110.158758804668608, 25.211122620378752, 0.0 ], [ 110.158859728107075, 25.210851129699567, 0.0 ] ] ] } },
{ "type": "Feature", "properties": { "OBJECTID": 23 }, "geometry": { "type": "Polygon", "coordinates": [ [ [ 110.153770505967842, 25.232253068166472, 0.0 ], [ 110.154141206010607, 25.232168920131745, 0.0 ], [ 110.154164851972837, 25.231915977147874, 0.0 ], [ 110.154159368948299, 25.231653977304916, 0.0 ], [ 110.154134802471134, 25.231322535554046, 0.0 ], [ 110.153846037359813, 25.231309518419643, 0.0 ], [ 110.153727992051714, 25.23146787797209, 0.0 ], [ 110.15374216345036, 25.231729608039732, 0.0 ], [ 110.153756334673758, 25.231991338108202, 0.0 ], [ 110.153770505967842, 25.232253068166472, 0.0 ] ] ] } },
{ "type": "Feature", "properties": { "OBJECTID": 24 }, "geometry": { "type": "Polygon", "coordinates": [ [ [ 110.148156082580869, 25.240746162798693, 0.0 ], [ 110.146557654889122, 25.239353170859964, 0.0 ], [ 110.14586676908138, 25.239599263530039, 0.0 ], [ 110.145736385743177, 25.240207326704436, 0.0 ], [ 110.147334815385221, 25.241600326728431, 0.0 ], [ 110.148033480109376, 25.241399725691199, 0.0 ], [ 110.148156082580869, 25.240746162798693, 0.0 ] ] ] } },
{ "type": "Feature", "properties": { "OBJECTID": 25 }, "geometry": { "type": "Polygon", "coordinates": [ [ [ 110.150974352376466, 25.245047876131594, 0.0 ], [ 110.150343075977915, 25.244497782016882, 0.0 ], [ 110.149399492530122, 25.2452237932693, 0.0 ], [ 110.150030767650136, 25.245773891874325, 0.0 ], [ 110.150974352376466, 25.245047876131594, 0.0 ] ] ] } },
{ "type": "Feature", "properties": { "OBJECTID": 26 }, "geometry": { "type": "Polygon", "coordinates": [ [ [ 110.152403297770036, 25.246851201838837, 0.0 ], [ 110.15190761626809, 25.247278073837919, 0.0 ], [ 110.152282181852954, 25.247728076716907, 0.0 ], [ 110.153278052828995, 25.24699079147198, 0.0 ], [ 110.153222423628918, 25.246517429678555, 0.0 ], [ 110.152159836053883, 25.245778510938891, 0.0 ], [ 110.151607052421028, 25.245995475775171, 0.0 ], [ 110.152403297770036, 25.246851201838837, 0.0 ] ] ] } },
{ "type": "Feature", "properties": { "OBJECTID": 27 }, "geometry": { "type": "Polygon", "coordinates": [ [ [ 110.159375775383253, 25.246757795669925, 0.0 ], [ 110.1599241327865, 25.246169052217034, 0.0 ], [ 110.159482262947606, 25.245669832034544, 0.0 ], [ 110.159200372008556, 25.245691693452844, 0.0 ], [ 110.158617150088503, 25.246140240674691, 0.0 ], [ 110.159065530152176, 25.246690742273991, 0.0 ], [ 110.159375775383253, 25.246757795669925, 0.0 ] ] ] } },
{ "type": "Feature", "properties": { "OBJECTID": 28 }, "geometry": { "type": "Polygon", "coordinates": [ [ [ 110.134571482625987, 25.252680737439839, 0.0 ], [ 110.135157594554641, 25.25206495933535, 0.0 ], [ 110.135778360379106, 25.25147588209024, 0.0 ], [ 110.136399120171447, 25.25088680199924, 0.0 ], [ 110.13599690176865, 25.250232836837139, 0.0 ], [ 110.135337480734549, 25.249888541847458, 0.0 ], [ 110.134716720895895, 25.250477617294109, 0.0 ], [ 110.134095955267611, 25.251066690104846, 0.0 ], [ 110.1334751835888, 25.251655760053122, 0.0 ], [ 110.133937433495674, 25.252312420765946, 0.0 ], [ 110.134571482625987, 25.252680737439839, 0.0 ] ] ] } },
{ "type": "Feature", "properties": { "OBJECTID": 29 }, "geometry": { "type": "Polygon", "coordinates": [ [ [ 110.133895459660678, 25.25742782994574, 0.0 ], [ 110.133968458835795, 25.257380351093897, 0.0 ], [ 110.133519959193592, 25.255515074164155, 0.0 ], [ 110.132824731302065, 25.25478091080749, 0.0 ], [ 110.131369510211741, 25.253623726009749, 0.0 ], [ 110.131169703082776, 25.253647752827817, 0.0 ], [ 110.131996682581686, 25.254211548074657, 0.0 ], [ 110.132780131156593, 25.254869388376001, 0.0 ], [ 110.13345154404054, 25.255615598900469, 0.0 ], [ 110.133593096402834, 25.256579108224507, 0.0 ], [ 110.133895459660678, 25.25742782994574, 0.0 ] ] ] } },
{ "type": "Feature", "properties": { "OBJECTID": 30 }, "geometry": { "type": "Polygon", "coordinates": [ [ [ 110.135085841542988, 25.258792047871463, 0.0 ], [ 110.134882786375471, 25.258565117377994, 0.0 ], [ 110.134679731713561, 25.258338186799513, 0.0 ], [ 110.134476678046681, 25.258111255773677, 0.0 ], [ 110.134273625276421, 25.257884324373357, 0.0 ], [ 110.134090881331304, 25.257726224315185, 0.0 ], [ 110.134081059591196, 25.257830067023431, 0.0 ], [ 110.134425835620533, 25.258197447686673, 0.0 ], [ 110.134628889140117, 25.258424378921607, 0.0 ], [ 110.134956244459531, 25.258809354339213, 0.0 ], [ 110.135085841542988, 25.258792047871463, 0.0 ] ] ] } },
{ "type": "Feature", "properties": { "OBJECTID": 31 }, "geometry": { "type": "Polygon", "coordinates": [ [ [ 110.135208243202982, 25.259055217121468, 0.0 ], [ 110.135614617087057, 25.259526002972365, 0.0 ], [ 110.135867677648179, 25.259808812646135, 0.0 ], [ 110.136100809909252, 25.260103487773009, 0.0 ], [ 110.136286385279192, 25.260418510444769, 0.0 ], [ 110.136331200016912, 25.260331499862875, 0.0 ], [ 110.136008754231639, 25.259823461291763, 0.0 ], [ 110.135755693625853, 25.259540651614834, 0.0 ], [ 110.1355026341854, 25.259257841524388, 0.0 ], [ 110.135249575856363, 25.258975031060409, 0.0 ], [ 110.135208243202982, 25.259055217121468, 0.0 ] ] ] } },
{ "type": "Feature", "properties": { "OBJECTID": 32 }, "geometry": { "type": "Polygon", "coordinates": [ [ [ 110.135100977124893, 25.254585860722273, 0.0 ], [ 110.134536458228524, 25.256168091660086, 0.0 ], [ 110.13489213764089, 25.256648669422074, 0.0 ], [ 110.135909971940151, 25.256054744169312, 0.0 ], [ 110.136139735072987, 25.255606544812789, 0.0 ], [ 110.135399050156977, 25.254701988942447, 0.0 ], [ 110.135100977124893, 25.254585860722273, 0.0 ] ] ] } },
{ "type": "Feature", "properties": { "OBJECTID": 33 }, "geometry": { "type": "Polygon", "coordinates": [ [ [ 110.147234367651549, 25.27060312648209, 0.0 ], [ 110.147859405601352, 25.270046334775913, 0.0 ], [ 110.148006927119368, 25.269512770932103, 0.0 ], [ 110.147320131395375, 25.269019794220476, 0.0 ], [ 110.146644150798224, 25.268669367838903, 0.0 ], [ 110.145999015607387, 25.269449468777509, 0.0 ], [ 110.145463397614151, 25.269206480385645, 0.0 ], [ 110.145034358675503, 25.269483423315659, 0.0 ], [ 110.145693452281918, 25.270005588030642, 0.0 ], [ 110.146431277827517, 25.270431881753694, 0.0 ], [ 110.147234367651549, 25.27060312648209, 0.0 ] ] ] } },
{ "type": "Feature", "properties": { "OBJECTID": 34 }, "geometry": { "type": "Polygon", "coordinates": [ [ [ 110.159297588795155, 25.261247927451649, 0.0 ], [ 110.159557395978666, 25.260999716955283, 0.0 ], [ 110.159482193294721, 25.26075831120988, 0.0 ], [ 110.159210459068959, 25.260520897094274, 0.0 ], [ 110.158945790962406, 25.260604670207041, 0.0 ], [ 110.158684714637801, 25.260851776253826, 0.0 ], [ 110.15843138417857, 25.261101636048174, 0.0 ], [ 110.158504060649094, 25.261418306470855, 0.0 ], [ 110.158775795870298, 25.26165572143281, 0.0 ], [ 110.15903778123824, 25.261496138047935, 0.0 ], [ 110.159297588795155, 25.261247927451649, 0.0 ] ] ] } },
{ "type": "Feature", "properties": { "OBJECTID": 35 }, "geometry": { "type": "Polygon", "coordinates": [ [ [ 110.155342761981245, 25.262305912271287, 0.0 ], [ 110.155265633894587, 25.262677010718569, 0.0 ], [ 110.155668404093177, 25.262671278009346, 0.0 ], [ 110.156073094469349, 25.262728734592194, 0.0 ], [ 110.156479995749976, 25.262366190254021, 0.0 ], [ 110.156784432891087, 25.261963774578778, 0.0 ], [ 110.156543556756944, 25.261540329459105, 0.0 ], [ 110.156132528812137, 25.261181658802371, 0.0 ], [ 110.15582640137572, 25.261429979813293, 0.0 ], [ 110.155556167454236, 25.261886008044872, 0.0 ], [ 110.155342761981245, 25.262305912271287, 0.0 ] ] ] } },
{ "type": "Feature", "properties": { "OBJECTID": 36 }, "geometry": { "type": "Polygon", "coordinates": [ [ [ 110.154984119570088, 25.261619431710475, 0.0 ], [ 110.154667568909332, 25.261343198083434, 0.0 ], [ 110.154351019851518, 25.261066963645547, 0.0 ], [ 110.154034472269416, 25.26079072851627, 0.0 ], [ 110.15372391016291, 25.260778695963925, 0.0 ], [ 110.153420143511127, 25.261066549905081, 0.0 ], [ 110.153736689381844, 25.261342787248687, 0.0 ], [ 110.15405323686447, 25.26161902377217, 0.0 ], [ 110.154458661622968, 25.2619882748373, 0.0 ], [ 110.154984119570088, 25.261619431710475, 0.0 ] ] ] } },
{ "type": "Feature", "properties": { "OBJECTID": 37 }, "geometry": { "type": "Polygon", "coordinates": [ [ [ 110.188217301194783, 25.224436978923826, 0.0 ], [ 110.188049753676964, 25.224503024707555, 0.0 ], [ 110.187906836645581, 25.224605242117903, 0.0 ], [ 110.187895092231628, 25.224783956684604, 0.0 ], [ 110.187883347358834, 25.224962671222833, 0.0 ], [ 110.188022985750479, 25.225044900771682, 0.0 ], [ 110.188196454065078, 25.224960315433666, 0.0 ], [ 110.188369922416015, 25.22487573034741, 0.0 ], [ 110.188403187240468, 25.22475260734462, 0.0 ], [ 110.188310244031243, 25.224594793195532, 0.0 ], [ 110.188217301194783, 25.224436978923826, 0.0 ] ] ] } },
{ "type": "Feature", "properties": { "OBJECTID": 38 }, "geometry": { "type": "Polygon", "coordinates": [ [ [ 110.19132705688304, 25.223433743715944, 0.0 ], [ 110.191244290805372, 25.222815510763127, 0.0 ], [ 110.190876818167339, 25.222191614376445, 0.0 ], [ 110.190368006273971, 25.221824516521718, 0.0 ], [ 110.188996006837627, 25.221913182771345, 0.0 ], [ 110.189350363430492, 25.222543325545235, 0.0 ], [ 110.18985319646174, 25.222754701726945, 0.0 ], [ 110.190356126748725, 25.222956738858414, 0.0 ], [ 110.190703525096524, 25.223590081015605, 0.0 ], [ 110.19132705688304, 25.223433743715944, 0.0 ] ] ] } },
{ "type": "Feature", "properties": { "OBJECTID": 39 }, "geometry": { "type": "Polygon", "coordinates": [ [ [ 110.192715729809549, 25.223371058561604, 0.0 ], [ 110.192294510376925, 25.223576469035223, 0.0 ], [ 110.19218413816769, 25.223767487288853, 0.0 ], [ 110.192402281846483, 25.224087483778813, 0.0 ], [ 110.192823570669319, 25.223882188091046, 0.0 ], [ 110.192941715640558, 25.223754134095657, 0.0 ], [ 110.192715729809549, 25.223371058561604, 0.0 ] ] ] } },
{ "type": "Feature", "properties": { "OBJECTID": 40 }, "geometry": { "type": "Polygon", "coordinates": [ [ [ 110.186884305753409, 25.229286269145927, 0.0 ], [ 110.186874770732771, 25.22920826579081, 0.0 ], [ 110.186798610491493, 25.229117058713285, 0.0 ], [ 110.186722879183392, 25.229025557002821, 0.0 ], [ 110.186647264585261, 25.228933975153886, 0.0 ], [ 110.186571650099651, 25.228842393267939, 0.0 ], [ 110.186496386840943, 25.228750572585525, 0.0 ], [ 110.186421215109277, 25.22865868970398, 0.0 ], [ 110.186359106261307, 25.228559160730082, 0.0 ], [ 110.186298316661905, 25.228458859591388, 0.0 ], [ 110.186238098701182, 25.228358274071329, 0.0 ], [ 110.186178041348825, 25.228257608669168, 0.0 ], [ 110.186117984093542, 25.228156943243707, 0.0 ], [ 110.186056992570428, 25.228056783741117, 0.0 ], [ 110.18598833775502, 25.227960773720923, 0.0 ], [ 110.185903925613175, 25.227875999329541, 0.0 ], [ 110.185304008794759, 25.227008194059302, 0.0 ], [ 110.185270919322548, 25.227056635476714, 0.0 ], [ 110.185321692305763, 25.22716144410273, 0.0 ], [ 110.18537246537376, 25.227266252711996, 0.0 ], [ 110.185423238526639, 25.22737106130452, 0.0 ], [ 110.185474011709516, 25.22747586990236, 0.0 ], [ 110.185524784954637, 25.22758067849248, 0.0 ], [ 110.185575558284569, 25.227685487065845, 0.0 ], [ 110.185626584236587, 25.22779018563482, 0.0 ], [ 110.185684511354495, 25.227891878555702, 0.0 ], [ 110.185744131288956, 25.227992748517444, 0.0 ], [ 110.185804899489625, 25.228093060259432, 0.0 ], [ 110.185865667788306, 25.228193371977586, 0.0 ], [ 110.185926436185042, 25.228293683671879, 0.0 ], [ 110.185985816410721, 25.228394679830799, 0.0 ], [ 110.186045053140504, 25.228495746765379, 0.0 ], [ 110.18610545946332, 25.22859621684912, 0.0 ], [ 110.186169414197963, 25.228694876101372, 0.0 ], [ 110.186233762371515, 25.22879330955023, 0.0 ], [ 110.186304141639724, 25.228888281160479, 0.0 ], [ 110.186374639229413, 25.228983177351381, 0.0 ], [ 110.186448803840207, 25.229075735032865, 0.0 ], [ 110.186522968562315, 25.229168292678771, 0.0 ], [ 110.186597253453641, 25.229260769705689, 0.0 ], [ 110.186672612967456, 25.229352525480689, 0.0 ], [ 110.186773334600701, 25.229340390174738, 0.0 ], [ 110.186884305753409, 25.229286269145927, 0.0 ] ] ] } },
{ "type": "Feature", "properties": { "OBJECTID": 41 }, "geometry": { "type": "Polygon", "coordinates": [ [ [ 110.188567111702824, 25.232563299578104, 0.0 ], [ 110.188526587147962, 25.232426973421116, 0.0 ], [ 110.188475415457802, 25.232291453581908, 0.0 ], [ 110.188413972976178, 25.232159261405549, 0.0 ], [ 110.188352530623916, 25.232027069204594, 0.0 ], [ 110.188291550714027, 25.23189470074341, 0.0 ], [ 110.188231015947608, 25.231762162618896, 0.0 ], [ 110.188172672452112, 25.231628825741019, 0.0 ], [ 110.188115822165017, 25.23149494457218, 0.0 ], [ 110.187684435302174, 25.230730196768235, 0.0 ], [ 110.187631196223677, 25.230595308633617, 0.0 ], [ 110.187586214975994, 25.2304579716794, 0.0 ], [ 110.187526900780156, 25.230324984238234, 0.0 ], [ 110.187473478594782, 25.230189940273188, 0.0 ], [ 110.187416029748405, 25.230056293422553, 0.0 ], [ 110.187349696199618, 25.229926287801653, 0.0 ], [ 110.187292440498098, 25.229792618640147, 0.0 ], [ 110.187124198429487, 25.229480754011306, 0.0 ], [ 110.186882567880815, 25.229594378917817, 0.0 ], [ 110.186948590312952, 25.229708796749559, 0.0 ], [ 110.18702988775506, 25.229831492830527, 0.0 ], [ 110.187099230810318, 25.229960410463047, 0.0 ], [ 110.187155390384177, 25.230094449778836, 0.0 ], [ 110.187209833254329, 25.230229156043467, 0.0 ], [ 110.187262518817278, 25.230364433607207, 0.0 ], [ 110.187314277793135, 25.230500012412335, 0.0 ], [ 110.187366036879823, 25.230635591199711, 0.0 ], [ 110.187623512462054, 25.231122301116365, 0.0 ], [ 110.188115679823724, 25.232020563223141, 0.0 ], [ 110.188177734397883, 25.232152518606863, 0.0 ], [ 110.188239789102539, 25.23228447396551, 0.0 ], [ 110.188304235022045, 25.232415461300885, 0.0 ], [ 110.188428076050499, 25.232631160948106, 0.0 ], [ 110.188567111702824, 25.232563299578104, 0.0 ] ] ] } },
{ "type": "Feature", "properties": { "OBJECTID": 42 }, "geometry": { "type": "Polygon", "coordinates": [ [ [ 110.190097171022472, 25.234807766985071, 0.0 ], [ 110.190242074078029, 25.234618299231649, 0.0 ], [ 110.190408146664467, 25.234435172018348, 0.0 ], [ 110.190553830205118, 25.234238332836579, 0.0 ], [ 110.190720572804679, 25.23405585727085, 0.0 ], [ 110.190877500538221, 25.233866485072625, 0.0 ], [ 110.191029234894216, 25.233673278541144, 0.0 ], [ 110.191180660884541, 25.233479904699387, 0.0 ], [ 110.191233981909122, 25.233247591457168, 0.0 ], [ 110.191318281641074, 25.233023156291246, 0.0 ], [ 110.191391670901723, 25.232795451907204, 0.0 ], [ 110.191446430536359, 25.232563292333381, 0.0 ], [ 110.191501189950316, 25.232331132726898, 0.0 ], [ 110.191576172495417, 25.232013173909273, 0.0 ], [ 110.191391863358163, 25.231894986274586, 0.0 ], [ 110.191339798627894, 25.232088711796536, 0.0 ], [ 110.191299847784336, 25.232323357105923, 0.0 ], [ 110.191258135447796, 25.232557747038211, 0.0 ], [ 110.191197032283199, 25.232788141097082, 0.0 ], [ 110.191124531873925, 25.233016235925561, 0.0 ], [ 110.191040321163314, 25.233240734065802, 0.0 ], [ 110.190911510867181, 25.233446442220039, 0.0 ], [ 110.190770590734985, 25.23364605571469, 0.0 ], [ 110.190623408691309, 25.233842160944633, 0.0 ], [ 110.190476226157614, 25.234038266003203, 0.0 ], [ 110.190326950569769, 25.234233014895484, 0.0 ], [ 110.190171248202077, 25.234423599328672, 0.0 ], [ 110.190016269007458, 25.234614661023191, 0.0 ], [ 110.189589459436803, 25.234671020853117, 0.0 ], [ 110.189473093112795, 25.234458481952416, 0.0 ], [ 110.189370916566801, 25.234239983036282, 0.0 ], [ 110.18926688391204, 25.234022226286008, 0.0 ], [ 110.189158979342906, 25.233806017640973, 0.0 ], [ 110.189052478795233, 25.233589243271126, 0.0 ], [ 110.188948901865018, 25.233371290802573, 0.0 ], [ 110.18884532555397, 25.233153338162289, 0.0 ], [ 110.18871648779826, 25.233002590697733, 0.0 ], [ 110.188648863494336, 25.233097341435123, 0.0 ], [ 110.188755115702435, 25.233314225784397, 0.0 ], [ 110.188861368262479, 25.233531110066743, 0.0 ], [ 110.188967100629299, 25.233748198947549, 0.0 ], [ 110.189067995571889, 25.233967189851921, 0.0 ], [ 110.18917336206303, 25.234184419955476, 0.0 ], [ 110.189280444904426, 25.234400965265007, 0.0 ], [ 110.189388801861455, 25.234616980160077, 0.0 ], [ 110.189505468847358, 25.234829390988523, 0.0 ], [ 110.189637120198086, 25.235032314799973, 0.0 ], [ 110.1898671458178, 25.234920041077693, 0.0 ], [ 110.190097171022472, 25.234807766985071, 0.0 ] ] ] } },
{ "type": "Feature", "properties": { "OBJECTID": 43 }, "geometry": { "type": "Polygon", "coordinates": [ [ [ 110.190038578282667, 25.235330614343468, 0.0 ], [ 110.189827483104821, 25.235336330798013, 0.0 ], [ 110.19008822287374, 25.235750263874625, 0.0 ], [ 110.190339011673942, 25.236169357566592, 0.0 ], [ 110.190593610669467, 25.236586539427933, 0.0 ], [ 110.190851876842345, 25.237001859619564, 0.0 ], [ 110.191142801312353, 25.237398729584168, 0.0 ], [ 110.191453213163754, 25.23778217045113, 0.0 ], [ 110.191848911783524, 25.238095421299288, 0.0 ], [ 110.191879506807595, 25.237923736812707, 0.0 ], [ 110.191362466082992, 25.237474197687824, 0.0 ], [ 110.191060015458532, 25.237084424716283, 0.0 ], [ 110.19078077403789, 25.236681620616224, 0.0 ], [ 110.19052306729823, 25.23626601827387, 0.0 ], [ 110.190257784760519, 25.235854395332233, 0.0 ], [ 110.190038578282667, 25.235330614343468, 0.0 ] ] ] } },
{ "type": "Feature", "properties": { "OBJECTID": 44 }, "geometry": { "type": "Polygon", "coordinates": [ [ [ 110.192311348673329, 25.238267967946221, 0.0 ], [ 110.192239767331642, 25.238411099882345, 0.0 ], [ 110.192728784376243, 25.238770268580499, 0.0 ], [ 110.193071968280819, 25.239036121198705, 0.0 ], [ 110.193422805621765, 25.239293302579508, 0.0 ], [ 110.193784640435908, 25.239537846772674, 0.0 ], [ 110.194147166632604, 25.239781541911118, 0.0 ], [ 110.194700256715009, 25.240188559422531, 0.0 ], [ 110.194776628695323, 25.240033747438442, 0.0 ], [ 110.194403244397378, 25.239804151480847, 0.0 ], [ 110.194046208869509, 25.239554125638705, 0.0 ], [ 110.193683239224995, 25.239311188389586, 0.0 ], [ 110.193322036003195, 25.239065879885786, 0.0 ], [ 110.192975978344407, 25.238803255767209, 0.0 ], [ 110.19265757383738, 25.238530472541527, 0.0 ], [ 110.192311348673329, 25.238267967946221, 0.0 ] ] ] } },
{ "type": "Feature", "properties": { "OBJECTID": 45 }, "geometry": { "type": "Polygon", "coordinates": [ [ [ 110.195393749355574, 25.239599503260784, 0.0 ], [ 110.195214976959264, 25.239416614454143, 0.0 ], [ 110.195006338342708, 25.239172601849319, 0.0 ], [ 110.194839877420861, 25.239322692150679, 0.0 ], [ 110.194638794309924, 25.239485288619377, 0.0 ], [ 110.194437710665653, 25.239647884797591, 0.0 ], [ 110.194846529865103, 25.239992802112969, 0.0 ], [ 110.194991583358657, 25.23992469768487, 0.0 ], [ 110.195192666654791, 25.239762100649717, 0.0 ], [ 110.195393749355574, 25.239599503260784, 0.0 ] ] ] } },
{ "type": "Feature", "properties": { "OBJECTID": 46 }, "geometry": { "type": "Polygon", "coordinates": [ [ [ 110.21676761673028, 25.220157385016478, 0.0 ], [ 110.216700021998463, 25.219822922434918, 0.0 ], [ 110.216591512516544, 25.219698761041489, 0.0 ], [ 110.216423874524338, 25.219662933165822, 0.0 ], [ 110.215508377050966, 25.219818385890893, 0.0 ], [ 110.215403566197139, 25.219959173602895, 0.0 ], [ 110.215351873717225, 25.220110095566294, 0.0 ], [ 110.215479424307247, 25.220365925608508, 0.0 ], [ 110.21676761673028, 25.220157385016478, 0.0 ] ] ] } },
{ "type": "Feature", "properties": { "OBJECTID": 47 }, "geometry": { "type": "Polygon", "coordinates": [ [ [ 110.209286469903844, 25.225221099504221, 0.0 ], [ 110.209232291498978, 25.223559823610877, 0.0 ], [ 110.208924533881856, 25.223511658691532, 0.0 ], [ 110.20782875547259, 25.223540765646543, 0.0 ], [ 110.20757674133381, 25.223655847970502, 0.0 ], [ 110.207542423750411, 25.224365003602145, 0.0 ], [ 110.207703333222085, 25.225218192786727, 0.0 ], [ 110.207923756524877, 25.225348018112161, 0.0 ], [ 110.20901946091233, 25.225315812968102, 0.0 ], [ 110.209286469903844, 25.225221099504221, 0.0 ] ] ] } },
{ "type": "Feature", "properties": { "OBJECTID": 48 }, "geometry": { "type": "Polygon", "coordinates": [ [ [ 110.191946588283713, 25.230224920053352, 0.0 ], [ 110.192181169197696, 25.23035213499303, 0.0 ], [ 110.192182349828556, 25.230181558139982, 0.0 ], [ 110.191771723513128, 25.229422352042569, 0.0 ], [ 110.191541492672769, 25.23105135657292, 0.0 ], [ 110.191725868650295, 25.231053720260018, 0.0 ], [ 110.191895771584299, 25.230693844662476, 0.0 ], [ 110.191946588283713, 25.230224920053352, 0.0 ] ] ] } },
{ "type": "Feature", "properties": { "OBJECTID": 49 }, "geometry": { "type": "Polygon", "coordinates": [ [ [ 110.201391982260191, 25.228832077189921, 0.0 ], [ 110.20011796119995, 25.229422686073846, 0.0 ], [ 110.199937015321566, 25.229610756160284, 0.0 ], [ 110.200010571910568, 25.229856903307898, 0.0 ], [ 110.200364774579455, 25.230591769847205, 0.0 ], [ 110.200596107512922, 25.23072187806893, 0.0 ], [ 110.201363969182438, 25.230338623362336, 0.0 ], [ 110.201528647108873, 25.230129010665973, 0.0 ], [ 110.2014874027833, 25.229327498631946, 0.0 ], [ 110.2014736548727, 25.229060327930391, 0.0 ], [ 110.201391982260191, 25.228832077189921, 0.0 ] ] ] } },
{ "type": "Feature", "properties": { "OBJECTID": 50 }, "geometry": { "type": "Polygon", "coordinates": [ [ [ 110.208913136375287, 25.234835706208539, 0.0 ], [ 110.208773722388557, 25.234774345061258, 0.0 ], [ 110.208633143182908, 25.23481384581515, 0.0 ], [ 110.208492342410509, 25.234872528981839, 0.0 ], [ 110.208351541559011, 25.234931212116134, 0.0 ], [ 110.208210740686155, 25.234989895332244, 0.0 ], [ 110.208262467150789, 25.235079236795194, 0.0 ], [ 110.208377894825489, 25.235172405450413, 0.0 ], [ 110.208636313796944, 25.235327750709754, 0.0 ], [ 110.208753132036463, 25.235419652542554, 0.0 ], [ 110.208865845064182, 25.235516268622153, 0.0 ], [ 110.208985518722045, 25.235678078091556, 0.0 ], [ 110.209124580030348, 25.235657567160668, 0.0 ], [ 110.209100806076165, 25.235518371006226, 0.0 ], [ 110.209072407060532, 25.235379893790149, 0.0 ], [ 110.209039408210188, 25.235242262770871, 0.0 ], [ 110.209001839673704, 25.23510560436528, 0.0 ], [ 110.208959735924083, 25.234970044075801, 0.0 ], [ 110.208913136375287, 25.234835706208539, 0.0 ] ] ] } },
{ "type": "Feature", "properties": { "OBJECTID": 51 }, "geometry": { "type": "Polygon", "coordinates": [ [ [ 110.208218593973228, 25.242377300491643, 0.0 ], [ 110.208083015723247, 25.242352143756353, 0.0 ], [ 110.20794671675209, 25.242330189521411, 0.0 ], [ 110.207819523605508, 25.242316901208333, 0.0 ], [ 110.207718597255052, 25.242370972058424, 0.0 ], [ 110.207658145177049, 25.242484224434445, 0.0 ], [ 110.207616387655733, 25.242603873618986, 0.0 ], [ 110.207579770302189, 25.242725281630232, 0.0 ], [ 110.207543152860552, 25.242846689625189, 0.0 ], [ 110.207506535401109, 25.242968097622338, 0.0 ], [ 110.207525217627577, 25.243057819980997, 0.0 ], [ 110.207661434076257, 25.243080197888151, 0.0 ], [ 110.207797650488956, 25.243102576121551, 0.0 ], [ 110.207933866999014, 25.243124954009186, 0.0 ], [ 110.208047207360991, 25.243116399708143, 0.0 ], [ 110.208075771785659, 25.242993216496465, 0.0 ], [ 110.208104336632701, 25.242870033368547, 0.0 ], [ 110.208132900911792, 25.24274685013442, 0.0 ], [ 110.208161465444718, 25.24262366695174, 0.0 ], [ 110.208190029762889, 25.242500483730648, 0.0 ], [ 110.208218593973228, 25.242377300491643, 0.0 ] ] ] } },
{ "type": "Feature", "properties": { "OBJECTID": 52 }, "geometry": { "type": "Polygon", "coordinates": [ [ [ 110.198285328647927, 25.24614633785141, 0.0 ], [ 110.198595596591261, 25.246689037073679, 0.0 ], [ 110.198900473958517, 25.247233953298412, 0.0 ], [ 110.199213643545718, 25.247775268588086, 0.0 ], [ 110.199523925321586, 25.248317949461143, 0.0 ], [ 110.199831911360747, 25.248861672264425, 0.0 ], [ 110.200281761246842, 25.249757787078718, 0.0 ], [ 110.200570489830469, 25.249628245571717, 0.0 ], [ 110.20005624555742, 25.248766466091862, 0.0 ], [ 110.199743635309375, 25.248224891721957, 0.0 ], [ 110.199428204504869, 25.247684688525606, 0.0 ], [ 110.199109310903665, 25.247146154174466, 0.0 ], [ 110.198796946159902, 25.246604453778723, 0.0 ], [ 110.198486425232517, 25.246061874140263, 0.0 ], [ 110.198174897317898, 25.245519772807082, 0.0 ], [ 110.197840810045093, 25.245085303991956, 0.0 ], [ 110.197334019474383, 25.245487430460802, 0.0 ], [ 110.197049729860154, 25.245904953950294, 0.0 ], [ 110.197623573788633, 25.246037122060258, 0.0 ], [ 110.198285328647927, 25.24614633785141, 0.0 ] ] ] } },
{ "type": "Feature", "properties": { "OBJECTID": 53 }, "geometry": { "type": "Polygon", "coordinates": [ [ [ 110.197738822500824, 25.248831154111695, 0.0 ], [ 110.197862073954482, 25.248838715592928, 0.0 ], [ 110.197871439671673, 25.248674323467064, 0.0 ], [ 110.197451819779985, 25.24824534209224, 0.0 ], [ 110.197298086016957, 25.248114322000198, 0.0 ], [ 110.197148152594565, 25.248222258425809, 0.0 ], [ 110.196998648807877, 25.248357266630805, 0.0 ], [ 110.19684914493827, 25.248492274900592, 0.0 ], [ 110.196699640490863, 25.248627282782117, 0.0 ], [ 110.196550135788215, 25.248762290570433, 0.0 ], [ 110.196694184390495, 25.248895320016217, 0.0 ], [ 110.196841669299999, 25.249032109319991, 0.0 ], [ 110.196989344643612, 25.249168692420024, 0.0 ], [ 110.197140262742735, 25.249302393850506, 0.0 ], [ 110.197293319780314, 25.249238918377678, 0.0 ], [ 110.197738822500824, 25.248831154111695, 0.0 ] ] ] } },
{ "type": "Feature", "properties": { "OBJECTID": 54 }, "geometry": { "type": "Polygon", "coordinates": [ [ [ 110.201178054712557, 25.251875176832559, 0.0 ], [ 110.200632186986923, 25.250345797176191, 0.0 ], [ 110.200475122528914, 25.250597358203013, 0.0 ], [ 110.201121213775338, 25.252241862973978, 0.0 ], [ 110.201573121185959, 25.253331654334488, 0.0 ], [ 110.201691375528767, 25.253881955787907, 0.0 ], [ 110.201684990806626, 25.254457766899527, 0.0 ], [ 110.201586273116206, 25.255033168993773, 0.0 ], [ 110.201487554375149, 25.255608570948919, 0.0 ], [ 110.201735503910342, 25.255591071120183, 0.0 ], [ 110.201911950007656, 25.254074060516309, 0.0 ], [ 110.201833472515986, 25.253514691077221, 0.0 ], [ 110.201178054712557, 25.251875176832559, 0.0 ] ] ] } },
{ "type": "Feature", "properties": { "OBJECTID": 55 }, "geometry": { "type": "Polygon", "coordinates": [ [ [ 110.201331363828487, 25.25833302273951, 0.0 ], [ 110.200934965819371, 25.25826331568539, 0.0 ], [ 110.200538497420496, 25.258193941672786, 0.0 ], [ 110.200162867438806, 25.25816510889311, 0.0 ], [ 110.199939822234512, 25.258731474564442, 0.0 ], [ 110.200333853534147, 25.258811516692781, 0.0 ], [ 110.2007277126757, 25.258892256284518, 0.0 ], [ 110.201121594054513, 25.258972910536382, 0.0 ], [ 110.201255864950838, 25.258693700150275, 0.0 ], [ 110.201331363828487, 25.25833302273951, 0.0 ] ] ] } },
{ "type": "Feature", "properties": { "OBJECTID": 56 }, "geometry": { "type": "Polygon", "coordinates": [ [ [ 110.206366466692501, 25.261154853774329, 0.0 ], [ 110.206244518881661, 25.261132062878037, 0.0 ], [ 110.206122571021325, 25.261109272315604, 0.0 ], [ 110.206000623287636, 25.261086481306343, 0.0 ], [ 110.205878675523977, 25.261063690544514, 0.0 ], [ 110.205756727906603, 25.261040899249419, 0.0 ], [ 110.20563478030364, 25.261018108005029, 0.0 ], [ 110.205512832699554, 25.260995316880102, 0.0 ], [ 110.205390885227274, 25.260972525285908, 0.0 ], [ 110.205268937705469, 25.260949734025562, 0.0 ], [ 110.205146990330022, 25.260926942231968, 0.0 ], [ 110.205025043002863, 25.26090415033865, 0.0 ], [ 110.20492178181938, 25.260876029089658, 0.0 ], [ 110.204797831625214, 25.260865436879236, 0.0 ], [ 110.204673881454724, 25.260854844572759, 0.0 ], [ 110.204549931311462, 25.260844252138071, 0.0 ], [ 110.204426095852043, 25.260850711140428, 0.0 ], [ 110.204302297450226, 25.260862681416278, 0.0 ], [ 110.204178229370143, 25.260860097252042, 0.0 ], [ 110.204054057799695, 25.260851926202658, 0.0 ], [ 110.203929886247806, 25.26084375506306, 0.0 ], [ 110.20380558963619, 25.260837406197052, 0.0 ], [ 110.203681264456748, 25.260831473712599, 0.0 ], [ 110.203556939290635, 25.260825541157143, 0.0 ], [ 110.203432614160533, 25.260819608136615, 0.0 ], [ 110.203308289031739, 25.260813675249359, 0.0 ], [ 110.203184328238677, 25.260819128899477, 0.0 ], [ 110.203062671119298, 25.260799731097997, 0.0 ], [ 110.202938421660122, 25.260792607385746, 0.0 ], [ 110.202814172199979, 25.260785483835662, 0.0 ], [ 110.202689922751119, 25.260778360273015, 0.0 ], [ 110.20256567333314, 25.260771236415092, 0.0 ], [ 110.202441423925393, 25.260764112556767, 0.0 ], [ 110.202317174539374, 25.26075698853565, 0.0 ], [ 110.202192925160816, 25.260749864556082, 0.0 ], [ 110.202068583804476, 25.260744907618701, 0.0 ], [ 110.201944100273138, 25.260743299510249, 0.0 ], [ 110.201819616748153, 25.260741691297614, 0.0 ], [ 110.201695133229549, 25.260740082982231, 0.0 ], [ 110.201570649717368, 25.260738474558234, 0.0 ], [ 110.201446166211525, 25.260736866031298, 0.0 ], [ 110.201321682704986, 25.260735257849646, 0.0 ], [ 110.201226242036867, 25.260766026773489, 0.0 ], [ 110.201202961663412, 25.260877241553121, 0.0 ], [ 110.201179680847858, 25.260988456257756, 0.0 ], [ 110.201283185077131, 25.26099484324396, 0.0 ], [ 110.201407142289469, 25.260984318844955, 0.0 ], [ 110.201531099503043, 25.260973794531779, 0.0 ], [ 110.201655056702108, 25.260963270151336, 0.0 ], [ 110.201779013857887, 25.260952745424014, 0.0 ], [ 110.201902971040454, 25.260942221030373, 0.0 ], [ 110.202026928158517, 25.260931696082832, 0.0 ], [ 110.202151057043849, 25.260928493995799, 0.0 ], [ 110.202275394932073, 25.260934203081678, 0.0 ], [ 110.202399732835318, 25.260939912058443, 0.0 ], [ 110.202524070778267, 25.260945620479792, 0.0 ], [ 110.202648408710928, 25.260951329246993, 0.0 ], [ 110.202772746658326, 25.260957037910309, 0.0 ], [ 110.202897084637016, 25.260962746169799, 0.0 ], [ 110.203021422621106, 25.260968454491703, 0.0 ], [ 110.203145690845403, 25.260975039572305, 0.0 ], [ 110.203269637324652, 25.26098566834774, 0.0 ], [ 110.20339394397854, 25.260991525541918, 0.0 ], [ 110.203518325040591, 25.260996397232759, 0.0 ], [ 110.203642706137174, 25.261001268363263, 0.0 ], [ 110.203767087225671, 25.261006139835008, 0.0 ], [ 110.203891468348004, 25.261011010762342, 0.0 ], [ 110.204015472630203, 25.261020838685077, 0.0 ], [ 110.204139407589025, 25.261031578626451, 0.0 ], [ 110.204263342569291, 25.261042318496738, 0.0 ], [ 110.204387277534408, 25.261053058646112, 0.0 ], [ 110.204498172775487, 25.261051851464146, 0.0 ], [ 110.204621916753851, 25.261064280095379, 0.0 ], [ 110.204745660754796, 25.261076708670103, 0.0 ], [ 110.204869398698349, 25.261089170645416, 0.0 ], [ 110.204990966831332, 25.261113581000131, 0.0 ], [ 110.205112534894511, 25.261137991755234, 0.0 ], [ 110.205234103135211, 25.261162401891827, 0.0 ], [ 110.205355671379735, 25.261186812125551, 0.0 ], [ 110.205477239645731, 25.261211222383086, 0.0 ], [ 110.205598808035802, 25.261235632242716, 0.0 ], [ 110.205720376394154, 25.2612600423457, 0.0 ], [ 110.205841944855663, 25.261284452136231, 0.0 ], [ 110.205963513364424, 25.261308861845421, 0.0 ], [ 110.206085081878527, 25.26133327164542, 0.0 ], [ 110.206206650525687, 25.261357681010011, 0.0 ], [ 110.206328219152113, 25.261382090572337, 0.0 ], [ 110.206449787893874, 25.261406499773685, 0.0 ], [ 110.206571356652091, 25.261430909019982, 0.0 ], [ 110.206692925490813, 25.26145531804773, 0.0 ], [ 110.206814494321151, 25.261479727222245, 0.0 ], [ 110.206936063296354, 25.261504135913185, 0.0 ], [ 110.207057632222899, 25.26152854491702, 0.0 ], [ 110.207073540010285, 25.261459924716018, 0.0 ], [ 110.20704278629708, 25.26135022132561, 0.0 ], [ 110.206974584433453, 25.26127576210963, 0.0 ], [ 110.20685296075817, 25.261251580745387, 0.0 ], [ 110.206731337193986, 25.26122739903197, 0.0 ], [ 110.206609713686191, 25.261203217196609, 0.0 ], [ 110.206488090163845, 25.261179035535033, 0.0 ], [ 110.206366466692501, 25.261154853774329, 0.0 ] ] ] } },
{ "type": "Feature", "properties": { "OBJECTID": 57 }, "geometry": { "type": "Polygon", "coordinates": [ [ [ 110.178032328902319, 25.276859761275187, 0.0 ], [ 110.178485060465178, 25.276862221452291, 0.0 ], [ 110.178937817109954, 25.276868836543319, 0.0 ], [ 110.179389845763282, 25.27689169435757, 0.0 ], [ 110.17924506342014, 25.27672663638716, 0.0 ], [ 110.178792503980361, 25.276731713297639, 0.0 ], [ 110.178340029019608, 25.276717396129655, 0.0 ], [ 110.177893320456164, 25.276776831907092, 0.0 ], [ 110.177473503222984, 25.27692966159222, 0.0 ], [ 110.177078470074179, 25.277130021149453, 0.0 ], [ 110.176678843521131, 25.277323655819202, 0.0 ], [ 110.176299427912994, 25.277548159693492, 0.0 ], [ 110.175902491260516, 25.277745248981777, 0.0 ], [ 110.175512822596858, 25.277954141277178, 0.0 ], [ 110.175674565069556, 25.278072898701506, 0.0 ], [ 110.176055296744565, 25.27784999651514, 0.0 ], [ 110.176440769625771, 25.27763396699152, 0.0 ], [ 110.176833069758644, 25.27742856258503, 0.0 ], [ 110.177221995793872, 25.277217868933384, 0.0 ], [ 110.177612805836162, 25.277009904263188, 0.0 ], [ 110.178032328902319, 25.276859761275187, 0.0 ] ] ] } },
{ "type": "Feature", "properties": { "OBJECTID": 58 }, "geometry": { "type": "Polygon", "coordinates": [ [ [ 110.187304166164481, 25.267438678505567, 0.0 ], [ 110.18750871438111, 25.26722496079379, 0.0 ], [ 110.187333718460991, 25.267175340094319, 0.0 ], [ 110.187022173899734, 25.267179142800565, 0.0 ], [ 110.186710597931437, 25.267179548822568, 0.0 ], [ 110.186631249300262, 25.26740428852095, 0.0 ], [ 110.186544601371395, 25.267660689860389, 0.0 ], [ 110.186395249632014, 25.267908591698049, 0.0 ], [ 110.186255868941984, 25.268161983645175, 0.0 ], [ 110.186161137139734, 25.268430975393613, 0.0 ], [ 110.186093419213805, 25.268707428820424, 0.0 ], [ 110.186017066470498, 25.268982110811024, 0.0 ], [ 110.186236849662507, 25.269123720245762, 0.0 ], [ 110.186321075239803, 25.268850947560498, 0.0 ], [ 110.186411364485764, 25.268579906541952, 0.0 ], [ 110.186527526794663, 25.268317563285123, 0.0 ], [ 110.186691203506015, 25.268079113763537, 0.0 ], [ 110.186895753854429, 25.267865396953919, 0.0 ], [ 110.187100303031627, 25.26765167947973, 0.0 ], [ 110.187304166164481, 25.267438678505567, 0.0 ] ] ] } },
{ "type": "Feature", "properties": { "OBJECTID": 59 }, "geometry": { "type": "Polygon", "coordinates": [ [ [ 110.185837049476973, 25.269449782190097, 0.0 ], [ 110.185642929073992, 25.269764299871532, 0.0 ], [ 110.185402977147064, 25.270064658749281, 0.0 ], [ 110.185341009260526, 25.270429407168795, 0.0 ], [ 110.185293333643799, 25.270798986072336, 0.0 ], [ 110.185211354173717, 25.271164239947669, 0.0 ], [ 110.185127955766404, 25.271529230071035, 0.0 ], [ 110.185001850461703, 25.271881952094521, 0.0 ], [ 110.184823256508238, 25.27221750748334, 0.0 ], [ 110.18453800340653, 25.27268941497794, 0.0 ], [ 110.184660453631651, 25.272771802138941, 0.0 ], [ 110.184862725273646, 25.272480076364118, 0.0 ], [ 110.185040293153818, 25.272144674043918, 0.0 ], [ 110.185216867230253, 25.271808236225827, 0.0 ], [ 110.185311197817711, 25.271447234313072, 0.0 ], [ 110.185382650237656, 25.271080573839811, 0.0 ], [ 110.185485936469647, 25.270720899270369, 0.0 ], [ 110.185594051295482, 25.270364170330659, 0.0 ], [ 110.185814750654714, 25.270052487609984, 0.0 ], [ 110.186043710644313, 25.269587742457894, 0.0 ], [ 110.185837049476973, 25.269449782190097, 0.0 ] ] ] } },
{ "type": "Feature", "properties": { "OBJECTID": 60 }, "geometry": { "type": "Polygon", "coordinates": [ [ [ 110.1897417748295, 25.265647943520996, 0.0 ], [ 110.189659352513914, 25.265581991214194, 0.0 ], [ 110.189500590397515, 25.26566381194208, 0.0 ], [ 110.189341827720867, 25.265745631931576, 0.0 ], [ 110.189183157661162, 25.265827600112541, 0.0 ], [ 110.189024690337348, 25.265909892491777, 0.0 ], [ 110.188866223119206, 25.265992185197241, 0.0 ], [ 110.188715182428069, 25.266084249829493, 0.0 ], [ 110.188574501160176, 25.266189945538816, 0.0 ], [ 110.188433819522714, 25.266295640966639, 0.0 ], [ 110.188311400589967, 25.266416836793983, 0.0 ], [ 110.188375009607867, 25.266454131276525, 0.0 ], [ 110.188526642644462, 25.266372794868133, 0.0 ], [ 110.188660753957095, 25.266260258558457, 0.0 ], [ 110.188794864795241, 25.266147721894651, 0.0 ], [ 110.188952316977563, 25.266063917630344, 0.0 ], [ 110.189110027678197, 25.265980431731389, 0.0 ], [ 110.18926773829773, 25.265896945863602, 0.0 ], [ 110.189425448578064, 25.26581345962266, 0.0 ], [ 110.189583158392324, 25.265729972810188, 0.0 ], [ 110.1897417748295, 25.265647943520996, 0.0 ] ] ] } },
{ "type": "Feature", "properties": { "OBJECTID": 61 }, "geometry": { "type": "Polygon", "coordinates": [ [ [ 110.193786132243275, 25.262135756436674, 0.0 ], [ 110.193807269209259, 25.262004520157671, 0.0 ], [ 110.193321567480908, 25.262336204650399, 0.0 ], [ 110.192849893401487, 25.262683682420793, 0.0 ], [ 110.192433489988034, 25.263085637658289, 0.0 ], [ 110.192038427271555, 25.26350510395638, 0.0 ], [ 110.191647536201359, 25.263927892716016, 0.0 ], [ 110.191246706021488, 25.264342910870067, 0.0 ], [ 110.190845574044118, 25.264757693994234, 0.0 ], [ 110.189947852819074, 25.265465118883213, 0.0 ], [ 110.19025555680139, 25.265484323229291, 0.0 ], [ 110.190863107520343, 25.264924166972559, 0.0 ], [ 110.19125326534224, 25.264500869473153, 0.0 ], [ 110.191651744720218, 25.264083978107397, 0.0 ], [ 110.192048935049442, 25.263666077250598, 0.0 ], [ 110.192444864606273, 25.26324719083517, 0.0 ], [ 110.192848165294407, 25.262834331022063, 0.0 ], [ 110.193301748516916, 25.262469042681559, 0.0 ], [ 110.193786132243275, 25.262135756436674, 0.0 ] ] ] } },
{ "type": "Feature", "properties": { "OBJECTID": 62 }, "geometry": { "type": "Polygon", "coordinates": [ [ [ 110.181472425977049, 25.276339968621109, 0.0 ], [ 110.181792591703768, 25.276636672836734, 0.0 ], [ 110.182316498844131, 25.276420304390285, 0.0 ], [ 110.182444419180285, 25.275829940575079, 0.0 ], [ 110.182937536303157, 25.275375722732665, 0.0 ], [ 110.183419306534745, 25.274911513258498, 0.0 ], [ 110.18390809198506, 25.274453441193, 0.0 ], [ 110.184538874308302, 25.273372449372328, 0.0 ], [ 110.184418429036185, 25.2731481571332, 0.0 ], [ 110.183765886727159, 25.274268328484649, 0.0 ], [ 110.181729875317444, 25.276012441614309, 0.0 ], [ 110.179755193671724, 25.27664142093203, 0.0 ], [ 110.180212686546795, 25.27681699091486, 0.0 ], [ 110.181472425977049, 25.276339968621109, 0.0 ] ] ] } },
{ "type": "Feature", "properties": { "OBJECTID": 63 }, "geometry": { "type": "Polygon", "coordinates": [ [ [ 110.177026918738605, 25.269900705790679, 0.0 ], [ 110.177026068726349, 25.269756150661436, 0.0 ], [ 110.177025218890563, 25.269611595528577, 0.0 ], [ 110.177024368713646, 25.269467040394584, 0.0 ], [ 110.177023518610298, 25.269322485257522, 0.0 ], [ 110.176929304066562, 25.269207469350501, 0.0 ], [ 110.176795997788503, 25.269153335791863, 0.0 ], [ 110.176320601651142, 25.269118573919233, 0.0 ], [ 110.176233299782851, 25.269176732816632, 0.0 ], [ 110.176234149189597, 25.269321287936837, 0.0 ], [ 110.176234998946114, 25.269465843052608, 0.0 ], [ 110.176235848272071, 25.269610398167657, 0.0 ], [ 110.176236698096673, 25.269754953277555, 0.0 ], [ 110.176237547416065, 25.269899508387091, 0.0 ], [ 110.176391016097199, 25.269903797414269, 0.0 ], [ 110.17654999175268, 25.269903024765437, 0.0 ], [ 110.176708967411514, 25.269902251945062, 0.0 ], [ 110.176867943073447, 25.269901478955308, 0.0 ], [ 110.177026918738605, 25.269900705790679, 0.0 ] ] ] } },
{ "type": "Feature", "properties": { "OBJECTID": 64 }, "geometry": { "type": "Polygon", "coordinates": [ [ [ 110.168823557951612, 25.28072299214659, 0.0 ], [ 110.168708107599898, 25.280820295285533, 0.0 ], [ 110.168598916325308, 25.280925875387222, 0.0 ], [ 110.168497290523035, 25.281037564745414, 0.0 ], [ 110.168406907210539, 25.281156888560439, 0.0 ], [ 110.168321806012159, 25.281279330953698, 0.0 ], [ 110.1682442812521, 25.28140599511207, 0.0 ], [ 110.168177230695264, 25.281537479600267, 0.0 ], [ 110.168110865272567, 25.281669279424932, 0.0 ], [ 110.168058606796606, 25.281796543158329, 0.0 ], [ 110.168172142940179, 25.281883145246514, 0.0 ], [ 110.168243108900924, 25.281753678873766, 0.0 ], [ 110.168308306196622, 25.281621433313479, 0.0 ], [ 110.16837392001834, 25.281489694734294, 0.0 ], [ 110.168455066305768, 25.281364919749347, 0.0 ], [ 110.168536223023423, 25.281240150489868, 0.0 ], [ 110.168622039906424, 25.281118092027111, 0.0 ], [ 110.168722539295317, 25.281006125734987, 0.0 ], [ 110.168836155409778, 25.280904441313741, 0.0 ], [ 110.168953433356094, 25.280806485377564, 0.0 ], [ 110.168823557951612, 25.28072299214659, 0.0 ] ] ] } },
{ "type": "Feature", "properties": { "OBJECTID": 65 }, "geometry": { "type": "Polygon", "coordinates": [ [ [ 110.168016405428148, 25.282134634126141, 0.0 ], [ 110.167869967891448, 25.282141403082047, 0.0 ], [ 110.167771571184772, 25.282353395317177, 0.0 ], [ 110.167681602277838, 25.282568521272669, 0.0 ], [ 110.167578693780357, 25.282778660404976, 0.0 ], [ 110.167472060510761, 25.282987273453752, 0.0 ], [ 110.167387337837013, 25.283204083783023, 0.0 ], [ 110.167340885283096, 25.283430174606874, 0.0 ], [ 110.167322529147668, 25.283659146321643, 0.0 ], [ 110.16734134069894, 25.283888550469648, 0.0 ], [ 110.167372625910048, 25.284114092446384, 0.0 ], [ 110.167501437405491, 25.284118734273317, 0.0 ], [ 110.167488853423066, 25.283888866086752, 0.0 ], [ 110.167480432857843, 25.28365890117762, 0.0 ], [ 110.167499444285042, 25.283429908438499, 0.0 ], [ 110.167559537272453, 25.283206616624046, 0.0 ], [ 110.167638091418453, 25.282987865980772, 0.0 ], [ 110.167722192869306, 25.282770791278104, 0.0 ], [ 110.16781504962502, 25.282556822878753, 0.0 ], [ 110.167912792333013, 25.282344544526939, 0.0 ], [ 110.168016405428148, 25.282134634126141, 0.0 ] ] ] } },
{ "type": "Feature", "properties": { "OBJECTID": 66 }, "geometry": { "type": "Polygon", "coordinates": [ [ [ 110.172581707566167, 25.281790245504808, 0.0 ], [ 110.171991209429649, 25.281620320336486, 0.0 ], [ 110.171328540389723, 25.281596677416069, 0.0 ], [ 110.170674667736876, 25.281496038908706, 0.0 ], [ 110.170040381772637, 25.281320015333797, 0.0 ], [ 110.169436151097273, 25.281071510946671, 0.0 ], [ 110.168900792903358, 25.281082891558061, 0.0 ], [ 110.168531058271057, 25.281579525303474, 0.0 ], [ 110.168403191454402, 25.282096361649998, 0.0 ], [ 110.168882653639685, 25.282513532249563, 0.0 ], [ 110.169362119156645, 25.282930701306082, 0.0 ], [ 110.169841587957805, 25.283347868864105, 0.0 ], [ 110.170324491231966, 25.283761642021602, 0.0 ], [ 110.170876047816577, 25.284094699921248, 0.0 ], [ 110.171497639940469, 25.284302094268607, 0.0 ], [ 110.172155227417306, 25.284372466859747, 0.0 ], [ 110.172738984047513, 25.284194957721468, 0.0 ], [ 110.172709251822042, 25.283596656124598, 0.0 ], [ 110.17266673655223, 25.282994519312648, 0.0 ], [ 110.172624221612566, 25.282392382450396, 0.0 ], [ 110.172581707566167, 25.281790245504808, 0.0 ] ] ] } },
{ "type": "Feature", "properties": { "OBJECTID": 67 }, "geometry": { "type": "Polygon", "coordinates": [ [ [ 110.173030342346166, 25.284335053152493, 0.0 ], [ 110.175191812400229, 25.284167782275475, 0.0 ], [ 110.175137204248372, 25.281550076482681, 0.0 ], [ 110.172915459516233, 25.281714042422426, 0.0 ], [ 110.172826097838922, 25.282770617886772, 0.0 ], [ 110.173030342346166, 25.284335053152493, 0.0 ] ] ] } },
{ "type": "Feature", "properties": { "OBJECTID": 68 }, "geometry": { "type": "Polygon", "coordinates": [ [ [ 110.172285445780147, 25.284640781174225, 0.0 ], [ 110.172172890620047, 25.284643154402367, 0.0 ], [ 110.172060316708411, 25.28464184670311, 0.0 ], [ 110.17194786957127, 25.284636858298647, 0.0 ], [ 110.171835694380164, 25.284628198034984, 0.0 ], [ 110.171723936120259, 25.284615876362246, 0.0 ], [ 110.171612739420937, 25.284599907933035, 0.0 ], [ 110.171548310017428, 25.284668991732254, 0.0 ], [ 110.171527122862088, 25.284975467897969, 0.0 ], [ 110.171638380852912, 25.284986686679868, 0.0 ], [ 110.171750727367098, 25.28499335584943, 0.0 ], [ 110.171863073866675, 25.285000025345422, 0.0 ], [ 110.171975420399122, 25.285006694505835, 0.0 ], [ 110.172087766938617, 25.285013363690325, 0.0 ], [ 110.172249691576283, 25.285029337630021, 0.0 ], [ 110.172271740318607, 25.284845122255355, 0.0 ], [ 110.172278593056419, 25.284742951715796, 0.0 ], [ 110.172285445780147, 25.284640781174225, 0.0 ] ] ] } },
{ "type": "Feature", "properties": { "OBJECTID": 69 }, "geometry": { "type": "Polygon", "coordinates": [ [ [ 110.174175788685801, 25.28923564866589, 0.0 ], [ 110.173447509023518, 25.288919664077429, 0.0 ], [ 110.173290648459016, 25.288961955817211, 0.0 ], [ 110.17305142356301, 25.289350346700214, 0.0 ], [ 110.173051627067252, 25.28945988806322, 0.0 ], [ 110.173726718182991, 25.289848154406069, 0.0 ], [ 110.173866476238331, 25.289759993360651, 0.0 ], [ 110.174175788685801, 25.28923564866589, 0.0 ] ] ] } },
{ "type": "Feature", "properties": { "OBJECTID": 70 }, "geometry": { "type": "Polygon", "coordinates": [ [ [ 110.160272484495337, 25.292898524762794, 0.0 ], [ 110.160474718920128, 25.292527210264069, 0.0 ], [ 110.160676952280738, 25.292155895525656, 0.0 ], [ 110.16087918439014, 25.291784580463016, 0.0 ], [ 110.160943351857796, 25.291405245565986, 0.0 ], [ 110.160571108291307, 25.291183493292777, 0.0 ], [ 110.160173460216498, 25.290981046163342, 0.0 ], [ 110.159775813612185, 25.290778597784279, 0.0 ], [ 110.158812740143432, 25.290228317182283, 0.0 ], [ 110.158585539869662, 25.290405886232627, 0.0 ], [ 110.158398565966422, 25.290783751800713, 0.0 ], [ 110.158211590875098, 25.291161617082796, 0.0 ], [ 110.158024614461056, 25.291539482023989, 0.0 ], [ 110.157896399672168, 25.291919450685153, 0.0 ], [ 110.158233227609529, 25.292161312848187, 0.0 ], [ 110.158641604345888, 25.292345269277039, 0.0 ], [ 110.15904998234123, 25.292529224602212, 0.0 ], [ 110.159458361813222, 25.292713178424393, 0.0 ], [ 110.159866742355831, 25.292897131488743, 0.0 ], [ 110.160272484495337, 25.292898524762794, 0.0 ] ] ] } },
{ "type": "Feature", "properties": { "OBJECTID": 71 }, "geometry": { "type": "Polygon", "coordinates": [ [ [ 110.162479951296802, 25.27666727579064, 0.0 ], [ 110.162310445097049, 25.276586049471266, 0.0 ], [ 110.162140939253277, 25.27650482274472, 0.0 ], [ 110.161971433360705, 25.276423596309385, 0.0 ], [ 110.161792250722655, 25.276470062745648, 0.0 ], [ 110.161632923615045, 25.276550106132376, 0.0 ], [ 110.16155176812461, 25.276707923431829, 0.0 ], [ 110.161470612139425, 25.276865740559092, 0.0 ], [ 110.161389456372149, 25.277023557816836, 0.0 ], [ 110.161318233419237, 25.277182027988019, 0.0 ], [ 110.1613735829836, 25.277348816912454, 0.0 ], [ 110.162028740409241, 25.277628698543587, 0.0 ], [ 110.162103942731093, 25.277468461535168, 0.0 ], [ 110.162179144850043, 25.277308224479924, 0.0 ], [ 110.162254346766076, 25.27714798737783, 0.0 ], [ 110.162329548479221, 25.276987750228923, 0.0 ], [ 110.162404749989378, 25.27682751303319, 0.0 ], [ 110.162479951296802, 25.27666727579064, 0.0 ] ] ] } },
{ "type": "Feature", "properties": { "OBJECTID": 72 }, "geometry": { "type": "Polygon", "coordinates": [ [ [ 110.165118564177035, 25.261900656170436, 0.0 ], [ 110.165110650405012, 25.261771061336095, 0.0 ], [ 110.165102736212475, 25.261641466521361, 0.0 ], [ 110.165094822397975, 25.261511871685915, 0.0 ], [ 110.165086908298193, 25.261382276863252, 0.0 ], [ 110.165078994422856, 25.261252682027667, 0.0 ], [ 110.165071080415757, 25.261123087197138, 0.0 ], [ 110.164660247914284, 25.261104738278707, 0.0 ], [ 110.16457576198448, 25.261151754600668, 0.0 ], [ 110.164583675288128, 25.261281349452872, 0.0 ], [ 110.164591588227836, 25.261410944321817, 0.0 ], [ 110.164599501400431, 25.26154053917741, 0.0 ], [ 110.164607414608909, 25.261670134029579, 0.0 ], [ 110.16461532783616, 25.261799728879176, 0.0 ], [ 110.164623240971054, 25.261929323731788, 0.0 ], [ 110.164908117983984, 25.261968031028818, 0.0 ], [ 110.165118564177035, 25.261900656170436, 0.0 ] ] ] } },
{ "type": "Feature", "properties": { "OBJECTID": 73 }, "geometry": { "type": "Polygon", "coordinates": [ [ [ 110.181428156712784, 25.251543895333995, 0.0 ], [ 110.181269618972976, 25.251553406731045, 0.0 ], [ 110.18111108121164, 25.251562917929341, 0.0 ], [ 110.180952543406448, 25.251572428622481, 0.0 ], [ 110.180794005608504, 25.251581939513844, 0.0 ], [ 110.180718205444393, 25.251672607308471, 0.0 ], [ 110.180794994421689, 25.252393320936072, 0.0 ], [ 110.180951743607849, 25.252384416044798, 0.0 ], [ 110.181110191324024, 25.25237372270194, 0.0 ], [ 110.181268638992123, 25.252363028876726, 0.0 ], [ 110.181427086667114, 25.25235233524289, 0.0 ], [ 110.181486951791555, 25.252264375642799, 0.0 ], [ 110.181475192805394, 25.252120279582016, 0.0 ], [ 110.181463433388302, 25.251976183548891, 0.0 ], [ 110.181451674487036, 25.251832087479386, 0.0 ], [ 110.181439915568731, 25.251687991409543, 0.0 ], [ 110.181428156712784, 25.251543895333995, 0.0 ] ] ] } },
{ "type": "Feature", "properties": { "OBJECTID": 74 }, "geometry": { "type": "Polygon", "coordinates": [ [ [ 110.116136145146129, 25.205920576226397, 0.0 ], [ 110.115427318320954, 25.204335619513472, 0.0 ], [ 110.114662416265659, 25.204250479985724, 0.0 ], [ 110.113917494459102, 25.204516134783113, 0.0 ], [ 110.114077949582025, 25.205382147683636, 0.0 ], [ 110.114238406864786, 25.206248160358605, 0.0 ], [ 110.114405816103201, 25.207113079735645, 0.0 ], [ 110.114574252454204, 25.207977837681174, 0.0 ], [ 110.114630471441998, 25.208853350085789, 0.0 ], [ 110.114702556752377, 25.209712552276937, 0.0 ], [ 110.115649881787363, 25.209881507079277, 0.0 ], [ 110.116597209723579, 25.210050455443088, 0.0 ], [ 110.118369482917103, 25.209965117550393, 0.0 ], [ 110.119049215321724, 25.209350427959997, 0.0 ], [ 110.118547635619521, 25.208663470286091, 0.0 ], [ 110.117940618469902, 25.207980592345308, 0.0 ], [ 110.117333608190521, 25.207297711931755, 0.0 ], [ 110.116726604859878, 25.206614828987284, 0.0 ], [ 110.116136145146129, 25.205920576226397, 0.0 ] ] ] } },
{ "type": "Feature", "properties": { "OBJECTID": 75 }, "geometry": { "type": "Polygon", "coordinates": [ [ [ 110.121327670188691, 25.199111730130905, 0.0 ], [ 110.121005778616393, 25.198995063092383, 0.0 ], [ 110.120683887743908, 25.198878395215111, 0.0 ], [ 110.120361997541337, 25.198761726567131, 0.0 ], [ 110.120040107897168, 25.198645057402956, 0.0 ], [ 110.119545725203224, 25.198331367508157, 0.0 ], [ 110.119166254254779, 25.198382558495666, 0.0 ], [ 110.119279378980991, 25.198680531560033, 0.0 ], [ 110.119392504283525, 25.198978504526259, 0.0 ], [ 110.119505630170679, 25.199276477391798, 0.0 ], [ 110.119618756587712, 25.199574450173792, 0.0 ], [ 110.119731883534712, 25.199872422872211, 0.0 ], [ 110.119981483661007, 25.200078367218349, 0.0 ], [ 110.121020703828535, 25.200056972685104, 0.0 ], [ 110.121325246979922, 25.199966244682436, 0.0 ], [ 110.121428408504045, 25.199688846102241, 0.0 ], [ 110.121327670188691, 25.199111730130905, 0.0 ] ] ] } },
{ "type": "Feature", "properties": { "OBJECTID": 76 }, "geometry": { "type": "Polygon", "coordinates": [ [ [ 110.123711940875921, 25.203534967484462, 0.0 ], [ 110.123795504135359, 25.202412053107818, 0.0 ], [ 110.123595929888126, 25.202306466347714, 0.0 ], [ 110.122361690741528, 25.202230434098563, 0.0 ], [ 110.122080816232, 25.202240271441134, 0.0 ], [ 110.121951750844786, 25.202781553539758, 0.0 ], [ 110.122040575175447, 25.203277916983485, 0.0 ], [ 110.122169126667941, 25.203439926129747, 0.0 ], [ 110.123711940875921, 25.203534967484462, 0.0 ] ] ] } },
{ "type": "Feature", "properties": { "OBJECTID": 77 }, "geometry": { "type": "Polygon", "coordinates": [ [ [ 110.195910141888845, 25.260810122886262, 0.0 ], [ 110.195515401659989, 25.261017354087002, 0.0 ], [ 110.195120660233954, 25.261224584385761, 0.0 ], [ 110.194725917441033, 25.261431813515362, 0.0 ], [ 110.194386092061237, 25.261647789225805, 0.0 ], [ 110.194597356961239, 25.261715296945809, 0.0 ], [ 110.195155399147168, 25.261330357940164, 0.0 ], [ 110.195549509651173, 25.261122136456521, 0.0 ], [ 110.195943618948633, 25.260913914065235, 0.0 ], [ 110.196329719163302, 25.260693660579431, 0.0 ], [ 110.196721482109012, 25.260481812532653, 0.0 ], [ 110.197112448674119, 25.260268776367134, 0.0 ], [ 110.197493969179618, 25.260322263815016, 0.0 ], [ 110.19787216000158, 25.260553611509465, 0.0 ], [ 110.198250123797195, 25.260785266687094, 0.0 ], [ 110.198695751415968, 25.260849746396886, 0.0 ], [ 110.199149724491008, 25.260886806584093, 0.0 ], [ 110.199603721976032, 25.260923621058026, 0.0 ], [ 110.200058983743119, 25.260941095502371, 0.0 ], [ 110.200714104613496, 25.260998227208432, 0.0 ], [ 110.200810714977337, 25.260820257048572, 0.0 ], [ 110.200418350046206, 25.260744074757255, 0.0 ], [ 110.199963979537799, 25.260711601335966, 0.0 ], [ 110.199508891181281, 25.260691615836357, 0.0 ], [ 110.199054894611749, 25.260654800912825, 0.0 ], [ 110.198601047849621, 25.260616551872033, 0.0 ], [ 110.198181531205577, 25.260483717867245, 0.0 ], [ 110.197802943160411, 25.26025301214786, 0.0 ], [ 110.197532334316591, 25.260018747259291, 0.0 ], [ 110.197902944766, 25.259777777049031, 0.0 ], [ 110.198248465545944, 25.259507937710712, 0.0 ], [ 110.198613214242002, 25.259259837806464, 0.0 ], [ 110.19899457449165, 25.259040766932927, 0.0 ], [ 110.19942071888731, 25.258901507437873, 0.0 ], [ 110.199794175212773, 25.258670133195928, 0.0 ], [ 110.200017647025646, 25.258310223674368, 0.0 ], [ 110.2002444100075, 25.257950793221699, 0.0 ], [ 110.200484232941008, 25.257598324344574, 0.0 ], [ 110.200726585253662, 25.257247294718439, 0.0 ], [ 110.200970198895718, 25.256896982985378, 0.0 ], [ 110.201219354080649, 25.256549949801141, 0.0 ], [ 110.201659099385637, 25.255959998778, 0.0 ], [ 110.201573775235204, 25.255824675098939, 0.0 ], [ 110.201404328289044, 25.256146850474149, 0.0 ], [ 110.201151938494419, 25.25649176760464, 0.0 ], [ 110.200911019429299, 25.256843493750505, 0.0 ], [ 110.200665573240897, 25.257192669724031, 0.0 ], [ 110.200425040874109, 25.257544736407318, 0.0 ], [ 110.200185087104472, 25.257896996739643, 0.0 ], [ 110.199951747148887, 25.258252982392023, 0.0 ], [ 110.199710607425317, 25.258603702716023, 0.0 ], [ 110.199347873117475, 25.258843058400146, 0.0 ], [ 110.198915328878485, 25.258957994269625, 0.0 ], [ 110.198530784733634, 25.259179318457697, 0.0 ], [ 110.198179104387179, 25.259441145512138, 0.0 ], [ 110.197834979611457, 25.259712184984565, 0.0 ], [ 110.197451737673262, 25.259936116418217, 0.0 ], [ 110.197071353988207, 25.260153532151147, 0.0 ], [ 110.196684028045027, 25.260372023524077, 0.0 ], [ 110.196296700764805, 25.260590513885571, 0.0 ], [ 110.195910141888845, 25.260810122886262, 0.0 ] ] ] } }
]
}
