{
"type": "FeatureCollection",
"name": "cultural-relic",
"crs": { "type": "name", "properties": { "name": "urn:ogc:def:crs:OGC:1.3:CRS84" } },
"features": [
{ "type": "Feature", "properties": { "OBJECTID": 1 }, "geometry": { "type": "Polygon", "coordinates": [ [ [ 110.156809, 25.21826 ], [ 110.156905, 25.218065 ], [ 110.157001, 25.217871 ], [ 110.157095, 25.217675 ], [ 110.157189, 25.21748 ], [ 110.157287, 25.217286 ], [ 110.157383, 25.217091 ], [ 110.15748, 25.216897 ], [ 110.157574, 25.216702 ], [ 110.157667, 25.216506 ], [ 110.15776, 25.21631 ], [ 110.157566, 25.216191 ], [ 110.157372, 25.216071 ], [ 110.157178, 25.215952 ], [ 110.156983, 25.215833 ], [ 110.156788, 25.215714 ], [ 110.156593, 25.215595 ], [ 110.156399, 25.215476 ], [ 110.156202, 25.21536 ], [ 110.156002, 25.21525 ], [ 110.155799, 25.215143 ], [ 110.155594, 25.215038 ], [ 110.155453, 25.21516 ], [ 110.155328, 25.21534 ], [ 110.155242, 25.215508 ], [ 110.15546, 25.215582 ], [ 110.155645, 25.215713 ], [ 110.155803, 25.215868 ], [ 110.15569, 25.216204 ], [ 110.1556, 25.216398 ], [ 110.155576, 25.216609 ], [ 110.155633, 25.216814 ], [ 110.155586, 25.216966 ], [ 110.15536, 25.217021 ], [ 110.155175, 25.217151 ], [ 110.155112, 25.21735 ], [ 110.155171, 25.21755 ], [ 110.155289, 25.217733 ], [ 110.155501, 25.217811 ], [ 110.155736, 25.217811 ], [ 110.155962, 25.217863 ], [ 110.156177, 25.217947 ], [ 110.156368, 25.21807 ], [ 110.156493, 25.218248 ], [ 110.156531, 25.218445 ], [ 110.156421, 25.218632 ], [ 110.156475, 25.218776 ], [ 110.156603, 25.218643 ], [ 110.156706, 25.218452 ], [ 110.156809, 25.21826 ] ], [ [ 110.1563, 25.217894 ], [ 110.156314, 25.217786 ], [ 110.156339, 25.217679 ], [ 110.156353, 25.217571 ], [ 110.156347, 25.217259 ], [ 110.156466, 25.217247 ], [ 110.156584, 25.217225 ], [ 110.156695, 25.217183 ], [ 110.156799, 25.217129 ], [ 110.156889, 25.217058 ], [ 110.156964, 25.216973 ], [ 110.157015, 25.216875 ], [ 110.157058, 25.216772 ], [ 110.157083, 25.216667 ], [ 110.157082, 25.216558 ], [ 110.157082, 25.216448 ], [ 110.15705, 25.216344 ], [ 110.15701, 25.21624 ], [ 110.156979, 25.216136 ], [ 110.157062, 25.216094 ], [ 110.157173, 25.216136 ], [ 110.157281, 25.216183 ], [ 110.157372, 25.216253 ], [ 110.157426, 25.21635 ], [ 110.157445, 25.216458 ], [ 110.157463, 25.216566 ], [ 110.157466, 25.216676 ], [ 110.15743, 25.21678 ], [ 110.157385, 25.216881 ], [ 110.157331, 25.216979 ], [ 110.157265, 25.21707 ], [ 110.157186, 25.217152 ], [ 110.157109, 25.217236 ], [ 110.157036, 25.217323 ], [ 110.156979, 25.217419 ], [ 110.156936, 25.217521 ], [ 110.15691, 25.217628 ], [ 110.156884, 25.217735 ], [ 110.156861, 25.217842 ], [ 110.15683, 25.217947 ], [ 110.156787, 25.218049 ], [ 110.156743, 25.218152 ], [ 110.156693, 25.218251 ], [ 110.156562, 25.21824 ], [ 110.156524, 25.218136 ], [ 110.156465, 25.218046 ], [ 110.15637, 25.217978 ], [ 110.1563, 25.217894 ] ] ] } }
]
}
