{
"type": "FeatureCollection",
"name": "prod-service-area",
"crs": { "type": "name", "properties": { "name": "urn:ogc:def:crs:OGC:1.3:CRS84" } },
"features": [
{ "type": "Feature", "properties": { "OBJECTID": 1, "名称": "桂林星莱科技有限公司&桂林赛尔科技", "类型": "研发" }, "geometry": { "type": "Polygon", "coordinates": [ [ [ 110.173716528488427, 25.297350150430852, 0.0 ], [ 110.173857887131362, 25.297292335430416, 0.0 ], [ 110.174010955156476, 25.29730457637918, 0.0 ], [ 110.174166099338009, 25.297321444756307, 0.0 ], [ 110.174322101849356, 25.297328579770706, 0.0 ], [ 110.17447638118648, 25.297309123502874, 0.0 ], [ 110.174597626346298, 25.297231842131403, 0.0 ], [ 110.174633160089471, 25.297123632835049, 0.0 ], [ 110.17449614813475, 25.296991704769109, 0.0 ], [ 110.174609345532815, 25.296937409312477, 0.0 ], [ 110.174520775463463, 25.296875304904475, 0.0 ], [ 110.174331077299513, 25.296769393692593, 0.0 ], [ 110.174219593574946, 25.296676555512416, 0.0 ], [ 110.173939617833881, 25.296263255581518, 0.0 ], [ 110.173905899018692, 25.29612632185658, 0.0 ], [ 110.173868779162788, 25.296004004517044, 0.0 ], [ 110.173720885471809, 25.295963821246442, 0.0 ], [ 110.173568469489879, 25.295932482567544, 0.0 ], [ 110.173417350098674, 25.295928670518951, 0.0 ], [ 110.173269037455, 25.295973415390325, 0.0 ], [ 110.17310821638138, 25.295713598397807, 0.0 ], [ 110.173253250731875, 25.295698610671419, 0.0 ], [ 110.173279602031272, 25.295572510849453, 0.0 ], [ 110.172792315971449, 25.295216618625719, 0.0 ], [ 110.172690816405307, 25.295297098506296, 0.0 ], [ 110.172201465090453, 25.295850834897873, 0.0 ], [ 110.172100736468238, 25.295959424331787, 0.0 ], [ 110.171994170858667, 25.296063307338876, 0.0 ], [ 110.171882030223799, 25.296162221504062, 0.0 ], [ 110.171764596252189, 25.296255921647592, 0.0 ], [ 110.171642159753048, 25.296344171461126, 0.0 ], [ 110.171515028563803, 25.296426753191405, 0.0 ], [ 110.171383519159761, 25.296503459839947, 0.0 ], [ 110.171247959266807, 25.296574099146515, 0.0 ], [ 110.171108688070632, 25.296638496129216, 0.0 ], [ 110.17096659887963, 25.296697615670482, 0.0 ], [ 110.170539501404249, 25.296873337930602, 0.0 ], [ 110.170431325819209, 25.29696065301399, 0.0 ], [ 110.170378215468745, 25.297094257213836, 0.0 ], [ 110.170414995341261, 25.297188735671622, 0.0 ], [ 110.170534215280199, 25.297277880912933, 0.0 ], [ 110.170649092511681, 25.297374187599363, 0.0 ], [ 110.17072751021918, 25.297494092805088, 0.0 ], [ 110.170833897781279, 25.298265366736555, 0.0 ], [ 110.170949868519884, 25.298529204184433, 0.0 ], [ 110.171009726135182, 25.298660417569636, 0.0 ], [ 110.171077187195806, 25.298788538183391, 0.0 ], [ 110.171152459075941, 25.29891301134186, 0.0 ], [ 110.171235305392159, 25.299033443143294, 0.0 ], [ 110.17132546181989, 25.299149454799387, 0.0 ], [ 110.17142264738159, 25.299260677393285, 0.0 ], [ 110.171526551667796, 25.299366762018362, 0.0 ], [ 110.171636848316069, 25.299467372230712, 0.0 ], [ 110.171753188581135, 25.299562190511498, 0.0 ], [ 110.171875205109771, 25.299650917179431, 0.0 ], [ 110.172002511660679, 25.299733273027773, 0.0 ], [ 110.172313179229008, 25.299897129140916, 0.0 ], [ 110.172361411570179, 25.299819347585338, 0.0 ], [ 110.172605176332368, 25.299415008878061, 0.0 ], [ 110.172728694475865, 25.29923346282991, 0.0 ], [ 110.172769245207206, 25.299103995541561, 0.0 ], [ 110.172777903936719, 25.298989407382905, 0.0 ], [ 110.172752100575337, 25.29884310081378, 0.0 ], [ 110.172892001784774, 25.298246253503244, 0.0 ], [ 110.172884883374948, 25.298173546522108, 0.0 ], [ 110.172885753792613, 25.298171782038178, 0.0 ], [ 110.172960993787129, 25.298047799577478, 0.0 ], [ 110.173050731383526, 25.297931506155567, 0.0 ], [ 110.173139812187699, 25.297814917226713, 0.0 ], [ 110.173231016635881, 25.29770047071916, 0.0 ], [ 110.173336541811878, 25.29759598675129, 0.0 ], [ 110.173454488217558, 25.297503389517441, 0.0 ], [ 110.173579955041873, 25.297419189514113, 0.0 ], [ 110.173716528488427, 25.297350150430852, 0.0 ] ] ] } },
{ "type": "Feature", "properties": { "OBJECTID": 2, "名称": "广西汇通药业医药物流配送中心", "类型": "第三方物流" }, "geometry": { "type": "Polygon", "coordinates": [ [ [ 110.168121232253583, 25.215191794975397, 0.0 ], [ 110.167400387896649, 25.214857281158736, 0.0 ], [ 110.166835187226752, 25.21532299926, 0.0 ], [ 110.166793865314844, 25.215825111525081, 0.0 ], [ 110.167432559279462, 25.216278966315933, 0.0 ], [ 110.168166163916638, 25.216088497745652, 0.0 ], [ 110.168956079435603, 25.215928667516973, 0.0 ], [ 110.169764670684117, 25.215884478170178, 0.0 ], [ 110.169551887822976, 25.215768290402288, 0.0 ], [ 110.168772205889212, 25.21556719217913, 0.0 ], [ 110.168121232253583, 25.215191794975397, 0.0 ] ] ] } },
{ "type": "Feature", "properties": { "OBJECTID": 3, "名称": "桂林中辰电商物流交流中心（内含顺", "类型": "第三方物流" }, "geometry": { "type": "Polygon", "coordinates": [ [ [ 110.141527946506798, 25.202241274019801, 0.0 ], [ 110.141314997370799, 25.202057490391638, 0.0 ], [ 110.141300757306013, 25.2020670787882, 0.0 ], [ 110.141285729578073, 25.202078349678036, 0.0 ], [ 110.141259546402679, 25.202090434075583, 0.0 ], [ 110.141258728567749, 25.202090336352757, 0.0 ], [ 110.141257270345392, 25.202090161795979, 0.0 ], [ 110.141139822447897, 25.202076109574264, 0.0 ], [ 110.141138752824148, 25.202075981052104, 0.0 ], [ 110.141136708733342, 25.202075736746252, 0.0 ], [ 110.141135783836688, 25.20207562621507, 0.0 ], [ 110.141075921272758, 25.202047834570667, 0.0 ], [ 110.141057998286101, 25.202044847381362, 0.0 ], [ 110.141056026132915, 25.202043824498123, 0.0 ], [ 110.141054511674554, 25.202043039415738, 0.0 ], [ 110.14095652181588, 25.201992227827859, 0.0 ], [ 110.140889698446173, 25.201910787251311, 0.0 ], [ 110.140889641881628, 25.201910718320686, 0.0 ], [ 110.140888838606216, 25.201899216044382, 0.0 ], [ 110.140886291766648, 25.201864864579282, 0.0 ], [ 110.140846688193534, 25.201856687501273, 0.0 ], [ 110.140804646016804, 25.201728065382284, 0.0 ], [ 110.140744605312534, 25.20162264711913, 0.0 ], [ 110.1406719805032, 25.201577985852524, 0.0 ], [ 110.140558696726856, 25.201573892033029, 0.0 ], [ 110.140489683006138, 25.201571396778487, 0.0 ], [ 110.140337400879886, 25.201562111508284, 0.0 ], [ 110.140289189549748, 25.201559172018445, 0.0 ], [ 110.140169929089282, 25.201558476869184, 0.0 ], [ 110.140143320938364, 25.201558322164395, 0.0 ], [ 110.140138578764748, 25.201570996798281, 0.0 ], [ 110.140130932659986, 25.201591430045251, 0.0 ], [ 110.140027107536255, 25.201562543342376, 0.0 ], [ 110.139920800088177, 25.201551736816644, 0.0 ], [ 110.139870553457342, 25.201531067979147, 0.0 ], [ 110.139780899666547, 25.201423614920987, 0.0 ], [ 110.139780829528803, 25.201423571636745, 0.0 ], [ 110.139779683675187, 25.201422855933661, 0.0 ], [ 110.13977911688913, 25.20142261252974, 0.0 ], [ 110.139759834466943, 25.20139934177012, 0.0 ], [ 110.139736842829549, 25.201390980751693, 0.0 ], [ 110.139728744843268, 25.201388035661445, 0.0 ], [ 110.139718686513731, 25.201384931582616, 0.0 ], [ 110.139668436261715, 25.201388791489805, 0.0 ], [ 110.139632708192522, 25.201392195174087, 0.0 ], [ 110.138744827417, 25.20237573813003, 0.0 ], [ 110.137022285168229, 25.20112573158012, 0.0 ], [ 110.136518858994606, 25.201759056607919, 0.0 ], [ 110.13651594495812, 25.201762729657748, 0.0 ], [ 110.136513036835908, 25.201766408157987, 0.0 ], [ 110.13651013662485, 25.201770090314994, 0.0 ], [ 110.136507242328037, 25.201773777922401, 0.0 ], [ 110.136504355942392, 25.201777469186595, 0.0 ], [ 110.136501476463053, 25.201781165906976, 0.0 ], [ 110.136498603902822, 25.201784866278324, 0.0 ], [ 110.136495738248982, 25.201788572105897, 0.0 ], [ 110.136492879514094, 25.201792281584439, 0.0 ], [ 110.136490027685596, 25.201795996519198, 0.0 ], [ 110.136487183768324, 25.201799715110706, 0.0 ], [ 110.136484345771535, 25.20180343825001, 0.0 ], [ 110.136481515679677, 25.201807165948711, 0.0 ], [ 110.136478692500432, 25.201810898201007, 0.0 ], [ 110.136475876233931, 25.20181463500689, 0.0 ], [ 110.136473067872231, 25.201818376372167, 0.0 ], [ 110.136470265437524, 25.201822121382612, 0.0 ], [ 110.136467470901238, 25.201825871855078, 0.0 ], [ 110.136464683284004, 25.201829625978512, 0.0 ], [ 110.136461903571544, 25.201833384661331, 0.0 ], [ 110.136459129779738, 25.201837147891954, 0.0 ], [ 110.136456363899171, 25.201840914779339, 0.0 ], [ 110.136453604924824, 25.20184468712295, 0.0 ], [ 110.136450852869601, 25.201848463117532, 0.0 ], [ 110.13644810871925, 25.201852243671521, 0.0 ], [ 110.136445371487952, 25.201856027876463, 0.0 ], [ 110.136442641162944, 25.201859817537624, 0.0 ], [ 110.136439917757016, 25.201863610849777, 0.0 ], [ 110.1364372022623, 25.201867407818693, 0.0 ], [ 110.136434493673903, 25.201871210243834, 0.0 ], [ 110.136431792996675, 25.201875016325744, 0.0 ], [ 110.136429098240072, 25.201878826955465, 0.0 ], [ 110.136426412386768, 25.201882641247746, 0.0 ], [ 110.136423732454105, 25.201886460087831, 0.0 ], [ 110.136421060426159, 25.201890283487316, 0.0 ], [ 110.136418395317421, 25.201894110537772, 0.0 ], [ 110.136415737121268, 25.201897942141844, 0.0 ], [ 110.136413086836384, 25.201901777402686, 0.0 ], [ 110.136410444456274, 25.201905617222916, 0.0 ], [ 110.136407807996747, 25.201909461590965, 0.0 ], [ 110.13640517944846, 25.201913309615794, 0.0 ], [ 110.136402558804974, 25.201917162200019, 0.0 ], [ 110.136399945080555, 25.201921018435225, 0.0 ], [ 110.136397338268878, 25.201924879224016, 0.0 ], [ 110.136394739368384, 25.201928743669612, 0.0 ], [ 110.136392147386928, 25.201932611766189, 0.0 ], [ 110.136389563303993, 25.201936485324783, 0.0 ], [ 110.136386986146491, 25.201940361631735, 0.0 ], [ 110.13638441689379, 25.201944242498083, 0.0 ], [ 110.136381854553761, 25.201948127918044, 0.0 ], [ 110.136379299132869, 25.201952016989001, 0.0 ], [ 110.136376751623146, 25.201955909716737, 0.0 ], [ 110.13637421202462, 25.201959806101243, 0.0 ], [ 110.136371679338836, 25.201963707039351, 0.0 ], [ 110.136369154557869, 25.201967612536869, 0.0 ], [ 110.136366636695968, 25.201971521685387, 0.0 ], [ 110.13636412575319, 25.20197543448489, 0.0 ], [ 110.13636162371364, 25.201979350946967, 0.0 ], [ 110.136359127594801, 25.201983271956863, 0.0 ], [ 110.136356639387074, 25.201987196623541, 0.0 ], [ 110.136354159090601, 25.201991124946993, 0.0 ], [ 110.13635168669893, 25.201995057829865, 0.0 ], [ 110.136349221226325, 25.201998994363723, 0.0 ], [ 110.136346762672858, 25.20200293454856, 0.0 ], [ 110.136344312030502, 25.202006878390193, 0.0 ], [ 110.1363418692994, 25.202010825888625, 0.0 ], [ 110.136339433481069, 25.202014777940647, 0.0 ], [ 110.13633700557385, 25.202018733649464, 0.0 ], [ 110.136334585577885, 25.202022693015085, 0.0 ], [ 110.136332172494605, 25.202026656934301, 0.0 ], [ 110.136329767328945, 25.202030623607687, 0.0 ], [ 110.136327369076, 25.202034594834704, 0.0 ], [ 110.136324978740546, 25.202038568815876, 0.0 ], [ 110.136322596310038, 25.202042547356449, 0.0 ], [ 110.136320220798524, 25.202046529548042, 0.0 ], [ 110.136317853198264, 25.202050515396401, 0.0 ], [ 110.136315493509215, 25.202054504901557, 0.0 ], [ 110.136313140739219, 25.202058498057713, 0.0 ], [ 110.13631079588049, 25.202062494870653, 0.0 ], [ 110.136308458926493, 25.202066496243024, 0.0 ], [ 110.136306129890158, 25.202070500369551, 0.0 ], [ 110.136303807772876, 25.202074508147078, 0.0 ], [ 110.136301493566862, 25.202078519581399, 0.0 ], [ 110.136299186273533, 25.202082535569346, 0.0 ], [ 110.136296887889912, 25.202086554317248, 0.0 ], [ 110.136294596425344, 25.202090576716149, 0.0 ], [ 110.136292312871973, 25.202094602771854, 0.0 ], [ 110.136290036237739, 25.20209863247857, 0.0 ], [ 110.136287767514716, 25.202102665842069, 0.0 ], [ 110.136285507695007, 25.202106702868146, 0.0 ], [ 110.136283253802333, 25.202110743539432, 0.0 ], [ 110.136281008819239, 25.202114786970697, 0.0 ], [ 110.136278770748959, 25.202118834955591, 0.0 ], [ 110.136276541588344, 25.20212288570044, 0.0 ], [ 110.136274319346896, 25.202126940096303, 0.0 ], [ 110.136272104024442, 25.202130998143154, 0.0 ], [ 110.136269897605374, 25.202135059852612, 0.0 ], [ 110.136267698111766, 25.20213912431046, 0.0 ], [ 110.136265507515105, 25.202143193333502, 0.0 ], [ 110.136263323843963, 25.202147265104944, 0.0 ], [ 110.136261148083946, 25.202151340533174, 0.0 ], [ 110.136258979249533, 25.202155418709786, 0.0 ], [ 110.13625681931201, 25.202159501451625, 0.0 ], [ 110.136254667292036, 25.202163586947638, 0.0 ], [ 110.136252522197523, 25.202167675192051, 0.0 ], [ 110.136250385007926, 25.202171767995857, 0.0 ], [ 110.136248255735893, 25.202175863553862, 0.0 ], [ 110.136246134375057, 25.202179962768668, 0.0 ], [ 110.136244020931898, 25.202184064737665, 0.0 ], [ 110.13624191539985, 25.202188170363449, 0.0 ], [ 110.136239816786954, 25.202192279640236, 0.0 ], [ 110.136237727083767, 25.202196391677017, 0.0 ], [ 110.136235644299674, 25.2022005073648, 0.0 ], [ 110.136233570425262, 25.202204625812552, 0.0 ], [ 110.136231503470029, 25.202208747911328, 0.0 ], [ 110.136229444425993, 25.202212873666902, 0.0 ], [ 110.136227393299535, 25.202217002176653, 0.0 ], [ 110.136225350090669, 25.202221133440606, 0.0 ], [ 110.136223314793085, 25.202225268361349, 0.0 ], [ 110.136221287406642, 25.202229406938901, 0.0 ], [ 110.136219267937847, 25.202233548270652, 0.0 ], [ 110.13621725638663, 25.202237692356583, 0.0 ], [ 110.136215252746638, 25.202241840099308, 0.0 ], [ 110.136213257017857, 25.202245991498856, 0.0 ], [ 110.136211269213106, 25.202250144749947, 0.0 ], [ 110.1362092893132, 25.20225430256049, 0.0 ], [ 110.136207316345121, 25.202258462216797, 0.0 ], [ 110.136205352280385, 25.20226262553571, 0.0 ], [ 110.136203396126874, 25.202266792511423, 0.0 ], [ 110.136201447897307, 25.202270961338709, 0.0 ], [ 110.13619950757267, 25.202275134725426, 0.0 ], [ 110.136197575172005, 25.202279309963721, 0.0 ], [ 110.136195650682538, 25.202283488858814, 0.0 ], [ 110.136193734110677, 25.202287670508106, 0.0 ], [ 110.136191825456407, 25.202291854911582, 0.0 ], [ 110.136189924719787, 25.202296042069246, 0.0 ], [ 110.136188031894335, 25.202300232883744, 0.0 ], [ 110.136186146986532, 25.202304426452397, 0.0 ], [ 110.136184269989968, 25.202308623677894, 0.0 ], [ 110.13618240190948, 25.202312822760739, 0.0 ], [ 110.136180540748171, 25.202317025494612, 0.0 ], [ 110.136178687504398, 25.202321230982669, 0.0 ], [ 110.136176843170404, 25.202325439230716, 0.0 ], [ 110.136175006754002, 25.202329650232965, 0.0 ], [ 110.136173177263089, 25.20233386398359, 0.0 ], [ 110.136171356675518, 25.202338081396856, 0.0 ], [ 110.13616954400554, 25.202342301564293, 0.0 ], [ 110.136167739259548, 25.202346523583316, 0.0 ], [ 110.136165943416984, 25.202350749264941, 0.0 ], [ 110.13616415449988, 25.20235497769497, 0.0 ], [ 110.136162373500397, 25.20235920887918, 0.0 ], [ 110.136160601410623, 25.202363442823401, 0.0 ], [ 110.136158837238455, 25.202367679521807, 0.0 ], [ 110.136157080983907, 25.202371918974425, 0.0 ], [ 110.136155332647022, 25.202376161181217, 0.0 ], [ 110.136153592227672, 25.202380406142218, 0.0 ], [ 110.136151859726013, 25.202384653857415, 0.0 ], [ 110.136150136134063, 25.202388904332615, 0.0 ], [ 110.136148419467617, 25.202393157556209, 0.0 ], [ 110.136146711710964, 25.202397413539796, 0.0 ], [ 110.136145011871847, 25.202401672277581, 0.0 ], [ 110.136143319950335, 25.202405933769569, 0.0 ], [ 110.136141636945013, 25.202410197118908, 0.0 ], [ 110.136139960858799, 25.2024144641193, 0.0 ], [ 110.136138293688688, 25.202418732977065, 0.0 ], [ 110.136136634436198, 25.202423004589004, 0.0 ], [ 110.136134984093445, 25.202427278960965, 0.0 ], [ 110.136133340676182, 25.202431556081319, 0.0 ], [ 110.136131706168726, 25.202435835961683, 0.0 ], [ 110.136130079585186, 25.202440117693602, 0.0 ], [ 110.136128460919338, 25.202444402179744, 0.0 ], [ 110.136126850171095, 25.202448689420081, 0.0 ], [ 110.136125248332604, 25.202452979420404, 0.0 ], [ 110.1361236544181, 25.20245727127233, 0.0 ], [ 110.136122068414835, 25.202461566781071, 0.0 ], [ 110.136120490342009, 25.202465863238768, 0.0 ], [ 110.136118921172496, 25.202470163359077, 0.0 ], [ 110.13611735992697, 25.20247446533099, 0.0 ], [ 110.136115806599122, 25.202478770057098, 0.0 ], [ 110.136114261188922, 25.202483077537405, 0.0 ], [ 110.136112724694812, 25.202487386875092, 0.0 ], [ 110.13611119611835, 25.202491698966988, 0.0 ], [ 110.136109675465875, 25.202496012910469, 0.0 ], [ 110.136108163723222, 25.202500329613947, 0.0 ], [ 110.136106659898118, 25.202504649071621, 0.0 ], [ 110.136105163997101, 25.202508970380887, 0.0 ], [ 110.136103676013619, 25.202513294444365, 0.0 ], [ 110.136102196946339, 25.202517620365214, 0.0 ], [ 110.136100725796695, 25.202521949040278, 0.0 ], [ 110.136099262571051, 25.202526279566925, 0.0 ], [ 110.136097808255158, 25.202530612853568, 0.0 ], [ 110.136096361863267, 25.202534947991808, 0.0 ], [ 110.136094924381126, 25.202539285890047, 0.0 ], [ 110.136093493830955, 25.202543625634085, 0.0 ], [ 110.136092073188934, 25.20254796724128, 0.0 ], [ 110.136090659472515, 25.202552311596911, 0.0 ], [ 110.136089254665862, 25.202556658712531, 0.0 ], [ 110.136087857783153, 25.202561007679744, 0.0 ], [ 110.136086468824573, 25.202565358498557, 0.0 ], [ 110.136085088781982, 25.202569711174728, 0.0 ], [ 110.136083716657197, 25.202574066605127, 0.0 ], [ 110.136082353448458, 25.202578423892913, 0.0 ], [ 110.136080998157354, 25.202582783934897, 0.0 ], [ 110.13607965079035, 25.202587145828485, 0.0 ], [ 110.136078312339407, 25.202591509579456, 0.0 ], [ 110.136076981812536, 25.202595875181991, 0.0 ], [ 110.136075659203243, 25.202600243538772, 0.0 ], [ 110.136074345510167, 25.202604613752918, 0.0 ], [ 110.136073039741106, 25.20260898581866, 0.0 ], [ 110.136071742888177, 25.202613359741793, 0.0 ], [ 110.136070453952911, 25.202617736419132, 0.0 ], [ 110.136069173933777, 25.202622114953858, 0.0 ], [ 110.136067901838658, 25.202626495340176, 0.0 ], [ 110.136066637667639, 25.202630877578098, 0.0 ], [ 110.136065382412681, 25.2026352616734, 0.0 ], [ 110.136064135081838, 25.202639647620295, 0.0 ], [ 110.13606289566863, 25.202644036321402, 0.0 ], [ 110.136061665177877, 25.202648425977273, 0.0 ], [ 110.136060443596975, 25.202652818393148, 0.0 ], [ 110.136059229940088, 25.202657212660633, 0.0 ], [ 110.136058024213611, 25.202661607877086, 0.0 ], [ 110.136056827396899, 25.202666005853544, 0.0 ], [ 110.136055638504217, 25.202670405681591, 0.0 ], [ 110.136054457535565, 25.202674807361255, 0.0 ], [ 110.136053286475189, 25.20267921090408, 0.0 ], [ 110.135468183361155, 25.204885941413103, 0.0 ], [ 110.135460701534328, 25.204914158961788, 0.0 ], [ 110.135562433867719, 25.20512145225236, 0.0 ], [ 110.135577812233933, 25.205130199535439, 0.0 ], [ 110.1379631036109, 25.206486938892862, 0.0 ], [ 110.13799947809882, 25.206507627726886, 0.0 ], [ 110.138344473998487, 25.206439343171287, 0.0 ], [ 110.138365887603939, 25.206411106458248, 0.0 ], [ 110.141527946506798, 25.202241274019801, 0.0 ] ] ] } },
{ "type": "Feature", "properties": { "OBJECTID": 4, "名称": "恒晟（桂林）检测科技有限公司", "类型": "检测" }, "geometry": { "type": "Polygon", "coordinates": [ [ [ 110.135790679749107, 25.196083555097349, 0.0 ], [ 110.135602138368213, 25.195945223462981, 0.0 ], [ 110.135370898821307, 25.195953005686452, 0.0 ], [ 110.135195277428764, 25.196069837423913, 0.0 ], [ 110.135089057251179, 25.196267870172512, 0.0 ], [ 110.134984690781494, 25.196466732300724, 0.0 ], [ 110.134880323964694, 25.196665594340992, 0.0 ], [ 110.134775956800908, 25.196864456293316, 0.0 ], [ 110.134671589290065, 25.197063318157699, 0.0 ], [ 110.134567221432079, 25.197262179934143, 0.0 ], [ 110.134462900532242, 25.197461062115909, 0.0 ], [ 110.134364478627745, 25.19766239766226, 0.0 ], [ 110.134276159157665, 25.197867574937462, 0.0 ], [ 110.134198122046158, 25.198076174335451, 0.0 ], [ 110.134130527587487, 25.19828776970661, 0.0 ], [ 110.134073511371042, 25.198501927967854, 0.0 ], [ 110.134027193086737, 25.198718212148872, 0.0 ], [ 110.133991664725258, 25.198936179737299, 0.0 ], [ 110.133967000860395, 25.199155385560847, 0.0 ], [ 110.133953250560637, 25.199375381492423, 0.0 ], [ 110.133950364767614, 25.199595718559763, 0.0 ], [ 110.133951784806925, 25.199816084941798, 0.0 ], [ 110.133953204838463, 25.200036451317462, 0.0 ], [ 110.133954624862511, 25.200256817686764, 0.0 ], [ 110.133956044878857, 25.200477184049696, 0.0 ], [ 110.133957035486603, 25.200697550978127, 0.0 ], [ 110.133949563649253, 25.200917794841207, 0.0 ], [ 110.133930517472677, 25.201137461137535, 0.0 ], [ 110.133899935000684, 25.201356046059427, 0.0 ], [ 110.133857899405314, 25.201573050484011, 0.0 ], [ 110.132998571816941, 25.203381244111206, 0.0 ], [ 110.132978628868329, 25.203583105314323, 0.0 ], [ 110.133128602934235, 25.203737033133422, 0.0 ], [ 110.133333983517858, 25.203853861005214, 0.0 ], [ 110.133539364499143, 25.203970688600336, 0.0 ], [ 110.133744745878204, 25.204087515918783, 0.0 ], [ 110.133950127654956, 25.204204342960551, 0.0 ], [ 110.134155509829384, 25.204321169725631, 0.0 ], [ 110.134360892401432, 25.204437996214011, 0.0 ], [ 110.134566275371256, 25.204554822425706, 0.0 ], [ 110.134771658738686, 25.204671648360698, 0.0 ], [ 110.134977042503877, 25.204788474018976, 0.0 ], [ 110.135189881994819, 25.20483850559653, 0.0 ], [ 110.135318150531191, 25.204681950951805, 0.0 ], [ 110.135374952341806, 25.204467725789694, 0.0 ], [ 110.135431753942242, 25.204253500594344, 0.0 ], [ 110.135488555332429, 25.204039275365758, 0.0 ], [ 110.135545356512537, 25.203825050103941, 0.0 ], [ 110.135602157482467, 25.203610824808901, 0.0 ], [ 110.13699805651494, 25.200848148908243, 0.0 ], [ 110.137139996711682, 25.200669582001392, 0.0 ], [ 110.137281936490339, 25.200491014943072, 0.0 ], [ 110.137423875850871, 25.200312447733275, 0.0 ], [ 110.137565814793405, 25.200133880372015, 0.0 ], [ 110.137707753317756, 25.199955312859288, 0.0 ], [ 110.137849691424009, 25.199776745195091, 0.0 ], [ 110.137991629112207, 25.199598177379453, 0.0 ], [ 110.138133566382322, 25.199419609412349, 0.0 ], [ 110.138275503234354, 25.199241041293796, 0.0 ], [ 110.138417439668302, 25.199062473023794, 0.0 ], [ 110.138559375684295, 25.198883904602347, 0.0 ], [ 110.138701311282063, 25.198705336029462, 0.0 ], [ 110.138829860982128, 25.198523941863975, 0.0 ], [ 110.138788830671842, 25.198306756341026, 0.0 ], [ 110.138618851913094, 25.198158501816724, 0.0 ], [ 110.138430304100723, 25.198020173657028, 0.0 ], [ 110.138241756717164, 25.197881845265659, 0.0 ], [ 110.138053209762376, 25.197743516642621, 0.0 ], [ 110.137864663236357, 25.197605187787911, 0.0 ], [ 110.137676117139051, 25.197466858701539, 0.0 ], [ 110.137487571470601, 25.197328529383505, 0.0 ], [ 110.137299026230906, 25.197190199833827, 0.0 ], [ 110.137110481420081, 25.197051870052483, 0.0 ], [ 110.136921937037883, 25.19691354003951, 0.0 ], [ 110.136733393084512, 25.196775209794897, 0.0 ], [ 110.136544849559911, 25.196636879318635, 0.0 ], [ 110.136356306463995, 25.196498548610748, 0.0 ], [ 110.136167763796919, 25.196360217671238, 0.0 ], [ 110.1359792215586, 25.196221886500108, 0.0 ], [ 110.135790679749107, 25.196083555097349, 0.0 ] ] ] } },
{ "type": "Feature", "properties": { "OBJECTID": 5, "名称": "华为云计算数据中心", "类型": "研发" }, "geometry": { "type": "Polygon", "coordinates": [ [ [ 110.135165416864467, 25.21788551029228, 0.0 ], [ 110.134906944372176, 25.217685930769544, 0.0 ], [ 110.134788997081685, 25.217687243318469, 0.0 ], [ 110.134671049791677, 25.217688555773186, 0.0 ], [ 110.134553102502082, 25.217689868133728, 0.0 ], [ 110.134435155212969, 25.217691180400074, 0.0 ], [ 110.134317207924425, 25.217692492572226, 0.0 ], [ 110.134199260636294, 25.217693804650189, 0.0 ], [ 110.134081313348716, 25.217695116633958, 0.0 ], [ 110.133963366061565, 25.217696428523549, 0.0 ], [ 110.133845418775053, 25.217697740318933, 0.0 ], [ 110.133727471488868, 25.217699052020141, 0.0 ], [ 110.13360952420318, 25.217700363627152, 0.0 ], [ 110.133491576918075, 25.217701675139974, 0.0 ], [ 110.133373629633439, 25.217702986558599, 0.0 ], [ 110.13325568234923, 25.217704297883039, 0.0 ], [ 110.133137735065588, 25.217705609113285, 0.0 ], [ 110.133019787782459, 25.217706920249341, 0.0 ], [ 110.132901840499727, 25.217708231291208, 0.0 ], [ 110.132783893217493, 25.217709542238882, 0.0 ], [ 110.132665945935841, 25.21771085309237, 0.0 ], [ 110.132547998654672, 25.217712163851669, 0.0 ], [ 110.13243005137393, 25.217713474516771, 0.0 ], [ 110.132312108571739, 25.217715073251462, 0.0 ], [ 110.132194178367286, 25.217717312232935, 0.0 ], [ 110.13207626496424, 25.217720192083277, 0.0 ], [ 110.1319583725748, 25.217723712503091, 0.0 ], [ 110.131840505380993, 25.217727873116146, 0.0 ], [ 110.131722667602531, 25.217732674033041, 0.0 ], [ 110.131604863462314, 25.217738115439111, 0.0 ], [ 110.131487097182202, 25.217744197320386, 0.0 ], [ 110.13136937284969, 25.217750917782048, 0.0 ], [ 110.131251694795637, 25.217758278532376, 0.0 ], [ 110.131134067131995, 25.217766278135489, 0.0 ], [ 110.131540802076245, 25.219387026868795, 0.0 ], [ 110.131613969536588, 25.219469651648453, 0.0 ], [ 110.131703778598663, 25.219538708585699, 0.0 ], [ 110.131803475079749, 25.219596058798359, 0.0 ], [ 110.131903713845233, 25.219652619745382, 0.0 ], [ 110.13200407481132, 25.219709002890447, 0.0 ], [ 110.132104435797345, 25.219765386078262, 0.0 ], [ 110.13220479685215, 25.219821769237043, 0.0 ], [ 110.132305943571495, 25.219876913117641, 0.0 ], [ 110.132409859624502, 25.219927688537702, 0.0 ], [ 110.132513775765503, 25.219978463886651, 0.0 ], [ 110.132625711269853, 25.220000139249024, 0.0 ], [ 110.132743395608045, 25.219992831519882, 0.0 ], [ 110.1328610469658, 25.219985096879793, 0.0 ], [ 110.13297866335769, 25.219976934102757, 0.0 ], [ 110.133096242908863, 25.219968343416795, 0.0 ], [ 110.133213783837903, 25.219959326040168, 0.0 ], [ 110.133331284114249, 25.219949880491178, 0.0 ], [ 110.133448742047932, 25.219940008834289, 0.0 ], [ 110.133566155610737, 25.21992970969216, 0.0 ], [ 110.133683523014142, 25.219918984071064, 0.0 ], [ 110.133800842301952, 25.219907831406022, 0.0 ], [ 110.133918111669018, 25.219896252502057, 0.0 ], [ 110.1340353291626, 25.219884246896818, 0.0 ], [ 110.13415249305946, 25.219871815973967, 0.0 ], [ 110.13426960137069, 25.219858958982737, 0.0 ], [ 110.134386652123709, 25.219845675453019, 0.0 ], [ 110.134503643653161, 25.219831967075763, 0.0 ], [ 110.134620574137685, 25.219817834392412, 0.0 ], [ 110.134737441337293, 25.219803274998302, 0.0 ], [ 110.134854243913551, 25.219788292764072, 0.0 ], [ 110.134958234672624, 25.21975162304415, 0.0 ], [ 110.13503579629861, 25.21967077844209, 0.0 ], [ 110.135113357821723, 25.219589933795731, 0.0 ], [ 110.135150140893231, 25.219494995546636, 0.0 ], [ 110.135151159334654, 25.219387696540913, 0.0 ], [ 110.135152177771261, 25.219280397533602, 0.0 ], [ 110.135153196203007, 25.219173098524685, 0.0 ], [ 110.135154214629935, 25.219065799514173, 0.0 ], [ 110.135155233052146, 25.21895850050208, 0.0 ], [ 110.135156251469468, 25.218851201488391, 0.0 ], [ 110.135157269882001, 25.218743902473097, 0.0 ], [ 110.135158288289801, 25.218636603456218, 0.0 ], [ 110.135159306692799, 25.218529304437748, 0.0 ], [ 110.135160325090908, 25.218422005417679, 0.0 ], [ 110.135161343484228, 25.218314706396015, 0.0 ], [ 110.135162361872815, 25.218207407372748, 0.0 ], [ 110.135163380256515, 25.218100108347908, 0.0 ], [ 110.135164398635496, 25.217992809321466, 0.0 ], [ 110.135165416864467, 25.21788551029228, 0.0 ] ] ] } },
{ "type": "Feature", "properties": { "OBJECTID": 6, "名称": "华为云计算数据中心", "类型": "研发" }, "geometry": { "type": "Polygon", "coordinates": [ [ [ 110.131263609310849, 25.215630433872668, 0.0 ], [ 110.13114441089607, 25.215622942229576, 0.0 ], [ 110.131076900327386, 25.21566570517772, 0.0 ], [ 110.131077198556667, 25.215774398302653, 0.0 ], [ 110.131077496905931, 25.21588309142577, 0.0 ], [ 110.131077795252637, 25.21599178454732, 0.0 ], [ 110.131078093596741, 25.216100477667315, 0.0 ], [ 110.131078391938289, 25.216209170785731, 0.0 ], [ 110.131078690277235, 25.216317863902582, 0.0 ], [ 110.131078988613538, 25.216426557017876, 0.0 ], [ 110.131079286947411, 25.216535250131589, 0.0 ], [ 110.131079585278627, 25.216643943243746, 0.0 ], [ 110.131079883607256, 25.216752636354332, 0.0 ], [ 110.131080181967391, 25.216861329463281, 0.0 ], [ 110.131080481010883, 25.216970022569104, 0.0 ], [ 110.131080780051718, 25.217078715673356, 0.0 ], [ 110.131081079089981, 25.217187408776038, 0.0 ], [ 110.131081378125657, 25.21729610187716, 0.0 ], [ 110.131081677158761, 25.217404794976719, 0.0 ], [ 110.131118649328471, 25.21758629623243, 0.0 ], [ 110.131237801169689, 25.217578193671269, 0.0 ], [ 110.131357004263862, 25.217570741104705, 0.0 ], [ 110.131476254196073, 25.217563936874576, 0.0 ], [ 110.131595546838398, 25.217557783324185, 0.0 ], [ 110.131714877856197, 25.217552279944631, 0.0 ], [ 110.131834242961801, 25.217547426746876, 0.0 ], [ 110.131953637881395, 25.217543224077634, 0.0 ], [ 110.13207305831591, 25.21753967160145, 0.0 ], [ 110.132192500010007, 25.217536770363733, 0.0 ], [ 110.132311958668083, 25.217534520141403, 0.0 ], [ 110.132431429966502, 25.21753291860653, 0.0 ], [ 110.132550905506278, 25.217531590937984, 0.0 ], [ 110.132670381046637, 25.217530263172794, 0.0 ], [ 110.132789856587507, 25.217528935310963, 0.0 ], [ 110.132909332128889, 25.217527607352483, 0.0 ], [ 110.133028807670783, 25.217526279297342, 0.0 ], [ 110.133148283213089, 25.217524951145577, 0.0 ], [ 110.133267758756006, 25.217523622897147, 0.0 ], [ 110.133387234299406, 25.217522294552072, 0.0 ], [ 110.133506709843317, 25.217520966110364, 0.0 ], [ 110.133626185387726, 25.217519637571993, 0.0 ], [ 110.133745660932576, 25.217518308936988, 0.0 ], [ 110.133865136478008, 25.217516980205325, 0.0 ], [ 110.133984612023937, 25.217515651377024, 0.0 ], [ 110.134104087570364, 25.217514322452072, 0.0 ], [ 110.134223563117303, 25.217512993430471, 0.0 ], [ 110.134343038664653, 25.21751166431223, 0.0 ], [ 110.134462514212601, 25.21751033509733, 0.0 ], [ 110.134581989761045, 25.217509005785793, 0.0 ], [ 110.134701465309973, 25.217507676377604, 0.0 ], [ 110.134820940859342, 25.217506346872774, 0.0 ], [ 110.134940416407034, 25.217505017106014, 0.0 ], [ 110.135031172651509, 25.217444825687092, 0.0 ], [ 110.135112405639177, 25.217365116436874, 0.0 ], [ 110.135171189672704, 25.217277295409954, 0.0 ], [ 110.13517222118152, 25.217168605922005, 0.0 ], [ 110.135173252685405, 25.217059916432415, 0.0 ], [ 110.135174284184359, 25.216951226941198, 0.0 ], [ 110.135175315678381, 25.21684253744834, 0.0 ], [ 110.135176347167416, 25.216733847953851, 0.0 ], [ 110.135177378651576, 25.216625158457724, 0.0 ], [ 110.135178410130834, 25.216516468959959, 0.0 ], [ 110.135179441605146, 25.216407779460571, 0.0 ], [ 110.135180473074527, 25.216299089959538, 0.0 ], [ 110.13518150453892, 25.21619040045686, 0.0 ], [ 110.135182535998453, 25.216081710952565, 0.0 ], [ 110.134959643147994, 25.215846383694064, 0.0 ], [ 110.13484017434304, 25.215844785671592, 0.0 ], [ 110.134720736447463, 25.215841827510282, 0.0 ], [ 110.134601345843777, 25.215837573485764, 0.0 ], [ 110.134482019476636, 25.21583202504986, 0.0 ], [ 110.134362774301465, 25.215825182986737, 0.0 ], [ 110.134243575427178, 25.215817693833014, 0.0 ], [ 110.134124376570412, 25.215810204583548, 0.0 ], [ 110.134005177731311, 25.215802715238329, 0.0 ], [ 110.13388597891003, 25.215795225797361, 0.0 ], [ 110.133766780106257, 25.215787736260658, 0.0 ], [ 110.133647581320304, 25.215780246628203, 0.0 ], [ 110.133528382551873, 25.215772756899998, 0.0 ], [ 110.133409183801263, 25.215765267076058, 0.0 ], [ 110.133289985068174, 25.215757777156366, 0.0 ], [ 110.133170786352835, 25.215750287140924, 0.0 ], [ 110.133051587655146, 25.215742797029744, 0.0 ], [ 110.132932388975149, 25.215735306822818, 0.0 ], [ 110.132813190312817, 25.215727816520147, 0.0 ], [ 110.132693991668148, 25.21572032612173, 0.0 ], [ 110.132574793041158, 25.215712835627567, 0.0 ], [ 110.132455594431846, 25.215705345037666, 0.0 ], [ 110.132336395840213, 25.215697854352015, 0.0 ], [ 110.132217197266257, 25.215690363570616, 0.0 ], [ 110.132097998709966, 25.215682872693474, 0.0 ], [ 110.131978800171353, 25.215675381720597, 0.0 ], [ 110.131859601650419, 25.215667890651964, 0.0 ], [ 110.131740403147148, 25.215660399487597, 0.0 ], [ 110.131621204661585, 25.215652908227476, 0.0 ], [ 110.131502006193671, 25.215645416871617, 0.0 ], [ 110.131382807743464, 25.215637925420012, 0.0 ], [ 110.131263609310849, 25.215630433872668, 0.0 ] ] ] } },
{ "type": "Feature", "properties": { "OBJECTID": 7, "名称": "华为云计算数据中心", "类型": "研发" }, "geometry": { "type": "Polygon", "coordinates": [ [ [ 110.135202342932146, 25.213994535397426, 0.0 ], [ 110.135107205054567, 25.213933831442972, 0.0 ], [ 110.134988276151887, 25.213937315137258, 0.0 ], [ 110.134869333350892, 25.213940380605745, 0.0 ], [ 110.134750377294168, 25.213942985222893, 0.0 ], [ 110.134631409266476, 25.213945088468375, 0.0 ], [ 110.134512431150441, 25.21394664839973, 0.0 ], [ 110.134393445538734, 25.213947624497841, 0.0 ], [ 110.134274455749036, 25.213947977513836, 0.0 ], [ 110.134155465852515, 25.213947664038812, 0.0 ], [ 110.134036480659873, 25.213946653777846, 0.0 ], [ 110.133917505204209, 25.213944939694894, 0.0 ], [ 110.133798544528872, 25.213942521565347, 0.0 ], [ 110.133679603612379, 25.21393940121585, 0.0 ], [ 110.133560687519136, 25.213935577358551, 0.0 ], [ 110.133441801288726, 25.213931049842859, 0.0 ], [ 110.133322949936968, 25.213925819266482, 0.0 ], [ 110.133204138445919, 25.213919886542442, 0.0 ], [ 110.133085371914106, 25.213913250660507, 0.0 ], [ 110.132966655293117, 25.213905912921934, 0.0 ], [ 110.132847993617787, 25.213897873372272, 0.0 ], [ 110.132729391959586, 25.213889131689982, 0.0 ], [ 110.132610855215347, 25.213879689553735, 0.0 ], [ 110.132492388499486, 25.213869546235511, 0.0 ], [ 110.132373996846951, 25.213858701979138, 0.0 ], [ 110.132255685042395, 25.213847159156963, 0.0 ], [ 110.132137458361996, 25.213834915886803, 0.0 ], [ 110.132019321676268, 25.213821973781528, 0.0 ], [ 110.131901279896681, 25.213808333941071, 0.0 ], [ 110.131783338228217, 25.213793995419142, 0.0 ], [ 110.131665501403106, 25.213778960551878, 0.0 ], [ 110.131547774489064, 25.213763229344558, 0.0 ], [ 110.131430161701303, 25.213746806925034, 0.0 ], [ 110.131312662291123, 25.213729726024411, 0.0 ], [ 110.131195273311178, 25.213712027865689, 0.0 ], [ 110.131071806950018, 25.213817631147357, 0.0 ], [ 110.131072104781964, 25.213925878176436, 0.0 ], [ 110.131072402611366, 25.214034125203963, 0.0 ], [ 110.13107270043821, 25.214142372229929, 0.0 ], [ 110.131072998262482, 25.214250619254354, 0.0 ], [ 110.13107329608421, 25.214358866277216, 0.0 ], [ 110.131073593903366, 25.214467113298522, 0.0 ], [ 110.13107389172005, 25.214575360318285, 0.0 ], [ 110.131074189534104, 25.2146836073365, 0.0 ], [ 110.1310744873456, 25.214791854353148, 0.0 ], [ 110.131074785154539, 25.21490010136824, 0.0 ], [ 110.131075082960905, 25.215008348381797, 0.0 ], [ 110.131075380764727, 25.215116595393788, 0.0 ], [ 110.131075678565992, 25.215224842404226, 0.0 ], [ 110.13107597636477, 25.215333089413111, 0.0 ], [ 110.131080249805891, 25.215437952537624, 0.0 ], [ 110.131198958800681, 25.21544541343664, 0.0 ], [ 110.131317667812951, 25.215452874240672, 0.0 ], [ 110.131436376842743, 25.215460334949771, 0.0 ], [ 110.131555085890056, 25.2154677955639, 0.0 ], [ 110.131673794954921, 25.215475256083064, 0.0 ], [ 110.131792504037321, 25.215482716507285, 0.0 ], [ 110.131911213137229, 25.215490176836536, 0.0 ], [ 110.132029922254688, 25.215497637070829, 0.0 ], [ 110.132148631389683, 25.215505097210166, 0.0 ], [ 110.132267340542214, 25.215512557254534, 0.0 ], [ 110.132386049712267, 25.215520017203954, 0.0 ], [ 110.132504758899842, 25.215527477058416, 0.0 ], [ 110.132623468104953, 25.215534936817914, 0.0 ], [ 110.132742177327586, 25.215542396482448, 0.0 ], [ 110.132860886567755, 25.215549856052029, 0.0 ], [ 110.132979595825446, 25.215557315526642, 0.0 ], [ 110.13309830510066, 25.215564774906305, 0.0 ], [ 110.133217014393409, 25.215572234191004, 0.0 ], [ 110.133335723703695, 25.215579693380739, 0.0 ], [ 110.133454433031488, 25.215587152475518, 0.0 ], [ 110.133573142376804, 25.215594611475336, 0.0 ], [ 110.133691851739655, 25.215602070380196, 0.0 ], [ 110.133810561120029, 25.215609529190086, 0.0 ], [ 110.13392927051791, 25.21561698790503, 0.0 ], [ 110.134047979933328, 25.215624446525005, 0.0 ], [ 110.134166689366268, 25.215631905050017, 0.0 ], [ 110.1342853988168, 25.215639363480076, 0.0 ], [ 110.134404110926198, 25.215646786538716, 0.0 ], [ 110.134522887810391, 25.215653285448614, 0.0 ], [ 110.134641742524551, 25.215658475027201, 0.0 ], [ 110.134760657629769, 25.215662354482699, 0.0 ], [ 110.134879615682038, 25.215664922933069, 0.0 ], [ 110.135188989858094, 25.215401699858742, 0.0 ], [ 110.135190017042675, 25.215293456448336, 0.0 ], [ 110.135191044222296, 25.215185213036317, 0.0 ], [ 110.135192071397015, 25.215076969622672, 0.0 ], [ 110.135193098566859, 25.214968726207392, 0.0 ], [ 110.135194125731886, 25.214860482790503, 0.0 ], [ 110.135195152891967, 25.21475223937199, 0.0 ], [ 110.135196180047146, 25.214643995951857, 0.0 ], [ 110.135197207197507, 25.2145357525301, 0.0 ], [ 110.135198234342909, 25.21442750910672, 0.0 ], [ 110.135199261483436, 25.21431926568172, 0.0 ], [ 110.13520028861906, 25.2142110222551, 0.0 ], [ 110.135201315749811, 25.214102778826852, 0.0 ], [ 110.135202342932146, 25.213994535397426, 0.0 ] ] ] } },
{ "type": "Feature", "properties": { "OBJECTID": 8, "名称": "秧塘区创新创业服务中心", "类型": "研发" }, "geometry": { "type": "Polygon", "coordinates": [ [ [ 110.159527919751355, 25.211292710395632, 0.0 ], [ 110.159347129477439, 25.21117049490493, 0.0 ], [ 110.159166339567719, 25.211048279200458, 0.0 ], [ 110.158983766897634, 25.210928290837053, 0.0 ], [ 110.158820588835994, 25.210909301828792, 0.0 ], [ 110.158703001177685, 25.211084070246372, 0.0 ], [ 110.158407564828863, 25.21120577982521, 0.0 ], [ 110.158215456178979, 25.211098805450991, 0.0 ], [ 110.158023347869914, 25.210991830834264, 0.0 ], [ 110.157831239901725, 25.210884855975049, 0.0 ], [ 110.157639132274355, 25.210777880873326, 0.0 ], [ 110.157486416671972, 25.210871627421131, 0.0 ], [ 110.15734686854411, 25.211032470630478, 0.0 ], [ 110.157207320046837, 25.211193313695158, 0.0 ], [ 110.157067771180166, 25.211354156615148, 0.0 ], [ 110.156928221944099, 25.211514999390456, 0.0 ], [ 110.156788672338692, 25.211675842021087, 0.0 ], [ 110.156649122363788, 25.211836684507034, 0.0 ], [ 110.156509572019459, 25.211997526848283, 0.0 ], [ 110.156370021305719, 25.212158369044847, 0.0 ], [ 110.156309597886818, 25.212336260845372, 0.0 ], [ 110.156418402868368, 25.212494298872294, 0.0 ], [ 110.156615723865187, 25.212593113239702, 0.0 ], [ 110.156813045186581, 25.212691927350665, 0.0 ], [ 110.157010366832452, 25.212790741205165, 0.0 ], [ 110.157207688802757, 25.212889554803212, 0.0 ], [ 110.157405011097609, 25.212988368144796, 0.0 ], [ 110.157602333716909, 25.213087181229916, 0.0 ], [ 110.157799656660742, 25.213185994058566, 0.0 ], [ 110.157996979929081, 25.21328480663075, 0.0 ], [ 110.158194303521853, 25.213383618946455, 0.0 ], [ 110.158391627439173, 25.21348243100568, 0.0 ], [ 110.158588951680983, 25.21358124280842, 0.0 ], [ 110.158786276247199, 25.213680054354679, 0.0 ], [ 110.158987441521134, 25.213738247424146, 0.0 ], [ 110.159200415151375, 25.21367153884075, 0.0 ], [ 110.159313943636704, 25.213500587027145, 0.0 ], [ 110.159416528133008, 25.213318163909875, 0.0 ], [ 110.159519112317042, 25.213135740709067, 0.0 ], [ 110.15962169618895, 25.212953317424734, 0.0 ], [ 110.159724279748602, 25.212770894056884, 0.0 ], [ 110.159826862996141, 25.212588470605503, 0.0 ], [ 110.159929445931411, 25.212406047070605, 0.0 ], [ 110.160032028554596, 25.212223623452171, 0.0 ], [ 110.160134610865455, 25.212041199750228, 0.0 ], [ 110.160138588648408, 25.211846264185759, 0.0 ], [ 110.160070292759016, 25.211659355584999, 0.0 ], [ 110.159889501392186, 25.211537140735668, 0.0 ], [ 110.159708710389708, 25.211414925672536, 0.0 ], [ 110.159527919751355, 25.211292710395632, 0.0 ] ] ] } },
{ "type": "Feature", "properties": { "OBJECTID": 9, "名称": "桂林真龙机动车检测中心", "类型": "检测" }, "geometry": { "type": "Polygon", "coordinates": [ [ [ 110.166359289465561, 25.26919340243445, 0.0 ], [ 110.166374206848388, 25.26943763479543, 0.0 ], [ 110.166389124275838, 25.269681867148428, 0.0 ], [ 110.166404041747981, 25.269926099493446, 0.0 ], [ 110.166418959264917, 25.270170331830478, 0.0 ], [ 110.166433867070708, 25.270414564651826, 0.0 ], [ 110.166445794919909, 25.270658928228304, 0.0 ], [ 110.166451926753268, 25.27090346760772, 0.0 ], [ 110.166677642119637, 25.270979272827621, 0.0 ], [ 110.166946649742968, 25.27098079343002, 0.0 ], [ 110.167203763895841, 25.270961925894095, 0.0 ], [ 110.167205434125563, 25.270717321874198, 0.0 ], [ 110.1672071043334, 25.270472717846094, 0.0 ], [ 110.167208774519537, 25.270228113809779, 0.0 ], [ 110.167210444683946, 25.269983509765257, 0.0 ], [ 110.167212114826413, 25.269738905712526, 0.0 ], [ 110.167213784947023, 25.26949430165158, 0.0 ], [ 110.168433962309891, 25.269489202993338, 0.0 ], [ 110.168426270335388, 25.269775531158174, 0.0 ], [ 110.168424603087772, 25.27002013528795, 0.0 ], [ 110.168422935818313, 25.270264739409512, 0.0 ], [ 110.168421268527098, 25.270509343522868, 0.0 ], [ 110.168419601214225, 25.270753947628016, 0.0 ], [ 110.168445848155315, 25.270976944154246, 0.0 ], [ 110.168713768656858, 25.270990768938123, 0.0 ], [ 110.168982776446811, 25.270992285548573, 0.0 ], [ 110.169251784258904, 25.27099380161944, 0.0 ], [ 110.169493707561159, 25.27091823026187, 0.0 ], [ 110.169550231644806, 25.27069121509323, 0.0 ], [ 110.169550423894989, 25.270446606292698, 0.0 ], [ 110.169550616129442, 25.270201997484133, 0.0 ], [ 110.169550808347978, 25.269957388667521, 0.0 ], [ 110.169551000550697, 25.269712779842873, 0.0 ], [ 110.169551192737671, 25.269468171010189, 0.0 ], [ 110.16952307160436, 25.26923025366883, 0.0 ], [ 110.169295606292948, 25.26911628277885, 0.0 ], [ 110.169026600108097, 25.269117370659202, 0.0 ], [ 110.168757593933577, 25.269118458049128, 0.0 ], [ 110.168488587769318, 25.269119544948612, 0.0 ], [ 110.16821958161529, 25.269120631357652, 0.0 ], [ 110.167950575471693, 25.269121717276246, 0.0 ], [ 110.167681569338228, 25.269122802704398, 0.0 ], [ 110.167412563215152, 25.269123887642106, 0.0 ], [ 110.167143557102307, 25.269124972089386, 0.0 ], [ 110.166874550999864, 25.269126056046204, 0.0 ], [ 110.166605544907725, 25.269127139512594, 0.0 ], [ 110.166359289465561, 25.26919340243445, 0.0 ] ] ] } },
{ "type": "Feature", "properties": { "OBJECTID": 10, "名称": "临桂西诚速检机动车检测站", "类型": "检测" }, "geometry": { "type": "Polygon", "coordinates": [ [ [ 110.163235057411285, 25.216645579079287, 0.0 ], [ 110.162974427564947, 25.216474814910033, 0.0 ], [ 110.162685851608927, 25.216728340558507, 0.0 ], [ 110.162582787722386, 25.216858963386713, 0.0 ], [ 110.1624797236137, 25.216989586135128, 0.0 ], [ 110.162376659282799, 25.217120208803738, 0.0 ], [ 110.162273594729584, 25.217250831392537, 0.0 ], [ 110.162170529954139, 25.217381453901538, 0.0 ], [ 110.162067464956479, 25.217512076330724, 0.0 ], [ 110.161964399736718, 25.217642698680113, 0.0 ], [ 110.161861334294571, 25.217773320949689, 0.0 ], [ 110.161758268630194, 25.217903943139454, 0.0 ], [ 110.16182277438871, 25.218134603300079, 0.0 ], [ 110.161970418577837, 25.218222925870244, 0.0 ], [ 110.162118481542876, 25.218310738993388, 0.0 ], [ 110.162267343530544, 25.218397409876946, 0.0 ], [ 110.162421450279169, 25.218476090015571, 0.0 ], [ 110.162580923742254, 25.218545357282025, 0.0 ], [ 110.16274507011687, 25.218604910404306, 0.0 ], [ 110.162913175805116, 25.218654488708371, 0.0 ], [ 110.163084508577811, 25.218693878780861, 0.0 ], [ 110.163258323728499, 25.218722906190038, 0.0 ], [ 110.16343386439317, 25.218741446712308, 0.0 ], [ 110.163610366845418, 25.218749420028796, 0.0 ], [ 110.163787063144596, 25.218746789658905, 0.0 ], [ 110.163963184506898, 25.218733569253889, 0.0 ], [ 110.164137964354012, 25.21870981383038, 0.0 ], [ 110.164310642347388, 25.218675628461103, 0.0 ], [ 110.164480467233432, 25.218631161923991, 0.0 ], [ 110.164646699644393, 25.218576606495535, 0.0 ], [ 110.164808616972053, 25.218512201278546, 0.0 ], [ 110.164965513843711, 25.218438224738115, 0.0 ], [ 110.164982156779899, 25.218239360743105, 0.0 ], [ 110.164858168437689, 25.218124770030176, 0.0 ], [ 110.164734180327628, 25.218010179217423, 0.0 ], [ 110.164610192449786, 25.217895588304859, 0.0 ], [ 110.164486204804163, 25.217780997292472, 0.0 ], [ 110.164362217390831, 25.217666406180278, 0.0 ], [ 110.164238230209662, 25.217551814968264, 0.0 ], [ 110.164114243260698, 25.217437223656443, 0.0 ], [ 110.163990256544011, 25.217322632244805, 0.0 ], [ 110.163866270059472, 25.217208040733365, 0.0 ], [ 110.163742283807153, 25.217093449122121, 0.0 ], [ 110.163618260344322, 25.216978891009386, 0.0 ], [ 110.163492736930209, 25.216865696076162, 0.0 ], [ 110.163364989117483, 25.216754579687294, 0.0 ], [ 110.163235057411285, 25.216645579079287, 0.0 ] ] ] } },
{ "type": "Feature", "properties": { "OBJECTID": 11, "名称": "桂林市临桂区安达机动车检测有限公", "类型": "检测" }, "geometry": { "type": "Polygon", "coordinates": [ [ [ 110.196454931433692, 25.272763104468886, 0.0 ], [ 110.195354129127779, 25.271854845028866, 0.0 ], [ 110.195141110443345, 25.27183118664724, 0.0 ], [ 110.194967267192311, 25.271948054332181, 0.0 ], [ 110.193888872581894, 25.273023769746036, 0.0 ], [ 110.194002890471069, 25.273162740215927, 0.0 ], [ 110.195129152887233, 25.274044826881433, 0.0 ], [ 110.196454931433692, 25.272763104468886, 0.0 ] ] ] } }
]
}
