{
"type": "FeatureCollection",
"name": "yellow-line",
"crs": { "type": "name", "properties": { "name": "urn:ogc:def:crs:OGC:1.3:CRS84" } },
"features": [
{ "type": "Feature", "properties": { "OBJECTID": 1 }, "geometry": { "type": "Polygon", "coordinates": [ [ [ 110.177188, 25.213422 ], [ 110.177273, 25.213454 ], [ 110.177357, 25.213486 ], [ 110.177442, 25.213517 ], [ 110.177526, 25.21355 ], [ 110.177608, 25.213587 ], [ 110.177691, 25.213623 ], [ 110.177773, 25.213659 ], [ 110.177855, 25.213696 ], [ 110.177936, 25.213675 ], [ 110.177954, 25.213637 ], [ 110.17787, 25.213603 ], [ 110.177787, 25.21357 ], [ 110.177703, 25.213535 ], [ 110.177011, 25.213167 ], [ 110.176935, 25.213124 ], [ 110.176853, 25.213087 ], [ 110.176772, 25.213049 ], [ 110.17669, 25.213011 ], [ 110.176609, 25.212973 ], [ 110.176525, 25.21294 ], [ 110.17644, 25.212908 ], [ 110.176356, 25.212877 ], [ 110.176271, 25.212845 ], [ 110.176187, 25.212813 ], [ 110.176102, 25.212782 ], [ 110.176017, 25.21275 ], [ 110.175933, 25.212718 ], [ 110.175848, 25.212687 ], [ 110.175763, 25.212657 ], [ 110.175677, 25.212627 ], [ 110.175593, 25.212595 ], [ 110.175511, 25.212559 ], [ 110.175429, 25.212522 ], [ 110.175347, 25.212485 ], [ 110.175265, 25.212447 ], [ 110.175188, 25.212403 ], [ 110.175111, 25.212358 ], [ 110.175034, 25.212313 ], [ 110.174958, 25.212267 ], [ 110.174888, 25.212213 ], [ 110.174819, 25.212159 ], [ 110.174749, 25.212105 ], [ 110.17468, 25.212051 ], [ 110.1746, 25.212092 ], [ 110.174536, 25.212135 ], [ 110.1746, 25.212194 ], [ 110.174667, 25.21225 ], [ 110.174738, 25.212303 ], [ 110.174808, 25.212357 ], [ 110.174878, 25.21241 ], [ 110.17495, 25.212462 ], [ 110.175028, 25.212505 ], [ 110.175106, 25.212547 ], [ 110.175186, 25.212588 ], [ 110.175269, 25.212624 ], [ 110.175351, 25.21266 ], [ 110.175433, 25.212697 ], [ 110.175516, 25.212733 ], [ 110.175598, 25.212769 ], [ 110.175683, 25.2128 ], [ 110.175768, 25.21283 ], [ 110.175853, 25.212861 ], [ 110.175938, 25.212892 ], [ 110.176023, 25.212922 ], [ 110.176109, 25.212953 ], [ 110.176194, 25.212983 ], [ 110.176279, 25.213014 ], [ 110.176364, 25.213044 ], [ 110.176447, 25.213078 ], [ 110.176529, 25.213116 ], [ 110.176611, 25.213153 ], [ 110.176692, 25.21319 ], [ 110.176774, 25.213228 ], [ 110.176856, 25.213265 ], [ 110.176938, 25.213303 ], [ 110.177019, 25.21334 ], [ 110.177101, 25.213377 ], [ 110.177139, 25.213452 ], [ 110.177173, 25.213529 ], [ 110.177208, 25.213606 ], [ 110.177243, 25.213683 ], [ 110.177277, 25.21376 ], [ 110.177312, 25.213837 ], [ 110.177347, 25.213914 ], [ 110.177399, 25.213883 ], [ 110.177364, 25.213807 ], [ 110.177329, 25.21373 ], [ 110.177294, 25.213653 ], [ 110.177259, 25.213576 ], [ 110.177223, 25.213499 ], [ 110.177188, 25.213422 ] ] ] } },
{ "type": "Feature", "properties": { "OBJECTID": 2 }, "geometry": { "type": "Polygon", "coordinates": [ [ [ 110.178776, 25.213954 ], [ 110.178569, 25.213816 ], [ 110.178381, 25.213915 ], [ 110.178475, 25.213955 ], [ 110.178574, 25.213994 ], [ 110.178674, 25.214034 ], [ 110.178773, 25.214075 ], [ 110.178873, 25.214114 ], [ 110.178972, 25.214154 ], [ 110.179073, 25.214192 ], [ 110.179174, 25.214228 ], [ 110.179273, 25.214268 ], [ 110.179371, 25.214311 ], [ 110.179464, 25.214362 ], [ 110.179558, 25.214411 ], [ 110.179654, 25.214458 ], [ 110.17975, 25.214505 ], [ 110.179845, 25.214553 ], [ 110.17994, 25.214601 ], [ 110.180035, 25.214649 ], [ 110.180126, 25.214703 ], [ 110.180217, 25.214757 ], [ 110.180307, 25.214812 ], [ 110.180398, 25.214867 ], [ 110.180486, 25.214924 ], [ 110.180574, 25.214983 ], [ 110.180656, 25.215047 ], [ 110.18073, 25.21512 ], [ 110.180797, 25.215197 ], [ 110.180857, 25.215279 ], [ 110.180905, 25.215368 ], [ 110.180946, 25.215459 ], [ 110.180983, 25.215552 ], [ 110.181018, 25.215646 ], [ 110.181049, 25.215741 ], [ 110.181079, 25.215836 ], [ 110.181109, 25.215931 ], [ 110.181136, 25.216027 ], [ 110.181163, 25.216122 ], [ 110.181179, 25.21622 ], [ 110.181189, 25.216318 ], [ 110.181191, 25.216417 ], [ 110.181193, 25.216516 ], [ 110.181195, 25.216615 ], [ 110.181198, 25.216714 ], [ 110.1812, 25.216813 ], [ 110.181202, 25.216912 ], [ 110.181204, 25.21701 ], [ 110.181206, 25.217109 ], [ 110.181208, 25.217208 ], [ 110.18121, 25.217307 ], [ 110.1813, 25.217321 ], [ 110.181317, 25.217224 ], [ 110.181333, 25.217126 ], [ 110.181346, 25.217027 ], [ 110.181343, 25.216931 ], [ 110.181331, 25.216834 ], [ 110.18133, 25.216735 ], [ 110.181328, 25.216636 ], [ 110.181327, 25.216537 ], [ 110.181321, 25.216438 ], [ 110.181312, 25.21634 ], [ 110.181303, 25.216241 ], [ 110.181295, 25.216142 ], [ 110.181281, 25.216045 ], [ 110.181247, 25.215951 ], [ 110.181212, 25.215857 ], [ 110.181177, 25.215764 ], [ 110.181143, 25.21567 ], [ 110.18111, 25.215575 ], [ 110.181079, 25.215481 ], [ 110.181044, 25.215387 ], [ 110.181006, 25.215295 ], [ 110.180959, 25.215205 ], [ 110.180895, 25.215126 ], [ 110.180823, 25.215051 ], [ 110.180749, 25.214979 ], [ 110.180674, 25.214908 ], [ 110.180588, 25.214848 ], [ 110.180497, 25.214793 ], [ 110.180406, 25.214739 ], [ 110.180315, 25.214686 ], [ 110.180221, 25.214636 ], [ 110.180125, 25.214589 ], [ 110.180032, 25.214538 ], [ 110.179939, 25.214487 ], [ 110.179846, 25.214436 ], [ 110.179753, 25.214385 ], [ 110.179659, 25.214334 ], [ 110.179566, 25.214283 ], [ 110.179467, 25.214242 ], [ 110.179368, 25.214202 ], [ 110.179269, 25.214161 ], [ 110.17917, 25.214121 ], [ 110.179071, 25.21408 ], [ 110.178972, 25.214038 ], [ 110.178874, 25.213996 ], [ 110.178776, 25.213954 ] ] ] } },
{ "type": "Feature", "properties": { "OBJECTID": 3 }, "geometry": { "type": "Polygon", "coordinates": [ [ [ 110.182034, 25.219678 ], [ 110.182201, 25.219563 ], [ 110.182243, 25.219403 ], [ 110.182287, 25.219243 ], [ 110.182365, 25.219094 ], [ 110.182443, 25.218945 ], [ 110.182521, 25.218796 ], [ 110.182578, 25.21864 ], [ 110.182623, 25.21848 ], [ 110.182668, 25.218321 ], [ 110.182713, 25.218161 ], [ 110.182773, 25.218006 ], [ 110.182842, 25.217853 ], [ 110.182912, 25.217701 ], [ 110.182981, 25.217549 ], [ 110.183051, 25.217396 ], [ 110.183137, 25.217252 ], [ 110.183244, 25.217119 ], [ 110.183351, 25.216986 ], [ 110.18345, 25.216849 ], [ 110.183523, 25.216698 ], [ 110.183587, 25.216545 ], [ 110.183541, 25.215418 ], [ 110.183458, 25.215271 ], [ 110.183376, 25.215125 ], [ 110.183293, 25.214978 ], [ 110.18321, 25.214831 ], [ 110.183127, 25.214684 ], [ 110.183045, 25.214538 ], [ 110.182962, 25.214391 ], [ 110.182879, 25.214244 ], [ 110.182796, 25.214097 ], [ 110.182713, 25.213951 ], [ 110.182631, 25.213804 ], [ 110.182548, 25.213657 ], [ 110.182465, 25.21351 ], [ 110.182382, 25.213364 ], [ 110.1823, 25.213217 ], [ 110.182217, 25.21307 ], [ 110.182134, 25.212923 ], [ 110.182051, 25.212777 ], [ 110.181969, 25.212585 ], [ 110.181819, 25.212666 ], [ 110.181661, 25.212746 ], [ 110.181503, 25.212827 ], [ 110.181345, 25.212907 ], [ 110.181186, 25.212988 ], [ 110.181028, 25.213068 ], [ 110.18087, 25.213149 ], [ 110.180712, 25.213229 ], [ 110.180553, 25.21331 ], [ 110.180395, 25.21339 ], [ 110.180573, 25.213624 ], [ 110.180692, 25.213748 ], [ 110.180808, 25.213875 ], [ 110.180919, 25.214005 ], [ 110.181025, 25.214139 ], [ 110.181126, 25.214276 ], [ 110.181221, 25.214417 ], [ 110.18131, 25.21456 ], [ 110.181392, 25.214707 ], [ 110.181469, 25.214857 ], [ 110.181539, 25.215009 ], [ 110.181602, 25.215164 ], [ 110.181659, 25.21532 ], [ 110.181709, 25.215479 ], [ 110.181753, 25.215639 ], [ 110.181789, 25.2158 ], [ 110.181819, 25.215963 ], [ 110.181842, 25.216126 ], [ 110.181858, 25.216291 ], [ 110.181867, 25.216455 ], [ 110.181869, 25.21662 ], [ 110.181864, 25.216785 ], [ 110.181853, 25.21695 ], [ 110.181834, 25.217114 ], [ 110.18181, 25.217277 ], [ 110.181871, 25.218012 ], [ 110.181831, 25.218173 ], [ 110.181791, 25.218334 ], [ 110.181752, 25.218495 ], [ 110.181712, 25.218656 ], [ 110.181673, 25.218817 ], [ 110.18164, 25.218979 ], [ 110.181632, 25.219143 ], [ 110.181703, 25.219289 ], [ 110.181825, 25.21941 ], [ 110.181936, 25.219541 ], [ 110.182034, 25.219678 ] ] ] } },
{ "type": "Feature", "properties": { "OBJECTID": 4 }, "geometry": { "type": "Polygon", "coordinates": [ [ [ 110.174308, 25.217369 ], [ 110.174349, 25.218173 ], [ 110.174717, 25.218233 ], [ 110.17494, 25.218234 ], [ 110.175468, 25.218366 ], [ 110.175655, 25.218476 ], [ 110.175839, 25.218589 ], [ 110.176024, 25.218703 ], [ 110.176209, 25.218817 ], [ 110.176393, 25.21893 ], [ 110.176578, 25.219044 ], [ 110.176763, 25.219157 ], [ 110.176948, 25.219271 ], [ 110.177132, 25.219385 ], [ 110.177257, 25.219534 ], [ 110.177292, 25.219734 ], [ 110.177328, 25.219934 ], [ 110.177415, 25.220111 ], [ 110.177576, 25.220236 ], [ 110.177793, 25.220188 ], [ 110.178012, 25.22015 ], [ 110.178233, 25.220124 ], [ 110.178455, 25.220107 ], [ 110.178677, 25.22009 ], [ 110.1789, 25.220074 ], [ 110.179122, 25.220057 ], [ 110.179344, 25.22004 ], [ 110.179567, 25.220024 ], [ 110.179789, 25.220007 ], [ 110.180011, 25.219991 ], [ 110.180233, 25.219974 ], [ 110.180456, 25.219958 ], [ 110.180677, 25.21994 ], [ 110.180822, 25.219786 ], [ 110.180867, 25.219596 ], [ 110.180869, 25.2194 ], [ 110.180648, 25.21938 ], [ 110.180442, 25.219439 ], [ 110.180234, 25.219511 ], [ 110.180023, 25.219577 ], [ 110.179808, 25.219631 ], [ 110.179592, 25.219682 ], [ 110.179373, 25.219705 ], [ 110.179151, 25.219694 ], [ 110.178953, 25.219606 ], [ 110.17882, 25.219449 ], [ 110.178729, 25.219265 ], [ 110.178662, 25.219072 ], [ 110.178497, 25.218957 ], [ 110.178312, 25.218843 ], [ 110.178127, 25.218729 ], [ 110.177943, 25.218615 ], [ 110.177758, 25.218502 ], [ 110.177573, 25.218388 ], [ 110.177389, 25.218274 ], [ 110.177204, 25.21816 ], [ 110.177019, 25.218047 ], [ 110.176835, 25.217933 ], [ 110.17665, 25.217819 ], [ 110.176465, 25.217705 ], [ 110.176281, 25.217592 ], [ 110.176096, 25.217478 ], [ 110.175912, 25.217364 ], [ 110.175727, 25.21725 ], [ 110.175668, 25.217076 ], [ 110.175669, 25.216874 ], [ 110.17567, 25.216671 ], [ 110.175672, 25.216468 ], [ 110.175673, 25.216265 ], [ 110.175674, 25.216062 ], [ 110.175676, 25.215859 ], [ 110.175677, 25.215656 ], [ 110.175678, 25.215453 ], [ 110.17568, 25.215251 ], [ 110.175499, 25.215328 ], [ 110.175304, 25.215427 ], [ 110.17511, 25.215526 ], [ 110.174915, 25.215625 ], [ 110.17472, 25.215724 ], [ 110.174524, 25.215821 ], [ 110.174325, 25.215912 ], [ 110.174166, 25.216023 ], [ 110.174165, 25.216226 ], [ 110.174164, 25.216429 ], [ 110.174162, 25.216632 ], [ 110.174161, 25.216835 ], [ 110.17416, 25.217037 ], [ 110.174158, 25.21724 ], [ 110.174308, 25.217369 ] ] ] } },
{ "type": "Feature", "properties": { "OBJECTID": 5 }, "geometry": { "type": "Polygon", "coordinates": [ [ [ 110.181433, 25.21912 ], [ 110.18138, 25.219203 ], [ 110.181569, 25.219439 ], [ 110.181692, 25.219597 ], [ 110.181829, 25.219746 ], [ 110.181965, 25.219894 ], [ 110.18202, 25.219861 ], [ 110.181793, 25.219591 ], [ 110.181659, 25.219441 ], [ 110.181524, 25.21929 ], [ 110.181433, 25.21912 ] ] ] } },
{ "type": "Feature", "properties": { "OBJECTID": 6 }, "geometry": { "type": "Polygon", "coordinates": [ [ [ 110.185068, 25.226486 ], [ 110.184807, 25.225783 ], [ 110.184669, 25.225412 ], [ 110.184529, 25.225041 ], [ 110.184392, 25.224669 ], [ 110.184259, 25.224297 ], [ 110.184119, 25.223926 ], [ 110.183978, 25.223555 ], [ 110.183837, 25.223185 ], [ 110.183696, 25.222814 ], [ 110.183568, 25.222441 ], [ 110.183487, 25.222056 ], [ 110.183409, 25.22167 ], [ 110.183314, 25.221297 ], [ 110.183052, 25.220985 ], [ 110.182553, 25.220329 ], [ 110.182482, 25.220545 ], [ 110.182741, 25.220851 ], [ 110.182965, 25.221156 ], [ 110.18316, 25.221497 ], [ 110.183253, 25.22188 ], [ 110.183333, 25.222265 ], [ 110.183425, 25.222647 ], [ 110.183563, 25.223019 ], [ 110.183698, 25.223391 ], [ 110.183829, 25.223764 ], [ 110.183964, 25.224137 ], [ 110.184104, 25.224507 ], [ 110.18425, 25.224876 ], [ 110.184392, 25.225246 ], [ 110.184523, 25.22562 ], [ 110.184659, 25.225992 ], [ 110.184853, 25.22659 ], [ 110.185068, 25.226486 ] ] ] } },
{ "type": "Feature", "properties": { "OBJECTID": 7 }, "geometry": { "type": "Polygon", "coordinates": [ [ [ 110.181175, 25.22432 ], [ 110.181073, 25.223788 ], [ 110.180356, 25.223892 ], [ 110.18043, 25.224399 ], [ 110.181175, 25.22432 ] ] ] } },
{ "type": "Feature", "properties": { "OBJECTID": 8 }, "geometry": { "type": "Polygon", "coordinates": [ [ [ 110.180394, 25.227312 ], [ 110.180122, 25.227429 ], [ 110.17985, 25.227547 ], [ 110.179653, 25.227606 ], [ 110.179871, 25.227984 ], [ 110.17999, 25.228236 ], [ 110.180228, 25.228185 ], [ 110.180493, 25.228055 ], [ 110.180608, 25.227825 ], [ 110.180501, 25.227568 ], [ 110.180394, 25.227312 ] ] ] } },
{ "type": "Feature", "properties": { "OBJECTID": 9 }, "geometry": { "type": "Polygon", "coordinates": [ [ [ 110.177916, 25.226093 ], [ 110.177837, 25.225906 ], [ 110.177758, 25.225719 ], [ 110.177565, 25.225773 ], [ 110.177378, 25.22588 ], [ 110.177192, 25.225987 ], [ 110.17701, 25.226099 ], [ 110.176833, 25.226219 ], [ 110.176663, 25.226346 ], [ 110.176499, 25.226481 ], [ 110.176342, 25.226621 ], [ 110.176252, 25.226802 ], [ 110.176255, 25.226994 ], [ 110.176322, 25.227185 ], [ 110.176388, 25.227377 ], [ 110.177294, 25.226882 ], [ 110.177181, 25.226536 ], [ 110.177365, 25.226425 ], [ 110.177549, 25.226314 ], [ 110.177733, 25.226204 ], [ 110.177916, 25.226093 ] ] ] } },
{ "type": "Feature", "properties": { "OBJECTID": 10 }, "geometry": { "type": "Polygon", "coordinates": [ [ [ 110.183679, 25.234189 ], [ 110.18362, 25.234088 ], [ 110.18356, 25.233987 ], [ 110.183501, 25.233887 ], [ 110.183441, 25.233786 ], [ 110.183382, 25.233685 ], [ 110.183323, 25.233585 ], [ 110.183263, 25.233484 ], [ 110.183204, 25.233383 ], [ 110.183118, 25.233338 ], [ 110.183007, 25.23339 ], [ 110.182895, 25.233443 ], [ 110.182784, 25.233495 ], [ 110.182744, 25.233573 ], [ 110.182802, 25.233675 ], [ 110.182859, 25.233776 ], [ 110.182916, 25.233878 ], [ 110.182973, 25.23398 ], [ 110.183031, 25.234082 ], [ 110.183088, 25.234183 ], [ 110.183145, 25.234285 ], [ 110.183208, 25.23439 ], [ 110.183679, 25.234189 ] ] ] } },
{ "type": "Feature", "properties": { "OBJECTID": 11 }, "geometry": { "type": "Polygon", "coordinates": [ [ [ 110.175994, 25.23669 ], [ 110.175917, 25.236299 ], [ 110.175879, 25.235916 ], [ 110.175841, 25.235534 ], [ 110.175803, 25.235152 ], [ 110.175765, 25.23477 ], [ 110.175726, 25.234388 ], [ 110.175688, 25.234006 ], [ 110.175663, 25.233651 ], [ 110.175101, 25.233601 ], [ 110.17468, 25.233589 ], [ 110.174262, 25.233643 ], [ 110.173861, 25.23376 ], [ 110.173577, 25.23402 ], [ 110.173615, 25.234402 ], [ 110.173653, 25.234784 ], [ 110.173692, 25.235166 ], [ 110.17373, 25.235548 ], [ 110.173768, 25.23593 ], [ 110.173806, 25.236313 ], [ 110.173844, 25.236695 ], [ 110.175994, 25.23669 ] ] ] } },
{ "type": "Feature", "properties": { "OBJECTID": 12 }, "geometry": { "type": "Polygon", "coordinates": [ [ [ 110.1897, 25.238182 ], [ 110.189489, 25.238204 ], [ 110.18947, 25.238466 ], [ 110.189562, 25.238708 ], [ 110.189688, 25.238944 ], [ 110.189868, 25.239043 ], [ 110.19013, 25.238932 ], [ 110.190032, 25.23871 ], [ 110.189849, 25.238538 ], [ 110.189774, 25.238356 ], [ 110.1897, 25.238182 ] ] ] } },
{ "type": "Feature", "properties": { "OBJECTID": 13 }, "geometry": { "type": "Polygon", "coordinates": [ [ [ 110.182779, 25.238675 ], [ 110.182216, 25.238869 ], [ 110.181984, 25.239074 ], [ 110.182078, 25.239415 ], [ 110.182172, 25.239757 ], [ 110.182421, 25.239831 ], [ 110.182775, 25.239687 ], [ 110.183128, 25.239542 ], [ 110.183024, 25.239245 ], [ 110.182779, 25.238675 ] ] ] } },
{ "type": "Feature", "properties": { "OBJECTID": 14 }, "geometry": { "type": "Polygon", "coordinates": [ [ [ 110.179356, 25.24098 ], [ 110.179445, 25.240431 ], [ 110.179312, 25.240221 ], [ 110.178982, 25.240248 ], [ 110.178653, 25.240275 ], [ 110.178478, 25.240426 ], [ 110.178508, 25.240726 ], [ 110.178538, 25.241026 ], [ 110.178868, 25.241006 ], [ 110.179356, 25.24098 ] ] ] } },
{ "type": "Feature", "properties": { "OBJECTID": 15 }, "geometry": { "type": "Polygon", "coordinates": [ [ [ 110.167319, 25.203086 ], [ 110.167138, 25.202822 ], [ 110.166957, 25.202559 ], [ 110.166776, 25.202295 ], [ 110.166596, 25.202031 ], [ 110.166415, 25.201767 ], [ 110.166234, 25.201504 ], [ 110.165721, 25.200622 ], [ 110.165487, 25.200478 ], [ 110.165266, 25.200241 ], [ 110.165128, 25.200026 ], [ 110.164845, 25.199852 ], [ 110.164549, 25.199697 ], [ 110.164241, 25.199562 ], [ 110.16392, 25.19947 ], [ 110.163578, 25.199471 ], [ 110.163238, 25.199495 ], [ 110.162897, 25.199519 ], [ 110.162566, 25.199583 ], [ 110.162264, 25.199727 ], [ 110.161952, 25.199854 ], [ 110.16164, 25.199982 ], [ 110.161316, 25.200078 ], [ 110.160985, 25.200153 ], [ 110.160646, 25.200191 ], [ 110.160306, 25.200164 ], [ 110.159979, 25.200081 ], [ 110.159673, 25.199947 ], [ 110.159375, 25.199795 ], [ 110.159094, 25.199619 ], [ 110.158852, 25.199401 ], [ 110.158608, 25.199183 ], [ 110.158362, 25.198968 ], [ 110.158121, 25.198747 ], [ 110.157869, 25.198538 ], [ 110.157618, 25.198328 ], [ 110.157364, 25.19812 ], [ 110.15712, 25.197903 ], [ 110.156938, 25.197644 ], [ 110.156795, 25.197362 ], [ 110.15665, 25.19708 ], [ 110.156535, 25.196788 ], [ 110.15643, 25.196492 ], [ 110.156283, 25.196212 ], [ 110.156066, 25.195973 ], [ 110.155987, 25.196052 ], [ 110.156211, 25.196286 ], [ 110.156361, 25.196565 ], [ 110.156494, 25.196851 ], [ 110.156621, 25.197139 ], [ 110.156761, 25.197422 ], [ 110.156918, 25.197698 ], [ 110.1571, 25.197957 ], [ 110.15734, 25.198178 ], [ 110.157585, 25.198394 ], [ 110.157841, 25.1986 ], [ 110.158093, 25.19881 ], [ 110.158338, 25.199027 ], [ 110.158586, 25.19924 ], [ 110.158831, 25.199457 ], [ 110.159078, 25.199671 ], [ 110.159353, 25.199854 ], [ 110.159651, 25.200006 ], [ 110.159951, 25.200155 ], [ 110.160273, 25.200245 ], [ 110.160612, 25.200275 ], [ 110.160953, 25.200257 ], [ 110.161286, 25.200195 ], [ 110.161605, 25.200083 ], [ 110.16192, 25.199964 ], [ 110.162236, 25.199844 ], [ 110.162543, 25.199709 ], [ 110.162868, 25.19963 ], [ 110.163208, 25.199606 ], [ 110.163549, 25.199587 ], [ 110.16389, 25.199593 ], [ 110.164227, 25.199641 ], [ 110.164533, 25.199771 ], [ 110.164808, 25.199952 ], [ 110.165038, 25.200181 ], [ 110.165238, 25.200432 ], [ 110.165455, 25.200672 ], [ 110.166053, 25.201385 ], [ 110.166236, 25.201648 ], [ 110.166415, 25.201912 ], [ 110.166587, 25.202181 ], [ 110.166761, 25.202449 ], [ 110.166937, 25.202715 ], [ 110.167124, 25.202975 ], [ 110.167218, 25.20323 ], [ 110.167394, 25.203496 ], [ 110.16757, 25.203763 ], [ 110.167805, 25.203861 ], [ 110.16768, 25.203614 ], [ 110.167499, 25.20335 ], [ 110.167319, 25.203086 ] ] ] } },
{ "type": "Feature", "properties": { "OBJECTID": 16 }, "geometry": { "type": "Polygon", "coordinates": [ [ [ 110.153932, 25.194105 ], [ 110.154001, 25.194027 ], [ 110.153809, 25.193893 ], [ 110.153687, 25.193796 ], [ 110.15355, 25.193715 ], [ 110.153404, 25.193652 ], [ 110.153264, 25.193576 ], [ 110.153125, 25.193499 ], [ 110.152994, 25.193412 ], [ 110.152684, 25.19307 ], [ 110.152551, 25.192984 ], [ 110.152414, 25.192905 ], [ 110.152264, 25.192847 ], [ 110.152114, 25.192789 ], [ 110.15196, 25.192741 ], [ 110.151806, 25.192694 ], [ 110.151647, 25.192663 ], [ 110.151489, 25.192627 ], [ 110.151336, 25.192577 ], [ 110.15119, 25.192513 ], [ 110.151054, 25.192431 ], [ 110.150924, 25.192343 ], [ 110.150664, 25.192178 ], [ 110.150593, 25.192341 ], [ 110.150889, 25.192488 ], [ 110.151017, 25.192579 ], [ 110.151154, 25.192658 ], [ 110.151304, 25.192714 ], [ 110.151458, 25.192764 ], [ 110.151613, 25.192807 ], [ 110.151771, 25.192842 ], [ 110.151926, 25.192885 ], [ 110.152078, 25.19294 ], [ 110.152229, 25.192994 ], [ 110.152379, 25.193052 ], [ 110.152525, 25.193116 ], [ 110.15264, 25.19322 ], [ 110.15299, 25.193529 ], [ 110.153131, 25.193602 ], [ 110.153273, 25.193673 ], [ 110.153414, 25.193748 ], [ 110.153548, 25.193832 ], [ 110.153682, 25.193916 ], [ 110.153808, 25.19401 ], [ 110.153932, 25.194105 ] ] ] } },
{ "type": "Feature", "properties": { "OBJECTID": 17 }, "geometry": { "type": "Polygon", "coordinates": [ [ [ 110.133235, 25.196727 ], [ 110.132746, 25.19662 ], [ 110.132634, 25.196861 ], [ 110.132522, 25.197103 ], [ 110.13241, 25.197345 ], [ 110.132754, 25.197557 ], [ 110.132868, 25.197426 ], [ 110.13301, 25.197211 ], [ 110.133123, 25.196969 ], [ 110.133235, 25.196727 ] ] ] } },
{ "type": "Feature", "properties": { "OBJECTID": 18 }, "geometry": { "type": "Polygon", "coordinates": [ [ [ 110.145629, 25.200977 ], [ 110.145447, 25.200864 ], [ 110.145369, 25.201004 ], [ 110.145327, 25.201146 ], [ 110.14587, 25.201497 ], [ 110.146022, 25.201353 ], [ 110.145629, 25.200977 ] ] ] } },
{ "type": "Feature", "properties": { "OBJECTID": 19 }, "geometry": { "type": "Polygon", "coordinates": [ [ [ 110.143698, 25.201809 ], [ 110.143602, 25.201738 ], [ 110.143505, 25.201667 ], [ 110.143427, 25.201751 ], [ 110.143349, 25.201839 ], [ 110.143271, 25.201926 ], [ 110.143368, 25.201997 ], [ 110.143464, 25.202068 ], [ 110.143543, 25.201984 ], [ 110.14362, 25.201897 ], [ 110.143698, 25.201809 ] ] ] } },
{ "type": "Feature", "properties": { "OBJECTID": 20 }, "geometry": { "type": "Polygon", "coordinates": [ [ [ 110.147453, 25.2165 ], [ 110.147338, 25.216369 ], [ 110.147209, 25.216372 ], [ 110.147069, 25.21648 ], [ 110.146999, 25.216592 ], [ 110.146859, 25.216701 ], [ 110.1469, 25.216826 ], [ 110.14703, 25.216821 ], [ 110.147171, 25.216714 ], [ 110.147312, 25.216607 ], [ 110.147453, 25.2165 ] ] ] } },
{ "type": "Feature", "properties": { "OBJECTID": 21 }, "geometry": { "type": "Polygon", "coordinates": [ [ [ 110.154348, 25.219524 ], [ 110.153796, 25.218511 ], [ 110.153453, 25.218138 ], [ 110.153138, 25.21859 ], [ 110.153116, 25.219147 ], [ 110.153421, 25.219623 ], [ 110.153975, 25.219904 ], [ 110.154525, 25.220207 ], [ 110.15465, 25.220034 ], [ 110.154348, 25.219524 ] ] ] } },
{ "type": "Feature", "properties": { "OBJECTID": 22 }, "geometry": { "type": "Polygon", "coordinates": [ [ [ 110.15886, 25.210851 ], [ 110.158009, 25.21043 ], [ 110.157657, 25.210788 ], [ 110.158492, 25.211253 ], [ 110.158759, 25.211123 ], [ 110.15886, 25.210851 ] ] ] } },
{ "type": "Feature", "properties": { "OBJECTID": 23 }, "geometry": { "type": "Polygon", "coordinates": [ [ [ 110.153771, 25.232253 ], [ 110.154141, 25.232169 ], [ 110.154165, 25.231916 ], [ 110.154159, 25.231654 ], [ 110.154135, 25.231323 ], [ 110.153846, 25.23131 ], [ 110.153728, 25.231468 ], [ 110.153742, 25.23173 ], [ 110.153756, 25.231991 ], [ 110.153771, 25.232253 ] ] ] } },
{ "type": "Feature", "properties": { "OBJECTID": 24 }, "geometry": { "type": "Polygon", "coordinates": [ [ [ 110.148156, 25.240746 ], [ 110.146558, 25.239353 ], [ 110.145867, 25.239599 ], [ 110.145736, 25.240207 ], [ 110.147335, 25.2416 ], [ 110.148033, 25.2414 ], [ 110.148156, 25.240746 ] ] ] } },
{ "type": "Feature", "properties": { "OBJECTID": 25 }, "geometry": { "type": "Polygon", "coordinates": [ [ [ 110.150974, 25.245048 ], [ 110.150343, 25.244498 ], [ 110.149399, 25.245224 ], [ 110.150031, 25.245774 ], [ 110.150974, 25.245048 ] ] ] } },
{ "type": "Feature", "properties": { "OBJECTID": 26 }, "geometry": { "type": "Polygon", "coordinates": [ [ [ 110.152403, 25.246851 ], [ 110.151908, 25.247278 ], [ 110.152282, 25.247728 ], [ 110.153278, 25.246991 ], [ 110.153222, 25.246517 ], [ 110.15216, 25.245779 ], [ 110.151607, 25.245995 ], [ 110.152403, 25.246851 ] ] ] } },
{ "type": "Feature", "properties": { "OBJECTID": 27 }, "geometry": { "type": "Polygon", "coordinates": [ [ [ 110.159376, 25.246758 ], [ 110.159924, 25.246169 ], [ 110.159482, 25.24567 ], [ 110.1592, 25.245692 ], [ 110.158617, 25.24614 ], [ 110.159066, 25.246691 ], [ 110.159376, 25.246758 ] ] ] } },
{ "type": "Feature", "properties": { "OBJECTID": 28 }, "geometry": { "type": "Polygon", "coordinates": [ [ [ 110.134571, 25.252681 ], [ 110.135158, 25.252065 ], [ 110.135778, 25.251476 ], [ 110.136399, 25.250887 ], [ 110.135997, 25.250233 ], [ 110.135337, 25.249889 ], [ 110.134717, 25.250478 ], [ 110.134096, 25.251067 ], [ 110.133475, 25.251656 ], [ 110.133937, 25.252312 ], [ 110.134571, 25.252681 ] ] ] } },
{ "type": "Feature", "properties": { "OBJECTID": 29 }, "geometry": { "type": "Polygon", "coordinates": [ [ [ 110.133895, 25.257428 ], [ 110.133968, 25.25738 ], [ 110.13352, 25.255515 ], [ 110.132825, 25.254781 ], [ 110.13137, 25.253624 ], [ 110.13117, 25.253648 ], [ 110.131997, 25.254212 ], [ 110.13278, 25.254869 ], [ 110.133452, 25.255616 ], [ 110.133593, 25.256579 ], [ 110.133895, 25.257428 ] ] ] } },
{ "type": "Feature", "properties": { "OBJECTID": 30 }, "geometry": { "type": "Polygon", "coordinates": [ [ [ 110.135086, 25.258792 ], [ 110.134883, 25.258565 ], [ 110.13468, 25.258338 ], [ 110.134477, 25.258111 ], [ 110.134274, 25.257884 ], [ 110.134091, 25.257726 ], [ 110.134081, 25.25783 ], [ 110.134426, 25.258197 ], [ 110.134629, 25.258424 ], [ 110.134956, 25.258809 ], [ 110.135086, 25.258792 ] ] ] } },
{ "type": "Feature", "properties": { "OBJECTID": 31 }, "geometry": { "type": "Polygon", "coordinates": [ [ [ 110.135208, 25.259055 ], [ 110.135615, 25.259526 ], [ 110.135868, 25.259809 ], [ 110.136101, 25.260103 ], [ 110.136286, 25.260419 ], [ 110.136331, 25.260331 ], [ 110.136009, 25.259823 ], [ 110.135756, 25.259541 ], [ 110.135503, 25.259258 ], [ 110.13525, 25.258975 ], [ 110.135208, 25.259055 ] ] ] } },
{ "type": "Feature", "properties": { "OBJECTID": 32 }, "geometry": { "type": "Polygon", "coordinates": [ [ [ 110.135101, 25.254586 ], [ 110.134536, 25.256168 ], [ 110.134892, 25.256649 ], [ 110.13591, 25.256055 ], [ 110.13614, 25.255607 ], [ 110.135399, 25.254702 ], [ 110.135101, 25.254586 ] ] ] } },
{ "type": "Feature", "properties": { "OBJECTID": 33 }, "geometry": { "type": "Polygon", "coordinates": [ [ [ 110.147234, 25.270603 ], [ 110.147859, 25.270046 ], [ 110.148007, 25.269513 ], [ 110.14732, 25.26902 ], [ 110.146644, 25.268669 ], [ 110.145999, 25.269449 ], [ 110.145463, 25.269206 ], [ 110.145034, 25.269483 ], [ 110.145693, 25.270006 ], [ 110.146431, 25.270432 ], [ 110.147234, 25.270603 ] ] ] } },
{ "type": "Feature", "properties": { "OBJECTID": 34 }, "geometry": { "type": "Polygon", "coordinates": [ [ [ 110.159298, 25.261248 ], [ 110.159557, 25.261 ], [ 110.159482, 25.260758 ], [ 110.15921, 25.260521 ], [ 110.158946, 25.260605 ], [ 110.158685, 25.260852 ], [ 110.158431, 25.261102 ], [ 110.158504, 25.261418 ], [ 110.158776, 25.261656 ], [ 110.159038, 25.261496 ], [ 110.159298, 25.261248 ] ] ] } },
{ "type": "Feature", "properties": { "OBJECTID": 35 }, "geometry": { "type": "Polygon", "coordinates": [ [ [ 110.155343, 25.262306 ], [ 110.155266, 25.262677 ], [ 110.155668, 25.262671 ], [ 110.156073, 25.262729 ], [ 110.15648, 25.262366 ], [ 110.156784, 25.261964 ], [ 110.156544, 25.26154 ], [ 110.156133, 25.261182 ], [ 110.155826, 25.26143 ], [ 110.155556, 25.261886 ], [ 110.155343, 25.262306 ] ] ] } },
{ "type": "Feature", "properties": { "OBJECTID": 36 }, "geometry": { "type": "Polygon", "coordinates": [ [ [ 110.154984, 25.261619 ], [ 110.154668, 25.261343 ], [ 110.154351, 25.261067 ], [ 110.154034, 25.260791 ], [ 110.153724, 25.260779 ], [ 110.15342, 25.261067 ], [ 110.153737, 25.261343 ], [ 110.154053, 25.261619 ], [ 110.154459, 25.261988 ], [ 110.154984, 25.261619 ] ] ] } },
{ "type": "Feature", "properties": { "OBJECTID": 37 }, "geometry": { "type": "Polygon", "coordinates": [ [ [ 110.188217, 25.224437 ], [ 110.18805, 25.224503 ], [ 110.187907, 25.224605 ], [ 110.187895, 25.224784 ], [ 110.187883, 25.224963 ], [ 110.188023, 25.225045 ], [ 110.188196, 25.22496 ], [ 110.18837, 25.224876 ], [ 110.188403, 25.224753 ], [ 110.18831, 25.224595 ], [ 110.188217, 25.224437 ] ] ] } },
{ "type": "Feature", "properties": { "OBJECTID": 38 }, "geometry": { "type": "Polygon", "coordinates": [ [ [ 110.191327, 25.223434 ], [ 110.191244, 25.222816 ], [ 110.190877, 25.222192 ], [ 110.190368, 25.221825 ], [ 110.188996, 25.221913 ], [ 110.18935, 25.222543 ], [ 110.189853, 25.222755 ], [ 110.190356, 25.222957 ], [ 110.190704, 25.22359 ], [ 110.191327, 25.223434 ] ] ] } },
{ "type": "Feature", "properties": { "OBJECTID": 39 }, "geometry": { "type": "Polygon", "coordinates": [ [ [ 110.192716, 25.223371 ], [ 110.192295, 25.223576 ], [ 110.192184, 25.223767 ], [ 110.192402, 25.224087 ], [ 110.192824, 25.223882 ], [ 110.192942, 25.223754 ], [ 110.192716, 25.223371 ] ] ] } },
{ "type": "Feature", "properties": { "OBJECTID": 40 }, "geometry": { "type": "Polygon", "coordinates": [ [ [ 110.186884, 25.229286 ], [ 110.186875, 25.229208 ], [ 110.186799, 25.229117 ], [ 110.186723, 25.229026 ], [ 110.186647, 25.228934 ], [ 110.186572, 25.228842 ], [ 110.186496, 25.228751 ], [ 110.186421, 25.228659 ], [ 110.186359, 25.228559 ], [ 110.186298, 25.228459 ], [ 110.186238, 25.228358 ], [ 110.186178, 25.228258 ], [ 110.186118, 25.228157 ], [ 110.186057, 25.228057 ], [ 110.185988, 25.227961 ], [ 110.185904, 25.227876 ], [ 110.185304, 25.227008 ], [ 110.185271, 25.227057 ], [ 110.185322, 25.227161 ], [ 110.185372, 25.227266 ], [ 110.185423, 25.227371 ], [ 110.185474, 25.227476 ], [ 110.185525, 25.227581 ], [ 110.185576, 25.227685 ], [ 110.185627, 25.22779 ], [ 110.185685, 25.227892 ], [ 110.185744, 25.227993 ], [ 110.185805, 25.228093 ], [ 110.185866, 25.228193 ], [ 110.185926, 25.228294 ], [ 110.185986, 25.228395 ], [ 110.186045, 25.228496 ], [ 110.186105, 25.228596 ], [ 110.186169, 25.228695 ], [ 110.186234, 25.228793 ], [ 110.186304, 25.228888 ], [ 110.186375, 25.228983 ], [ 110.186449, 25.229076 ], [ 110.186523, 25.229168 ], [ 110.186597, 25.229261 ], [ 110.186673, 25.229353 ], [ 110.186773, 25.22934 ], [ 110.186884, 25.229286 ] ] ] } },
{ "type": "Feature", "properties": { "OBJECTID": 41 }, "geometry": { "type": "Polygon", "coordinates": [ [ [ 110.188567, 25.232563 ], [ 110.188527, 25.232427 ], [ 110.188475, 25.232291 ], [ 110.188414, 25.232159 ], [ 110.188353, 25.232027 ], [ 110.188292, 25.231895 ], [ 110.188231, 25.231762 ], [ 110.188173, 25.231629 ], [ 110.188116, 25.231495 ], [ 110.187684, 25.23073 ], [ 110.187631, 25.230595 ], [ 110.187586, 25.230458 ], [ 110.187527, 25.230325 ], [ 110.187473, 25.23019 ], [ 110.187416, 25.230056 ], [ 110.18735, 25.229926 ], [ 110.187292, 25.229793 ], [ 110.187124, 25.229481 ], [ 110.186883, 25.229594 ], [ 110.186949, 25.229709 ], [ 110.18703, 25.229831 ], [ 110.187099, 25.22996 ], [ 110.187155, 25.230094 ], [ 110.18721, 25.230229 ], [ 110.187263, 25.230364 ], [ 110.187314, 25.2305 ], [ 110.187366, 25.230636 ], [ 110.187624, 25.231122 ], [ 110.188116, 25.232021 ], [ 110.188178, 25.232153 ], [ 110.18824, 25.232284 ], [ 110.188304, 25.232415 ], [ 110.188428, 25.232631 ], [ 110.188567, 25.232563 ] ] ] } },
{ "type": "Feature", "properties": { "OBJECTID": 42 }, "geometry": { "type": "Polygon", "coordinates": [ [ [ 110.190097, 25.234808 ], [ 110.190242, 25.234618 ], [ 110.190408, 25.234435 ], [ 110.190554, 25.234238 ], [ 110.190721, 25.234056 ], [ 110.190878, 25.233866 ], [ 110.191029, 25.233673 ], [ 110.191181, 25.23348 ], [ 110.191234, 25.233248 ], [ 110.191318, 25.233023 ], [ 110.191392, 25.232795 ], [ 110.191446, 25.232563 ], [ 110.191501, 25.232331 ], [ 110.191576, 25.232013 ], [ 110.191392, 25.231895 ], [ 110.19134, 25.232089 ], [ 110.1913, 25.232323 ], [ 110.191258, 25.232558 ], [ 110.191197, 25.232788 ], [ 110.191125, 25.233016 ], [ 110.19104, 25.233241 ], [ 110.190912, 25.233446 ], [ 110.190771, 25.233646 ], [ 110.190623, 25.233842 ], [ 110.190476, 25.234038 ], [ 110.190327, 25.234233 ], [ 110.190171, 25.234424 ], [ 110.190016, 25.234615 ], [ 110.189589, 25.234671 ], [ 110.189473, 25.234458 ], [ 110.189371, 25.23424 ], [ 110.189267, 25.234022 ], [ 110.189159, 25.233806 ], [ 110.189052, 25.233589 ], [ 110.188949, 25.233371 ], [ 110.188845, 25.233153 ], [ 110.188716, 25.233003 ], [ 110.188649, 25.233097 ], [ 110.188755, 25.233314 ], [ 110.188861, 25.233531 ], [ 110.188967, 25.233748 ], [ 110.189068, 25.233967 ], [ 110.189173, 25.234184 ], [ 110.18928, 25.234401 ], [ 110.189389, 25.234617 ], [ 110.189505, 25.234829 ], [ 110.189637, 25.235032 ], [ 110.189867, 25.23492 ], [ 110.190097, 25.234808 ] ] ] } },
{ "type": "Feature", "properties": { "OBJECTID": 43 }, "geometry": { "type": "Polygon", "coordinates": [ [ [ 110.190039, 25.235331 ], [ 110.189827, 25.235336 ], [ 110.190088, 25.23575 ], [ 110.190339, 25.236169 ], [ 110.190594, 25.236587 ], [ 110.190852, 25.237002 ], [ 110.191143, 25.237399 ], [ 110.191453, 25.237782 ], [ 110.191849, 25.238095 ], [ 110.19188, 25.237924 ], [ 110.191362, 25.237474 ], [ 110.19106, 25.237084 ], [ 110.190781, 25.236682 ], [ 110.190523, 25.236266 ], [ 110.190258, 25.235854 ], [ 110.190039, 25.235331 ] ] ] } },
{ "type": "Feature", "properties": { "OBJECTID": 44 }, "geometry": { "type": "Polygon", "coordinates": [ [ [ 110.192311, 25.238268 ], [ 110.19224, 25.238411 ], [ 110.192729, 25.23877 ], [ 110.193072, 25.239036 ], [ 110.193423, 25.239293 ], [ 110.193785, 25.239538 ], [ 110.194147, 25.239782 ], [ 110.1947, 25.240189 ], [ 110.194777, 25.240034 ], [ 110.194403, 25.239804 ], [ 110.194046, 25.239554 ], [ 110.193683, 25.239311 ], [ 110.193322, 25.239066 ], [ 110.192976, 25.238803 ], [ 110.192658, 25.23853 ], [ 110.192311, 25.238268 ] ] ] } },
{ "type": "Feature", "properties": { "OBJECTID": 45 }, "geometry": { "type": "Polygon", "coordinates": [ [ [ 110.195394, 25.2396 ], [ 110.195215, 25.239417 ], [ 110.195006, 25.239173 ], [ 110.19484, 25.239323 ], [ 110.194639, 25.239485 ], [ 110.194438, 25.239648 ], [ 110.194847, 25.239993 ], [ 110.194992, 25.239925 ], [ 110.195193, 25.239762 ], [ 110.195394, 25.2396 ] ] ] } },
{ "type": "Feature", "properties": { "OBJECTID": 46 }, "geometry": { "type": "Polygon", "coordinates": [ [ [ 110.216768, 25.220157 ], [ 110.2167, 25.219823 ], [ 110.216592, 25.219699 ], [ 110.216424, 25.219663 ], [ 110.215508, 25.219818 ], [ 110.215404, 25.219959 ], [ 110.215352, 25.22011 ], [ 110.215479, 25.220366 ], [ 110.216768, 25.220157 ] ] ] } },
{ "type": "Feature", "properties": { "OBJECTID": 47 }, "geometry": { "type": "Polygon", "coordinates": [ [ [ 110.209286, 25.225221 ], [ 110.209232, 25.22356 ], [ 110.208925, 25.223512 ], [ 110.207829, 25.223541 ], [ 110.207577, 25.223656 ], [ 110.207542, 25.224365 ], [ 110.207703, 25.225218 ], [ 110.207924, 25.225348 ], [ 110.209019, 25.225316 ], [ 110.209286, 25.225221 ] ] ] } },
{ "type": "Feature", "properties": { "OBJECTID": 48 }, "geometry": { "type": "Polygon", "coordinates": [ [ [ 110.191947, 25.230225 ], [ 110.192181, 25.230352 ], [ 110.192182, 25.230182 ], [ 110.191772, 25.229422 ], [ 110.191541, 25.231051 ], [ 110.191726, 25.231054 ], [ 110.191896, 25.230694 ], [ 110.191947, 25.230225 ] ] ] } },
{ "type": "Feature", "properties": { "OBJECTID": 49 }, "geometry": { "type": "Polygon", "coordinates": [ [ [ 110.201392, 25.228832 ], [ 110.200118, 25.229423 ], [ 110.199937, 25.229611 ], [ 110.200011, 25.229857 ], [ 110.200365, 25.230592 ], [ 110.200596, 25.230722 ], [ 110.201364, 25.230339 ], [ 110.201529, 25.230129 ], [ 110.201487, 25.229327 ], [ 110.201474, 25.22906 ], [ 110.201392, 25.228832 ] ] ] } },
{ "type": "Feature", "properties": { "OBJECTID": 50 }, "geometry": { "type": "Polygon", "coordinates": [ [ [ 110.208913, 25.234836 ], [ 110.208774, 25.234774 ], [ 110.208633, 25.234814 ], [ 110.208492, 25.234873 ], [ 110.208352, 25.234931 ], [ 110.208211, 25.23499 ], [ 110.208262, 25.235079 ], [ 110.208378, 25.235172 ], [ 110.208636, 25.235328 ], [ 110.208753, 25.23542 ], [ 110.208866, 25.235516 ], [ 110.208986, 25.235678 ], [ 110.209125, 25.235658 ], [ 110.209101, 25.235518 ], [ 110.209072, 25.23538 ], [ 110.209039, 25.235242 ], [ 110.209002, 25.235106 ], [ 110.20896, 25.23497 ], [ 110.208913, 25.234836 ] ] ] } },
{ "type": "Feature", "properties": { "OBJECTID": 51 }, "geometry": { "type": "Polygon", "coordinates": [ [ [ 110.208219, 25.242377 ], [ 110.208083, 25.242352 ], [ 110.207947, 25.24233 ], [ 110.20782, 25.242317 ], [ 110.207719, 25.242371 ], [ 110.207658, 25.242484 ], [ 110.207616, 25.242604 ], [ 110.20758, 25.242725 ], [ 110.207543, 25.242847 ], [ 110.207507, 25.242968 ], [ 110.207525, 25.243058 ], [ 110.207661, 25.24308 ], [ 110.207798, 25.243103 ], [ 110.207934, 25.243125 ], [ 110.208047, 25.243116 ], [ 110.208076, 25.242993 ], [ 110.208104, 25.24287 ], [ 110.208133, 25.242747 ], [ 110.208161, 25.242624 ], [ 110.20819, 25.2425 ], [ 110.208219, 25.242377 ] ] ] } },
{ "type": "Feature", "properties": { "OBJECTID": 52 }, "geometry": { "type": "Polygon", "coordinates": [ [ [ 110.198285, 25.246146 ], [ 110.198596, 25.246689 ], [ 110.1989, 25.247234 ], [ 110.199214, 25.247775 ], [ 110.199524, 25.248318 ], [ 110.199832, 25.248862 ], [ 110.200282, 25.249758 ], [ 110.20057, 25.249628 ], [ 110.200056, 25.248766 ], [ 110.199744, 25.248225 ], [ 110.199428, 25.247685 ], [ 110.199109, 25.247146 ], [ 110.198797, 25.246604 ], [ 110.198486, 25.246062 ], [ 110.198175, 25.24552 ], [ 110.197841, 25.245085 ], [ 110.197334, 25.245487 ], [ 110.19705, 25.245905 ], [ 110.197624, 25.246037 ], [ 110.198285, 25.246146 ] ] ] } },
{ "type": "Feature", "properties": { "OBJECTID": 53 }, "geometry": { "type": "Polygon", "coordinates": [ [ [ 110.197739, 25.248831 ], [ 110.197862, 25.248839 ], [ 110.197871, 25.248674 ], [ 110.197452, 25.248245 ], [ 110.197298, 25.248114 ], [ 110.197148, 25.248222 ], [ 110.196999, 25.248357 ], [ 110.196849, 25.248492 ], [ 110.1967, 25.248627 ], [ 110.19655, 25.248762 ], [ 110.196694, 25.248895 ], [ 110.196842, 25.249032 ], [ 110.196989, 25.249169 ], [ 110.19714, 25.249302 ], [ 110.197293, 25.249239 ], [ 110.197739, 25.248831 ] ] ] } },
{ "type": "Feature", "properties": { "OBJECTID": 54 }, "geometry": { "type": "Polygon", "coordinates": [ [ [ 110.201178, 25.251875 ], [ 110.200632, 25.250346 ], [ 110.200475, 25.250597 ], [ 110.201121, 25.252242 ], [ 110.201573, 25.253332 ], [ 110.201691, 25.253882 ], [ 110.201685, 25.254458 ], [ 110.201586, 25.255033 ], [ 110.201488, 25.255609 ], [ 110.201736, 25.255591 ], [ 110.201912, 25.254074 ], [ 110.201833, 25.253515 ], [ 110.201178, 25.251875 ] ] ] } },
{ "type": "Feature", "properties": { "OBJECTID": 55 }, "geometry": { "type": "Polygon", "coordinates": [ [ [ 110.201331, 25.258333 ], [ 110.200935, 25.258263 ], [ 110.200538, 25.258194 ], [ 110.200163, 25.258165 ], [ 110.19994, 25.258731 ], [ 110.200334, 25.258812 ], [ 110.200728, 25.258892 ], [ 110.201122, 25.258973 ], [ 110.201256, 25.258694 ], [ 110.201331, 25.258333 ] ] ] } },
{ "type": "Feature", "properties": { "OBJECTID": 56 }, "geometry": { "type": "Polygon", "coordinates": [ [ [ 110.206366, 25.261155 ], [ 110.206245, 25.261132 ], [ 110.206123, 25.261109 ], [ 110.206001, 25.261086 ], [ 110.205879, 25.261064 ], [ 110.205757, 25.261041 ], [ 110.205635, 25.261018 ], [ 110.205513, 25.260995 ], [ 110.205391, 25.260973 ], [ 110.205269, 25.26095 ], [ 110.205147, 25.260927 ], [ 110.205025, 25.260904 ], [ 110.204922, 25.260876 ], [ 110.204798, 25.260865 ], [ 110.204674, 25.260855 ], [ 110.20455, 25.260844 ], [ 110.204426, 25.260851 ], [ 110.204302, 25.260863 ], [ 110.204178, 25.26086 ], [ 110.204054, 25.260852 ], [ 110.20393, 25.260844 ], [ 110.203806, 25.260837 ], [ 110.203681, 25.260831 ], [ 110.203557, 25.260826 ], [ 110.203433, 25.26082 ], [ 110.203308, 25.260814 ], [ 110.203184, 25.260819 ], [ 110.203063, 25.2608 ], [ 110.202938, 25.260793 ], [ 110.202814, 25.260785 ], [ 110.20269, 25.260778 ], [ 110.202566, 25.260771 ], [ 110.202441, 25.260764 ], [ 110.202317, 25.260757 ], [ 110.202193, 25.26075 ], [ 110.202069, 25.260745 ], [ 110.201944, 25.260743 ], [ 110.20182, 25.260742 ], [ 110.201695, 25.26074 ], [ 110.201571, 25.260738 ], [ 110.201446, 25.260737 ], [ 110.201322, 25.260735 ], [ 110.201226, 25.260766 ], [ 110.201203, 25.260877 ], [ 110.20118, 25.260988 ], [ 110.201283, 25.260995 ], [ 110.201407, 25.260984 ], [ 110.201531, 25.260974 ], [ 110.201655, 25.260963 ], [ 110.201779, 25.260953 ], [ 110.201903, 25.260942 ], [ 110.202027, 25.260932 ], [ 110.202151, 25.260928 ], [ 110.202275, 25.260934 ], [ 110.2024, 25.26094 ], [ 110.202524, 25.260946 ], [ 110.202648, 25.260951 ], [ 110.202773, 25.260957 ], [ 110.202897, 25.260963 ], [ 110.203021, 25.260968 ], [ 110.203146, 25.260975 ], [ 110.20327, 25.260986 ], [ 110.203394, 25.260992 ], [ 110.203518, 25.260996 ], [ 110.203643, 25.261001 ], [ 110.203767, 25.261006 ], [ 110.203891, 25.261011 ], [ 110.204015, 25.261021 ], [ 110.204139, 25.261032 ], [ 110.204263, 25.261042 ], [ 110.204387, 25.261053 ], [ 110.204498, 25.261052 ], [ 110.204622, 25.261064 ], [ 110.204746, 25.261077 ], [ 110.204869, 25.261089 ], [ 110.204991, 25.261114 ], [ 110.205113, 25.261138 ], [ 110.205234, 25.261162 ], [ 110.205356, 25.261187 ], [ 110.205477, 25.261211 ], [ 110.205599, 25.261236 ], [ 110.20572, 25.26126 ], [ 110.205842, 25.261284 ], [ 110.205964, 25.261309 ], [ 110.206085, 25.261333 ], [ 110.206207, 25.261358 ], [ 110.206328, 25.261382 ], [ 110.20645, 25.261406 ], [ 110.206571, 25.261431 ], [ 110.206693, 25.261455 ], [ 110.206814, 25.26148 ], [ 110.206936, 25.261504 ], [ 110.207058, 25.261529 ], [ 110.207074, 25.26146 ], [ 110.207043, 25.26135 ], [ 110.206975, 25.261276 ], [ 110.206853, 25.261252 ], [ 110.206731, 25.261227 ], [ 110.20661, 25.261203 ], [ 110.206488, 25.261179 ], [ 110.206366, 25.261155 ] ] ] } },
{ "type": "Feature", "properties": { "OBJECTID": 57 }, "geometry": { "type": "Polygon", "coordinates": [ [ [ 110.178032, 25.27686 ], [ 110.178485, 25.276862 ], [ 110.178938, 25.276869 ], [ 110.17939, 25.276892 ], [ 110.179245, 25.276727 ], [ 110.178793, 25.276732 ], [ 110.17834, 25.276717 ], [ 110.177893, 25.276777 ], [ 110.177474, 25.27693 ], [ 110.177078, 25.27713 ], [ 110.176679, 25.277324 ], [ 110.176299, 25.277548 ], [ 110.175902, 25.277745 ], [ 110.175513, 25.277954 ], [ 110.175675, 25.278073 ], [ 110.176055, 25.27785 ], [ 110.176441, 25.277634 ], [ 110.176833, 25.277429 ], [ 110.177222, 25.277218 ], [ 110.177613, 25.27701 ], [ 110.178032, 25.27686 ] ] ] } },
{ "type": "Feature", "properties": { "OBJECTID": 58 }, "geometry": { "type": "Polygon", "coordinates": [ [ [ 110.187304, 25.267439 ], [ 110.187509, 25.267225 ], [ 110.187334, 25.267175 ], [ 110.187022, 25.267179 ], [ 110.186711, 25.26718 ], [ 110.186631, 25.267404 ], [ 110.186545, 25.267661 ], [ 110.186395, 25.267909 ], [ 110.186256, 25.268162 ], [ 110.186161, 25.268431 ], [ 110.186093, 25.268707 ], [ 110.186017, 25.268982 ], [ 110.186237, 25.269124 ], [ 110.186321, 25.268851 ], [ 110.186411, 25.26858 ], [ 110.186528, 25.268318 ], [ 110.186691, 25.268079 ], [ 110.186896, 25.267865 ], [ 110.1871, 25.267652 ], [ 110.187304, 25.267439 ] ] ] } },
{ "type": "Feature", "properties": { "OBJECTID": 59 }, "geometry": { "type": "Polygon", "coordinates": [ [ [ 110.185837, 25.26945 ], [ 110.185643, 25.269764 ], [ 110.185403, 25.270065 ], [ 110.185341, 25.270429 ], [ 110.185293, 25.270799 ], [ 110.185211, 25.271164 ], [ 110.185128, 25.271529 ], [ 110.185002, 25.271882 ], [ 110.184823, 25.272218 ], [ 110.184538, 25.272689 ], [ 110.18466, 25.272772 ], [ 110.184863, 25.27248 ], [ 110.18504, 25.272145 ], [ 110.185217, 25.271808 ], [ 110.185311, 25.271447 ], [ 110.185383, 25.271081 ], [ 110.185486, 25.270721 ], [ 110.185594, 25.270364 ], [ 110.185815, 25.270052 ], [ 110.186044, 25.269588 ], [ 110.185837, 25.26945 ] ] ] } },
{ "type": "Feature", "properties": { "OBJECTID": 60 }, "geometry": { "type": "Polygon", "coordinates": [ [ [ 110.189742, 25.265648 ], [ 110.189659, 25.265582 ], [ 110.189501, 25.265664 ], [ 110.189342, 25.265746 ], [ 110.189183, 25.265828 ], [ 110.189025, 25.26591 ], [ 110.188866, 25.265992 ], [ 110.188715, 25.266084 ], [ 110.188575, 25.26619 ], [ 110.188434, 25.266296 ], [ 110.188311, 25.266417 ], [ 110.188375, 25.266454 ], [ 110.188527, 25.266373 ], [ 110.188661, 25.26626 ], [ 110.188795, 25.266148 ], [ 110.188952, 25.266064 ], [ 110.18911, 25.26598 ], [ 110.189268, 25.265897 ], [ 110.189425, 25.265813 ], [ 110.189583, 25.26573 ], [ 110.189742, 25.265648 ] ] ] } },
{ "type": "Feature", "properties": { "OBJECTID": 61 }, "geometry": { "type": "Polygon", "coordinates": [ [ [ 110.193786, 25.262136 ], [ 110.193807, 25.262005 ], [ 110.193322, 25.262336 ], [ 110.19285, 25.262684 ], [ 110.192433, 25.263086 ], [ 110.192038, 25.263505 ], [ 110.191648, 25.263928 ], [ 110.191247, 25.264343 ], [ 110.190846, 25.264758 ], [ 110.189948, 25.265465 ], [ 110.190256, 25.265484 ], [ 110.190863, 25.264924 ], [ 110.191253, 25.264501 ], [ 110.191652, 25.264084 ], [ 110.192049, 25.263666 ], [ 110.192445, 25.263247 ], [ 110.192848, 25.262834 ], [ 110.193302, 25.262469 ], [ 110.193786, 25.262136 ] ] ] } },
{ "type": "Feature", "properties": { "OBJECTID": 62 }, "geometry": { "type": "Polygon", "coordinates": [ [ [ 110.181472, 25.27634 ], [ 110.181793, 25.276637 ], [ 110.182316, 25.27642 ], [ 110.182444, 25.27583 ], [ 110.182938, 25.275376 ], [ 110.183419, 25.274912 ], [ 110.183908, 25.274453 ], [ 110.184539, 25.273372 ], [ 110.184418, 25.273148 ], [ 110.183766, 25.274268 ], [ 110.18173, 25.276012 ], [ 110.179755, 25.276641 ], [ 110.180213, 25.276817 ], [ 110.181472, 25.27634 ] ] ] } },
{ "type": "Feature", "properties": { "OBJECTID": 63 }, "geometry": { "type": "Polygon", "coordinates": [ [ [ 110.177027, 25.269901 ], [ 110.177026, 25.269756 ], [ 110.177025, 25.269612 ], [ 110.177024, 25.269467 ], [ 110.177024, 25.269322 ], [ 110.176929, 25.269207 ], [ 110.176796, 25.269153 ], [ 110.176321, 25.269119 ], [ 110.176233, 25.269177 ], [ 110.176234, 25.269321 ], [ 110.176235, 25.269466 ], [ 110.176236, 25.26961 ], [ 110.176237, 25.269755 ], [ 110.176238, 25.2699 ], [ 110.176391, 25.269904 ], [ 110.17655, 25.269903 ], [ 110.176709, 25.269902 ], [ 110.176868, 25.269901 ], [ 110.177027, 25.269901 ] ] ] } },
{ "type": "Feature", "properties": { "OBJECTID": 64 }, "geometry": { "type": "Polygon", "coordinates": [ [ [ 110.168824, 25.280723 ], [ 110.168708, 25.28082 ], [ 110.168599, 25.280926 ], [ 110.168497, 25.281038 ], [ 110.168407, 25.281157 ], [ 110.168322, 25.281279 ], [ 110.168244, 25.281406 ], [ 110.168177, 25.281537 ], [ 110.168111, 25.281669 ], [ 110.168059, 25.281797 ], [ 110.168172, 25.281883 ], [ 110.168243, 25.281754 ], [ 110.168308, 25.281621 ], [ 110.168374, 25.28149 ], [ 110.168455, 25.281365 ], [ 110.168536, 25.28124 ], [ 110.168622, 25.281118 ], [ 110.168723, 25.281006 ], [ 110.168836, 25.280904 ], [ 110.168953, 25.280806 ], [ 110.168824, 25.280723 ] ] ] } },
{ "type": "Feature", "properties": { "OBJECTID": 65 }, "geometry": { "type": "Polygon", "coordinates": [ [ [ 110.168016, 25.282135 ], [ 110.16787, 25.282141 ], [ 110.167772, 25.282353 ], [ 110.167682, 25.282569 ], [ 110.167579, 25.282779 ], [ 110.167472, 25.282987 ], [ 110.167387, 25.283204 ], [ 110.167341, 25.28343 ], [ 110.167323, 25.283659 ], [ 110.167341, 25.283889 ], [ 110.167373, 25.284114 ], [ 110.167501, 25.284119 ], [ 110.167489, 25.283889 ], [ 110.16748, 25.283659 ], [ 110.167499, 25.28343 ], [ 110.16756, 25.283207 ], [ 110.167638, 25.282988 ], [ 110.167722, 25.282771 ], [ 110.167815, 25.282557 ], [ 110.167913, 25.282345 ], [ 110.168016, 25.282135 ] ] ] } },
{ "type": "Feature", "properties": { "OBJECTID": 66 }, "geometry": { "type": "Polygon", "coordinates": [ [ [ 110.172582, 25.28179 ], [ 110.171991, 25.28162 ], [ 110.171329, 25.281597 ], [ 110.170675, 25.281496 ], [ 110.17004, 25.28132 ], [ 110.169436, 25.281072 ], [ 110.168901, 25.281083 ], [ 110.168531, 25.28158 ], [ 110.168403, 25.282096 ], [ 110.168883, 25.282514 ], [ 110.169362, 25.282931 ], [ 110.169842, 25.283348 ], [ 110.170324, 25.283762 ], [ 110.170876, 25.284095 ], [ 110.171498, 25.284302 ], [ 110.172155, 25.284372 ], [ 110.172739, 25.284195 ], [ 110.172709, 25.283597 ], [ 110.172667, 25.282995 ], [ 110.172624, 25.282392 ], [ 110.172582, 25.28179 ] ] ] } },
{ "type": "Feature", "properties": { "OBJECTID": 67 }, "geometry": { "type": "Polygon", "coordinates": [ [ [ 110.17303, 25.284335 ], [ 110.175192, 25.284168 ], [ 110.175137, 25.28155 ], [ 110.172915, 25.281714 ], [ 110.172826, 25.282771 ], [ 110.17303, 25.284335 ] ] ] } },
{ "type": "Feature", "properties": { "OBJECTID": 68 }, "geometry": { "type": "Polygon", "coordinates": [ [ [ 110.172285, 25.284641 ], [ 110.172173, 25.284643 ], [ 110.17206, 25.284642 ], [ 110.171948, 25.284637 ], [ 110.171836, 25.284628 ], [ 110.171724, 25.284616 ], [ 110.171613, 25.2846 ], [ 110.171548, 25.284669 ], [ 110.171527, 25.284975 ], [ 110.171638, 25.284987 ], [ 110.171751, 25.284993 ], [ 110.171863, 25.285 ], [ 110.171975, 25.285007 ], [ 110.172088, 25.285013 ], [ 110.17225, 25.285029 ], [ 110.172272, 25.284845 ], [ 110.172279, 25.284743 ], [ 110.172285, 25.284641 ] ] ] } },
{ "type": "Feature", "properties": { "OBJECTID": 69 }, "geometry": { "type": "Polygon", "coordinates": [ [ [ 110.174176, 25.289236 ], [ 110.173448, 25.28892 ], [ 110.173291, 25.288962 ], [ 110.173051, 25.28935 ], [ 110.173052, 25.28946 ], [ 110.173727, 25.289848 ], [ 110.173866, 25.28976 ], [ 110.174176, 25.289236 ] ] ] } },
{ "type": "Feature", "properties": { "OBJECTID": 70 }, "geometry": { "type": "Polygon", "coordinates": [ [ [ 110.160272, 25.292899 ], [ 110.160475, 25.292527 ], [ 110.160677, 25.292156 ], [ 110.160879, 25.291785 ], [ 110.160943, 25.291405 ], [ 110.160571, 25.291183 ], [ 110.160173, 25.290981 ], [ 110.159776, 25.290779 ], [ 110.158813, 25.290228 ], [ 110.158586, 25.290406 ], [ 110.158399, 25.290784 ], [ 110.158212, 25.291162 ], [ 110.158025, 25.291539 ], [ 110.157896, 25.291919 ], [ 110.158233, 25.292161 ], [ 110.158642, 25.292345 ], [ 110.15905, 25.292529 ], [ 110.159458, 25.292713 ], [ 110.159867, 25.292897 ], [ 110.160272, 25.292899 ] ] ] } },
{ "type": "Feature", "properties": { "OBJECTID": 71 }, "geometry": { "type": "Polygon", "coordinates": [ [ [ 110.16248, 25.276667 ], [ 110.16231, 25.276586 ], [ 110.162141, 25.276505 ], [ 110.161971, 25.276424 ], [ 110.161792, 25.27647 ], [ 110.161633, 25.27655 ], [ 110.161552, 25.276708 ], [ 110.161471, 25.276866 ], [ 110.161389, 25.277024 ], [ 110.161318, 25.277182 ], [ 110.161374, 25.277349 ], [ 110.162029, 25.277629 ], [ 110.162104, 25.277468 ], [ 110.162179, 25.277308 ], [ 110.162254, 25.277148 ], [ 110.16233, 25.276988 ], [ 110.162405, 25.276828 ], [ 110.16248, 25.276667 ] ] ] } },
{ "type": "Feature", "properties": { "OBJECTID": 72 }, "geometry": { "type": "Polygon", "coordinates": [ [ [ 110.165119, 25.261901 ], [ 110.165111, 25.261771 ], [ 110.165103, 25.261641 ], [ 110.165095, 25.261512 ], [ 110.165087, 25.261382 ], [ 110.165079, 25.261253 ], [ 110.165071, 25.261123 ], [ 110.16466, 25.261105 ], [ 110.164576, 25.261152 ], [ 110.164584, 25.261281 ], [ 110.164592, 25.261411 ], [ 110.1646, 25.261541 ], [ 110.164607, 25.26167 ], [ 110.164615, 25.2618 ], [ 110.164623, 25.261929 ], [ 110.164908, 25.261968 ], [ 110.165119, 25.261901 ] ] ] } },
{ "type": "Feature", "properties": { "OBJECTID": 73 }, "geometry": { "type": "Polygon", "coordinates": [ [ [ 110.181428, 25.251544 ], [ 110.18127, 25.251553 ], [ 110.181111, 25.251563 ], [ 110.180953, 25.251572 ], [ 110.180794, 25.251582 ], [ 110.180718, 25.251673 ], [ 110.180795, 25.252393 ], [ 110.180952, 25.252384 ], [ 110.18111, 25.252374 ], [ 110.181269, 25.252363 ], [ 110.181427, 25.252352 ], [ 110.181487, 25.252264 ], [ 110.181475, 25.25212 ], [ 110.181463, 25.251976 ], [ 110.181452, 25.251832 ], [ 110.18144, 25.251688 ], [ 110.181428, 25.251544 ] ] ] } },
{ "type": "Feature", "properties": { "OBJECTID": 74 }, "geometry": { "type": "Polygon", "coordinates": [ [ [ 110.116136, 25.205921 ], [ 110.115427, 25.204336 ], [ 110.114662, 25.20425 ], [ 110.113917, 25.204516 ], [ 110.114078, 25.205382 ], [ 110.114238, 25.206248 ], [ 110.114406, 25.207113 ], [ 110.114574, 25.207978 ], [ 110.11463, 25.208853 ], [ 110.114703, 25.209713 ], [ 110.11565, 25.209882 ], [ 110.116597, 25.21005 ], [ 110.118369, 25.209965 ], [ 110.119049, 25.20935 ], [ 110.118548, 25.208663 ], [ 110.117941, 25.207981 ], [ 110.117334, 25.207298 ], [ 110.116727, 25.206615 ], [ 110.116136, 25.205921 ] ] ] } },
{ "type": "Feature", "properties": { "OBJECTID": 75 }, "geometry": { "type": "Polygon", "coordinates": [ [ [ 110.121328, 25.199112 ], [ 110.121006, 25.198995 ], [ 110.120684, 25.198878 ], [ 110.120362, 25.198762 ], [ 110.12004, 25.198645 ], [ 110.119546, 25.198331 ], [ 110.119166, 25.198383 ], [ 110.119279, 25.198681 ], [ 110.119393, 25.198979 ], [ 110.119506, 25.199276 ], [ 110.119619, 25.199574 ], [ 110.119732, 25.199872 ], [ 110.119981, 25.200078 ], [ 110.121021, 25.200057 ], [ 110.121325, 25.199966 ], [ 110.121428, 25.199689 ], [ 110.121328, 25.199112 ] ] ] } },
{ "type": "Feature", "properties": { "OBJECTID": 76 }, "geometry": { "type": "Polygon", "coordinates": [ [ [ 110.123712, 25.203535 ], [ 110.123796, 25.202412 ], [ 110.123596, 25.202306 ], [ 110.122362, 25.20223 ], [ 110.122081, 25.20224 ], [ 110.121952, 25.202782 ], [ 110.122041, 25.203278 ], [ 110.122169, 25.20344 ], [ 110.123712, 25.203535 ] ] ] } },
{ "type": "Feature", "properties": { "OBJECTID": 77 }, "geometry": { "type": "Polygon", "coordinates": [ [ [ 110.19591, 25.26081 ], [ 110.195515, 25.261017 ], [ 110.195121, 25.261225 ], [ 110.194726, 25.261432 ], [ 110.194386, 25.261648 ], [ 110.194597, 25.261715 ], [ 110.195155, 25.26133 ], [ 110.19555, 25.261122 ], [ 110.195944, 25.260914 ], [ 110.19633, 25.260694 ], [ 110.196721, 25.260482 ], [ 110.197112, 25.260269 ], [ 110.197494, 25.260322 ], [ 110.197872, 25.260554 ], [ 110.19825, 25.260785 ], [ 110.198696, 25.26085 ], [ 110.19915, 25.260887 ], [ 110.199604, 25.260924 ], [ 110.200059, 25.260941 ], [ 110.200714, 25.260998 ], [ 110.200811, 25.26082 ], [ 110.200418, 25.260744 ], [ 110.199964, 25.260712 ], [ 110.199509, 25.260692 ], [ 110.199055, 25.260655 ], [ 110.198601, 25.260617 ], [ 110.198182, 25.260484 ], [ 110.197803, 25.260253 ], [ 110.197532, 25.260019 ], [ 110.197903, 25.259778 ], [ 110.198248, 25.259508 ], [ 110.198613, 25.25926 ], [ 110.198995, 25.259041 ], [ 110.199421, 25.258902 ], [ 110.199794, 25.25867 ], [ 110.200018, 25.25831 ], [ 110.200244, 25.257951 ], [ 110.200484, 25.257598 ], [ 110.200727, 25.257247 ], [ 110.20097, 25.256897 ], [ 110.201219, 25.25655 ], [ 110.201659, 25.25596 ], [ 110.201574, 25.255825 ], [ 110.201404, 25.256147 ], [ 110.201152, 25.256492 ], [ 110.200911, 25.256843 ], [ 110.200666, 25.257193 ], [ 110.200425, 25.257545 ], [ 110.200185, 25.257897 ], [ 110.199952, 25.258253 ], [ 110.199711, 25.258604 ], [ 110.199348, 25.258843 ], [ 110.198915, 25.258958 ], [ 110.198531, 25.259179 ], [ 110.198179, 25.259441 ], [ 110.197835, 25.259712 ], [ 110.197452, 25.259936 ], [ 110.197071, 25.260154 ], [ 110.196684, 25.260372 ], [ 110.196297, 25.260591 ], [ 110.19591, 25.26081 ] ] ] } }
]
}
